num,uni_num,序号,学校名称,学校标识码,主管部门,所在地,办学层次,备注,campusName,lng,lat,uid,area,get,lngN,latN
0,0,68,北京工业职业技术学院,4111010853,北京市,北京市,专科,,北京工业职业技术学院,116.127485,39.96617,ccc8aa4ff57aef925cbe86c4,石景山区,1,116.114613831901,39.9589346628419
1,1,69,北京信息职业技术学院,4111010857,北京市,北京市,专科,,北京信息职业技术学院,116.489231,39.978853,d6c5d9919f16e9eb31169be2,朝阳区,1,116.476572666578,39.9716864162959
2,1,69,北京信息职业技术学院,4111010857,北京市,北京市,专科,,北京信息职业技术学院(东坝校区),116.557744,39.97167,50f7d146e1850ac472210b42,朝阳区,1,116.545371865344,39.9645905600242
3,1,69,北京信息职业技术学院,4111010857,北京市,北京市,专科,,北京信息职业技术学院(南校区),116.318268,39.844632,af1ae56b4f4379124207c100,丰台区,1,116.305682192361,39.8373984325504
5,2,70,北京电子科技职业学院,4111010858,北京市,北京市,专科,,北京电子科技职业学院(亦庄校区),116.515349,39.776965,69fcd6df1fc9fa2fcb291598,大兴区,1,116.502961676415,39.769467050902
6,2,70,北京电子科技职业学院,4111010858,北京市,北京市,专科,,北京电子科技职业学院,116.446846,39.96465,cdef4edf80ac284e29d7ab92,朝阳区,1,116.434065921807,39.9574466675355
7,2,70,北京电子科技职业学院,4111010858,北京市,北京市,专科,,北京电子科技职业学院,116.508071,39.965843,2ba9812a220514634054d7f2,朝阳区,1,116.495609790171,39.9584074603411
9,3,71,北京京北职业技术学院,4111011090,北京市,北京市,专科,,北京京北职业技术学院,116.647689,40.34552,954bb674c8ac1b901811d5b1,怀柔区,1,116.635407862714,40.3380487929175
10,4,72,北京交通职业技术学院,4111011092,北京市,北京市,专科,,北京交通职业技术学院,116.210855,40.235024,3ad0cd993faf5c04bda822a8,昌平区,1,116.198107153996,40.2279698936589
12,5,73,北京青年政治学院,4111011626,北京市,北京市,专科,,北京青年政治学院(望京校区),116.481254,39.986828,88ff0a1dcb7f9402d4851f87,朝阳区,1,116.468520495037,39.9797581824945
14,6,74,北京农业职业学院,4111012448,北京市,北京市,专科,,北京农业职业学院,116.234899,39.77807,b7b222953272a624ad31e526,房山区,1,116.222244215996,39.771162510248
15,6,74,北京农业职业学院,4111012448,北京市,北京市,专科,,北京农业职业学院,116.232467,39.997083,b0d056f226b9367ecbc3dbb1,海淀区,1,116.219763383237,39.9901731589647
16,6,74,北京农业职业学院,4111012448,北京市,北京市,专科,,北京农业职业学院国际教育学院,116.425896,40.038043,75d0881a018bc64d3a04b175,朝阳区,1,116.413215068217,40.0304560822572
17,6,74,北京农业职业学院,4111012448,北京市,北京市,专科,,北京农业职业学院机电工程学院,116.314337,40.084126,e20e19fda6fea355deee8bd5,昌平区,1,116.301754047802,40.0768161241501
19,7,75,北京政法职业学院,4111012451,北京市,北京市,专科,,北京政法职业学院,116.375245,39.768263,ef8742c0a2678a2d081cc782,大兴区,1,116.362533461253,39.7609183540826
20,7,75,北京政法职业学院,4111012451,北京市,北京市,专科,,北京政法职业学院,116.610915,39.924287,0b04231651d1f07433169b6c,朝阳区,1,116.598609182722,39.9173540057709
21,8,76,北京财贸职业学院,4111012561,北京市,北京市,专科,,北京财贸职业学院,116.654178,39.927147,850815e1e223e19b43e19264,通州区,1,116.641956109031,39.9197530497541
22,8,76,北京财贸职业学院,4111012561,北京市,北京市,专科,,北京财贸职业学院(东城校区),116.430855,39.928422,afba48c70280e5448605bf07,东城区,1,116.418170019292,39.9209270968406
23,8,76,北京财贸职业学院,4111012561,北京市,北京市,专科,,北京财贸职业学院,116.480723,39.934068,ab414b05ce415a829e95deee,朝阳区,1,116.468027923934,39.9270179065345
27,10,78,北京经贸职业学院,4111012565,北京市教委,北京市,专科,民办,北京经贸职业学院,116.170599,39.72787,3f9337d6819819b3f72310c6,房山区,1,116.158021307343,39.7202098709339
28,12,80,北京戏曲艺术职业学院,4111012567,北京市,北京市,专科,,北京戏曲艺术职业学院,116.383753,39.861792,db1f39d491ab406ef4c59cbb,丰台区,1,116.371069354857,39.854276658964
29,13,81,北京汇佳职业学院,4111012568,北京市教委,北京市,专科,民办,北京汇佳职业学院,116.250302,40.199768,dffd4642d137b0b23c9a5e67,昌平区,1,116.237697299368,40.1926439584654
30,14,82,北京科技经营管理学院,4111012733,北京市教委,北京市,专科,民办,北京科技经营管理学院(沙河新校区),116.296478,40.150244,e3a7fd13d489db5228b97c65,昌平区,1,116.2840089521,40.1426923768901
31,15,83,北京科技职业学院,4111013703,北京市教委,北京市,专科,民办,北京科技职业学院(沙河校区),116.257172,40.123649,7ba5590242b2f3103362120c,昌平区,1,116.24460109348,40.1164038909335
33,16,84,北京培黎职业学院,4111013728,北京市教委,北京市,专科,民办,北京培黎职业学院,116.351983,40.02656,6689b56793d4bf0fc51b758a,海淀区,1,116.339194854962,40.0195576621969
34,17,85,北京经济管理职业学院,4111014073,北京市,北京市,专科,,北京经济管理职业学院,116.481272,39.989565,454f20a6acfbdc4180a00c86,朝阳区,1,116.468537202534,39.9824945149361
35,18,86,北京劳动保障职业学院,4111014075,北京市,北京市,专科,,北京劳动保障职业学院,116.191587,40.231565,18165334c49e5704fb2d6167,昌平区,1,116.178901895795,40.2241512488848
36,19,87,北京社会管理职业学院,4111014139,北京市,北京市,专科,,北京社会管理职业学院(新校区),116.382311,39.76149,5573ae53da9fc92b157643a6,大兴区,1,116.369629346589,39.7540078610708
37,20,88,北京艺术传媒职业学院,4111014140,北京市教委,北京市,专科,民办,北京艺术传媒职业学院,116.126717,40.105034,f3c2373c3a6d2352d32dd6aa,海淀区,1,116.113806736779,40.0977979197094
39,21,89,北京体育职业学院,4111014215,北京市,北京市,专科,,北京体育职业学院,116.417479,39.859725,5615332669bd5f1c86420e21,丰台区,1,116.404830560629,39.8520265171961
40,22,90,北京交通运输职业学院,4111014279,北京市,北京市,专科,,北京交通运输职业学院,116.349796,39.750691,56c130a268986da42fb96ddc,大兴区,1,116.337026445215,39.7437118598244
41,22,90,北京交通运输职业学院,4111014279,北京市,北京市,专科,,北京交通运输职业学院(海淀校区),116.346671,40.055916,33fbfa83bc97a6c10bf5eb6f,海淀区,1,116.333904520165,40.0489427570971
42,22,90,北京交通运输职业学院,4111014279,北京市,北京市,专科,,北京交通运输职业学院,116.668767,39.868594,0865fb917c3eceedb320a8e1,通州区,1,116.656417927836,39.8613504804042
44,23,91,北京卫生职业学院,4111014395,北京市,北京市,专科,,北京卫生职业学院,116.675206,39.891339,0fd5153f8280222ef7e73bf0,通州区,1,116.662801953184,39.8841980940492
45,23,91,北京卫生职业学院,4111014395,北京市,北京市,专科,,北京卫生职业学院第二院区(玉带河西街),116.656052,39.906631,5ca77ab32beb38a9c61e512d,通州区,1,116.643806734735,39.8992443759939
46,26,124,天津滨海职业学院,4112012484,天津市,天津市,专科,,天津滨海职业学院,117.649642,39.074073,ca25bf47b38c4d06c9fa5f06,滨海新区,1,117.636940229352,39.067491582694
48,27,125,天津工程职业技术学院,4112012487,天津市,天津市,专科,,天津工程职业技术学院(南校区),117.505054,38.729391,aaea8ab80c86c2a4223bf2ed,滨海新区,1,117.492314396957,38.7224083569779
49,28,126,天津渤海职业技术学院,4112012719,天津市,天津市,专科,,天津渤海职业技术学院,117.369046,39.269084,4fc3161aa24b05a83a13fd0b,北辰区,1,117.356126742249,39.261513723332
50,28,126,天津渤海职业技术学院,4112012719,天津市,天津市,专科,,天津渤海职业技术学院(友谊路校区),117.21167,39.101465,be54cde9216e3b5978f7963b,河西区,1,117.198856571348,39.0945435201359
51,28,126,天津渤海职业技术学院,4112012719,天津市,天津市,专科,,天津渤海职业技术学院(分院),117.227233,39.07839,2e00c5dd86af461dd7851f39,河西区,1,117.214528516059,39.071227476227
52,29,127,天津电子信息职业技术学院,4112012720,天津市,天津市,专科,,天津电子信息职业技术学院,117.384125,39.01518,27baea166a28bb531b11d544,津南区,1,117.371169678892,39.0078786041971
53,30,128,天津机电职业技术学院,4112012721,天津市,天津市,专科,,天津机电职业技术学院,117.361094,39.020311,a9c6e4f663e6825202ec01f3,津南区,1,117.348226845881,39.0129144085184
54,31,129,天津现代职业技术学院,4112012722,天津市,天津市,专科,,天津现代职业技术学院,117.374811,39.025674,ba2e94cc5d8ffe9b932ca32e,津南区,1,117.361900969649,39.0182694725779
55,32,130,天津公安警官职业学院,4112012723,天津市,天津市,专科,,天津公安警官职业学院,117.116273,39.009204,bb1d38e4a1d0074c0c0a70f9,西青区,1,117.10345543829,39.0018056966918
56,33,131,天津轻工职业技术学院,4112012732,天津市,天津市,专科,,天津轻工职业技术学院,117.379864,39.028623,5c5d7e98087174ed8bdb7337,津南区,1,117.366925187811,39.0212590210457
57,34,132,天津商务职业学院,4112012788,天津市,天津市,专科,,天津商务职业学院,117.35271,39.01687,8a84ced3ba988c11343a71ce,津南区,1,117.339843554736,39.0095654645404
58,34,132,天津商务职业学院,4112012788,天津市,天津市,专科,,天津商务职业学院(六纬路校区),117.239901,39.11632,1fbe201ccb2b5493373a719a,河东区,1,117.227248086268,39.1090029807567
59,35,133,天津国土资源和房屋职业学院,4112012803,天津市,天津市,专科,,天津国土资源和房屋职业学院,117.46005,38.874855,be1ea5efd3cfb8be14948e20,滨海新区,1,117.447097375051,38.8678143038956
61,36,134,天津医学高等专科学校,4112012880,天津市,天津市,专科,,天津医学高等专科学校,117.294134,39.079677,cd9d05dd46f735b785420e38,河西区,1,117.281249502039,39.0729852595292
62,37,135,天津开发区职业技术学院,4112012881,天津市,天津市,专科,,天津开发区职业技术学院,117.229286,39.116141,fe6bab2e69532ccf6268581e,河西区,1,117.216587170128,39.1089262362047
64,38,136,天津艺术职业学院,4112012882,天津市,天津市,专科,,天津艺术职业学院,117.281455,39.097083,f02ee80243df6c4b2fb96d02,河东区,1,117.268658338202,39.0902041240231
65,38,136,天津艺术职业学院,4112012882,天津市,天津市,专科,,天津艺术职业学院,117.184759,39.095185,d4034eb3412cfaf7c1364480,南开区,1,117.171811473109,39.0884813837214
66,39,137,天津交通职业学院,4112012883,天津市,天津市,专科,,天津交通职业学院,117.083147,39.154957,46e86fdd5915256ed13ce3f8,西青区,1,117.070160136864,39.1480093833281
67,40,138,天津工业职业学院,4112013700,天津市,天津市,专科,,天津工业职业学院,117.121215,39.265674,042e1949eab5354d62685899,北辰区,1,117.108363425935,39.2580843444793
68,41,139,天津石油职业技术学院,4112013701,天津市,天津市,专科,,天津石油职业技术学院,117.225005,38.849007,550fd5f944d1a878931fc9c1,静海区,1,117.212320745023,38.8420160997236
69,41,139,天津石油职业技术学院,4112013701,天津市,天津市,专科,,天津石油职业技术学院(西校区),117.180831,38.885014,a9d97034517dba19eee4a53f,静海区,1,117.167889899345,38.8784099077784
72,41,139,天津石油职业技术学院,4112013701,天津市,天津市,专科,,天津石油职业技术学院(滨海校区),117.505054,38.729391,aaea8ab80c86c2a4223bf2ed,滨海新区,1,117.492314396957,38.7224083569779
73,42,140,天津城市职业学院,4112013702,天津市,天津市,专科,,天津城市职业学院,117.243502,39.155519,50f2faa8b79854c3a0acc458,河东区,1,117.230823379869,39.1481550929712
74,42,140,天津城市职业学院,4112013702,天津市,天津市,专科,,天津城市职业学院(月牙河校区),117.257519,39.173992,595e794c2b0ca4fd220220da,河北区,1,117.244829802526,39.1666783140126
75,42,140,天津城市职业学院,4112013702,天津市,天津市,专科,,天津城市职业学院(南开分院),117.148755,39.150795,23032d86f8a32b5cda2f2845,南开区,1,117.135866750108,39.1434954488971
77,42,140,天津城市职业学院,4112013702,天津市,天津市,专科,,天津城市职业学院(河东分院),117.291217,39.137834,7eb53606c42a49c16fa3cccd,河东区,1,117.278318674,39.1310665484903
78,42,140,天津城市职业学院,4112013702,天津市,天津市,专科,,天津城市职业学院(红桥分院),117.178627,39.182099,bc75336e089317aefbdc85d4,红桥区,1,117.165643129336,39.1752958595678
79,42,140,天津城市职业学院,4112013702,天津市,天津市,专科,,天津城市职业学院新华分院,117.188709,39.118262,1339d1a767aa9cc7a0acc4ca,和平区,1,117.17575474307,39.1115469496317
81,43,141,天津铁道职业技术学院,4112013863,天津市,天津市,专科,,天津铁道职业技术学院,117.227506,39.176797,0adce3e2f1af156081a00cb2,河北区,1,117.214770695117,39.1695641623918
82,43,141,天津铁道职业技术学院,4112013863,天津市,天津市,专科,,天津铁道职业技术学院(南校区),117.239557,39.170651,6deee308d078ef6b28fc48b3,河北区,1,117.226873576182,39.1632955176849
83,44,142,天津工艺美术职业学院,4112013911,天津市,天津市,专科,,天津工艺美术职业学院(建昌道校区),117.229989,39.180184,f709908a388a93598733046b,河北区,1,117.21727118494,39.1729165329176
84,45,143,天津城市建设管理职业技术学院,4112014020,天津市,天津市,专科,,天津城市建设管理职业技术学院,117.115172,39.198553,b7021bf815ebd3f9f4e73bd0,北辰区,1,117.102342211723,39.1910552739928
86,46,144,天津生物工程职业技术学院,4112014021,天津市,天津市,专科,,天津生物工程职业技术学院,117.548562,39.080591,fa7da3e85e0c256343d63e90,东丽区,1,117.53574849815,39.0740827495629
89,47,145,天津海运职业学院,4112014022,天津市,天津市,专科,,天津海运职业学院,117.371349,39.009034,f3cfca73fd2fff542db96d6b,津南区,1,117.358469162659,39.0016278166891
90,48,146,天津广播影视职业学院,4112014102,天津市,天津市,专科,,天津广播影视职业学院,117.120553,39.126932,ef773a0f6f75ff49220220c2,西青区,1,117.107733011058,39.1194311476662
92,50,148,天津滨海汽车工程职业学院,4112014600,天津市教委,天津市,专科,民办,天津滨海汽车工程职业学院,117.479841,38.994754,91aeb008ba83810b1288243a,津南区,1,117.467016452453,38.9874216346188
93,51,210,邯郸职业技术学院,4113011034,河北省,邯郸市,专科,,邯郸职业技术学院,114.517917,36.588547,b292b3aa65dca256be484263,邯山区,1,114.505575617318,36.5824302123018
97,51,210,邯郸职业技术学院,4113011034,河北省,邯郸市,专科,,邯郸职业技术学院(滨河校区),114.516606,36.605579,c86716ba8d44f289fe0eb07a,邯山区,1,114.504250246553,36.5994206206618
98,52,211,石家庄职业技术学院,4113011238,河北省,石家庄市,专科,,石家庄职业技术学院,114.413104,38.052708,d991e116452114551f38946f,桥西区,1,114.400198982091,38.0461228756522
99,52,211,石家庄职业技术学院,4113011238,河北省,石家庄市,专科,,石家庄职业技术学院(正定新区新校区),114.667557,38.151935,6f62cb61b80bc4e943d63ea5,正定县,1,114.655102021325,38.1457621573575
100,53,212,张家口职业技术学院,4113011423,河北省,张家口市,专科,,张家口职业技术学院,114.923311,40.737249,4fc3161aef8cd0a93a13fd46,桥东区,1,114.910620664926,40.7302141427933
101,53,212,张家口职业技术学院,4113011423,河北省,张家口市,专科,,张家口职业技术学院教工住宅小区,114.877031,40.826164,bff8fa7d02a0eea0c8213d58,桥西区,1,114.864368799522,40.8188228412771
102,54,213,河北软件职业技术学院,4113012352,河北省,保定市,专科,,河北软件职业技术学院,115.550822,38.873954,de97022c6c74f3dd14c8f639,莲池区,1,115.538372030248,38.8670326914511
103,55,214,河北石油职业技术学院,4113012367,河北省,廊坊市,专科,,河北石油职业技术学院,116.68257,39.530335,d4a0e38e0779d942b04c493d,安次区,1,116.670143425433,39.52336880723
104,56,215,河北建材职业技术学院,4113012389,河北省,秦皇岛市,专科,,河北建材职业技术学院(西校区),119.565696,39.91747,6d5cd63eafa8450cc8213d65,海港区,1,119.553298839961,39.9104897625534
106,57,216,河北政法职业学院,4113012408,河北省,石家庄市,专科,,河北政法职业学院(新校区),114.469134,38.144471,23116913ed5f78fd734b8764,新华区,1,114.456506861956,38.1375023339121
107,57,216,河北政法职业学院,4113012408,河北省,石家庄市,专科,,河北政法职业学院北院,114.478891,38.150092,adab9517918cc407f219376b,新华区,1,114.466329407449,38.1430413125309
110,58,217,沧州职业技术学院,4113012415,河北省,沧州市,专科,,沧州职业技术学院,116.829903,38.287906,c460342185c29e1fb34c495f,运河区,1,116.81746140419,38.2816506713604
112,58,217,沧州职业技术学院,4113012415,河北省,沧州市,专科,,沧州职业技术学院孟村学院,117.110349,38.057732,35aafc9ac5de044cd8eced9a,孟村回族自治县,1,117.097620003782,38.0505944008492
113,59,218,河北能源职业技术学院,4113012418,河北省,唐山市,专科,,河北能源职业技术学院,118.131407,39.637959,e889a744a1077cb58605bfd0,路北区,1,118.118368254997,39.6307977747088
114,60,219,石家庄铁路职业技术学院,4113012424,河北省,石家庄市,专科,,石家庄铁路职业技术学院,114.533558,38.093999,3b033958ec5a2cd13a04b1ae,长安区,1,114.521003334226,38.087670882157
115,60,219,石家庄铁路职业技术学院,4113012424,河北省,石家庄市,专科,,石家庄铁路职业技术学院(北校区),114.507974,38.136204,8e95c9df4311326cbe484212,新华区,1,114.495478668904,38.1294028564962
117,61,220,保定职业技术学院,4113012543,河北省,保定市,专科,,保定职业技术学院,115.477046,38.865727,a6c19631ba463f026140a960,竞秀区,1,115.464241467784,38.8588499283713
118,61,220,保定职业技术学院,4113012543,河北省,保定市,专科,,保定职业技术学院(东校区),115.530274,38.876001,b1bd94c53c05d337213bf265,莲池区,1,115.51763058717,38.8693697958966
119,61,220,保定职业技术学院,4113012543,河北省,保定市,专科,,保定职业技术学院(北校区),115.525666,38.886714,4cb8af50e3e04d1472455bfb,莲池区,1,115.51296765672,38.8801350117703
120,62,221,秦皇岛职业技术学院,4113012773,河北省,秦皇岛市,专科,,秦皇岛职业技术学院,119.488218,39.845334,efed8e3bc83d37d1bda2404b,北戴河区,1,119.475511436263,39.8381279203891
123,63,222,石家庄工程职业学院,4113012782,河北省教育厅,石家庄市,专科,民办,石家庄工程职业学院,114.445936,38.176806,64a8bf7de1b3a9665e0d0220,新华区,1,114.43308233999,38.1701825258694
124,65,224,唐山职业技术学院,4113012785,河北省,唐山市,专科,,唐山职业技术学院,118.097355,39.591377,ad258d353ee3ca26cc06a4f9,丰南区,1,118.084514215855,39.5836852883428
125,65,224,唐山职业技术学院,4113012785,河北省,唐山市,专科,,唐山职业技术学院,118.13954,39.629818,a0ba6fafed99d3eca11de9bc,路北区,1,118.126490311164,39.6227482797159
126,65,224,唐山职业技术学院,4113012785,河北省,唐山市,专科,,唐山职业技术学院(韩城校区),118.071051,39.642996,6b0c183902bf46dfa11de9ed,路北区,1,118.058180822937,39.6353681052625
127,66,225,衡水职业技术学院,4113012786,河北省,衡水市,专科,,衡水职业技术学院,115.687471,37.705335,0adce3e2b923dd6180a00c26,桃城区,1,115.675172856267,37.69832985005
129,67,226,唐山工业职业技术学院,4113012787,河北省,唐山市,专科,,唐山工业职业技术学院(曹妃甸校区),118.575018,39.206763,d42ac90e2754bdcb2b201ab2,曹妃甸区,1,118.562847812809,39.199542180679
133,68,227,邢台医学高等专科学校,4113012884,河北省,邢台市,专科,,邢台医学高等专科学校,114.468313,37.094756,891cc98cbc6702fb8bdb73ca,信都区,1,114.455773669193,37.0879297952924
134,68,227,邢台医学高等专科学校,4113012884,河北省,邢台市,专科,,邢台医学高等专科学校(皇寺校区),114.373587,37.184956,3d9236d43f4a63c1cafa5f05,信都区,1,114.361018908736,37.1779315030657
135,69,228,河北艺术职业学院,4113012885,河北省,石家庄市,专科,,河北艺术职业学院,114.525139,38.043339,af1ae56b539965124207c16a,长安区,1,114.512609645542,38.0368632120637
136,70,229,河北旅游职业学院,4113012887,河北省,承德市,专科,,河北旅游职业学院(新校区),117.959933,40.908572,3c0ea7c5c3c5c89cfaf0cbbf,双桥区,1,117.947281057401,40.9007422765727
137,71,230,石家庄财经职业学院,4113013070,河北省教育厅,石家庄市,专科,民办,石家庄财经职业学院,114.44225,38.174459,3578be473547646cd618b769,鹿泉区,1,114.42937329916,38.1678837591482
138,71,230,石家庄财经职业学院,4113013070,河北省教育厅,石家庄市,专科,民办,石家庄财经职业学院(卧龙校区),114.289037,38.123487,0f7307b61524b1cfd6b74e88,鹿泉区,1,114.276307333803,38.117045186646
139,72,231,河北交通职业技术学院,4113013071,河北省,石家庄市,专科,,河北交通职业技术学院,114.649481,38.032887,34acabd90b9f7d8ac7f50df7,裕华区,1,114.637116316778,38.0265923993876
140,72,231,河北交通职业技术学院,4113013071,河北省,石家庄市,专科,,河北交通职业技术学院(西院),114.457268,38.019602,0ce65c2d22d934582d4733df,桥西区,1,114.444555138305,38.0127811638299
141,72,231,河北交通职业技术学院,4113013071,河北省,石家庄市,专科,,河北交通职业技术学院藁城分院,114.835794,38.026254,7524cb4f81136a3404026f4f,藁城区,1,114.823515694919,38.0193781896286
143,73,232,河北化工医药职业技术学院,4113013072,河北省,石家庄市,专科,,河北化工医药职业技术学院,114.609718,37.995841,61fb1f9e1d85fca517b54bc5,裕华区,1,114.597570876357,37.9890134922257
144,74,233,石家庄信息工程职业学院,4113013073,河北省,石家庄市,专科,,石家庄信息工程职业学院(新校区),114.688258,38.156327,5890c1c9f3d78c97095cb35b,藁城区,1,114.675818231914,38.1499150483025
145,75,234,河北对外经贸职业学院,4113013074,河北省,秦皇岛市,专科,,河北对外经贸职业学院,119.434214,39.807276,c7ae490c84ac22ee213bf211,北戴河区,1,119.42143739335,39.7997814526828
146,76,235,保定电力职业技术学院,4113013392,河北省,保定市,专科,,保定电力职业技术学院,115.455847,38.857905,a8c7a1206ca3563633870a57,竞秀区,1,115.443091868065,38.8506722525914
147,77,236,河北机电职业技术学院,4113013393,河北省,邢台市,专科,,河北机电职业技术学院,114.465692,37.101022,befdb29296bd99e186154189,信都区,1,114.453125527877,37.0942243056243
151,79,238,廊坊职业技术学院,4113013395,河北省,廊坊市,专科,,廊坊职业技术学院(西校区),116.688106,39.530415,ea4a3dc997136a2e4e5547f6,安次区,1,116.675633279189,39.5235287286974
152,79,238,廊坊职业技术学院,4113013395,河北省,廊坊市,专科,,廊坊职业技术学院北校区,116.713164,39.550068,c07ef856f25ab32cd0ff2339,广阳区,1,116.700595584207,39.5432661720506
154,79,238,廊坊职业技术学院,4113013395,河北省,廊坊市,专科,,廊坊职业技术学院(文安校区),116.451268,38.871359,fff5f223da156e1f01294f68,文安县,1,116.438624856125,38.8646370073952
155,80,239,唐山科技职业技术学院,4113013396,河北省,唐山市,专科,,唐山科技职业技术学院,118.245074,39.603696,befdb292957b9ae1871541d3,路南区,1,118.232370285014,39.5966217586664
156,81,240,石家庄邮电职业技术学院,4113013397,河北省,石家庄市,专科,,石家庄邮电职业技术学院,114.537472,38.024451,f757e6ee98a86717260bd06a,裕华区,1,114.524956295808,38.0181669567744
157,81,240,石家庄邮电职业技术学院,4113013397,河北省,石家庄市,专科,,石家庄邮电职业技术学院(东校区),114.563832,38.024988,1bf85b252b879ca5a1a93422,裕华区,1,114.551435749598,38.018673117394
158,82,241,河北公安警察职业学院,4113013398,河北省,石家庄市,专科,,河北公安警察职业学院,114.477684,38.005631,8eb48fa1abb6cfa6f32d836f,桥西区,1,114.465133887562,37.9985576477267
159,83,242,石家庄工商职业学院,4113013399,河北省教育厅,石家庄市,专科,民办,石家庄工商职业学院,114.478545,38.001454,083a55fad3790f79246e9872,桥西区,1,114.465998157298,37.9943745154991
160,84,243,石家庄理工职业学院,4113013400,河北省教育厅,石家庄市,专科,民办,石家庄理工职业学院,114.357694,38.058814,eb74436f8522f71db9df8fcf,鹿泉区,1,114.345017571518,38.0517193161314
164,85,244,石家庄科技信息职业学院,4113013403,河北省教育厅,石家庄市,专科,民办,石家庄科技信息职业学院(灵寿新校区),114.420166,38.313839,4ab3392003165144c16c14d6,灵寿县,1,114.407199984317,38.3073520952129
166,86,245,河北司法警官职业学院,4113013690,河北省,邯郸市,专科,,河北司法警官职业学院,114.495891,36.654522,07f3c8b5c26f96636240a961,丛台区,1,114.483532193741,36.647965713143
170,87,246,沧州医学高等专科学校,4113013779,河北省,沧州市,专科,,沧州医学高等专科学校,116.810159,38.290571,5fcfcd5088b718a315a190e3,运河区,1,116.797719461048,38.2841662469572
171,88,247,河北女子职业技术学院,4113013822,河北省,石家庄市,专科,,河北女子职业技术学院,114.45535,38.004212,80bcd206075c3b791b11d520,桥西区,1,114.442619080162,37.9974178341859
172,89,248,石家庄医学高等专科学校,4113014018,河北省教育厅,石家庄市,专科,民办,石家庄医学高等专科学校,114.42452,38.267735,b7c83b72213ab97dc9c3db59,灵寿县,1,114.411592339313,38.2612742996713
173,90,249,石家庄经济职业学院,4113014047,河北省教育厅,石家庄市,专科,民办,石家庄经济职业学院,114.559916,38.15306,e284fbcf0238708ac4f50d2f,正定县,1,114.547471642487,38.1468118238405
174,90,249,石家庄经济职业学院,4113014047,河北省教育厅,石家庄市,专科,民办,石家庄经济职业学院(西校区),114.423166,38.066419,1b5f27dcd1c465c315a190e2,桥西区,1,114.410230714666,38.0599104490579
176,91,250,冀中职业学院,4113014103,河北省,保定市,专科,,冀中职业学院,115.008031,38.522351,0566ab1197bc36e4e5073898,定州市,1,114.995399548042,38.515915137895
179,92,251,石家庄人民医学高等专科学校,4113014158,河北省教育厅,石家庄市,专科,民办,石家庄人民医学高等专科学校,114.461781,37.999187,6ed3083a5589f5b72b3a9f72,桥西区,1,114.449103593759,37.9922883643037
180,93,252,河北正定师范高等专科学校,4113014185,河北省,石家庄市,专科,,河北正定师范高等专科学校,114.574559,38.168476,fc059a534e584b2a112935af,正定县,1,114.562212913204,38.1620254426973
181,93,252,河北正定师范高等专科学校,4113014185,河北省,石家庄市,专科,,河北正定师范高等专科学校(南校区),114.642055,38.012466,24b00b937d6939988bfc0637,裕华区,1,114.629749633078,38.0060616007956
182,94,253,河北劳动关系职业学院,4113014208,河北省,石家庄市,专科,,河北劳动关系职业学院,114.463955,37.995326,5b25f446e502db9711293581,鹿泉区,1,114.451293735506,37.9883930191308
183,95,254,石家庄科技职业学院,4113014213,河北省教育厅,石家庄市,专科,民办,石家庄科技职业学院,114.698924,38.042483,0dc3d82da1b55e6d74e5b682,藁城区,1,114.686529345583,38.0358388695626
185,96,255,沧州幼儿师范高等专科学校,4113014259,河北省,沧州市,专科,,沧州幼儿师范高等专科学校,116.5776,38.082711,41572e0047d814b4b55f1e9f,泊头市,1,116.565385660731,38.0764793172015
186,97,256,宣化科技职业学院,4113014260,河北省,张家口市,专科,,宣化科技职业学院(西区),115.058595,40.627111,a345ac07ede838ca3a13fde3,宣化区,1,115.045585497134,40.6195857785712
187,97,256,宣化科技职业学院,4113014260,河北省,张家口市,专科,,宣化科技职业学院(东校区),115.073584,40.624355,662aed9460f626b9ab175a9d,宣化区,1,115.060612304478,40.6165698911335
190,98,257,廊坊燕京职业技术学院,4113014280,河北省,廊坊市,专科,,廊坊燕京职业技术学院,116.99671,39.976942,30c818eafb9d70fe01294f42,三河市,1,116.984138621731,39.9694450760405
191,99,258,承德护理职业学院,4113014281,河北省,承德市,专科,,承德护理职业学院,117.960437,40.957721,ca0f1cb0e9cb411ec9c3db06,双桥区,1,117.947744950543,40.9498341028629
192,101,260,廊坊卫生职业学院,4113014335,河北省,廊坊市,专科,,廊坊卫生职业学院,116.742221,39.615064,6ff8b90eede0188929fc4878,广阳区,1,116.729720566672,39.6077734022545
193,102,261,河北轨道运输职业技术学院,4113014396,河北省,石家庄市,专科,,河北轨道运输职业技术学院(西校区),114.482012,38.062119,97066f0f9c7b720c71210b11,新华区,1,114.469449611429,38.0550321061643
194,102,261,河北轨道运输职业技术学院,4113014396,河北省,石家庄市,专科,,河北轨道运输职业技术学院(东校区),114.706274,38.024715,ea76a50b1fc36df79a0050fc,藁城区,1,114.693920253779,38.0179333842949
195,103,262,保定幼儿师范高等专科学校,4113014460,河北省,保定市,专科,,保定幼儿师范高等专科学校(定兴校区),115.816372,39.273602,c9ce112ffa33c625901fc9eb,定兴县,1,115.803877197688,39.2663043255053
196,104,263,河北工艺美术职业学院,4113014471,河北省,保定市,专科,,河北工艺美术职业学院,115.26238,38.949126,0acaa6b1e5d256a8fb0caded,满城区,1,115.249578951718,38.9426303394981
197,104,263,河北工艺美术职业学院,4113014471,河北省,保定市,专科,,河北工艺美术职业学院(瑞祥街),115.495936,38.889004,22e114070b6547b5d5b74e14,竞秀区,1,115.483080582563,38.8824429487055
198,105,264,渤海理工职业学院,4113014472,河北省教育厅,沧州市,专科,民办,渤海理工职业学院,117.321172,38.398501,2330d5bf3fa399c6a4c7564c,黄骅市,1,117.308316394008,38.3920169151091
199,106,265,唐山幼儿师范高等专科学校,4113014586,河北省,唐山市,专科,,唐山幼儿师范高等专科学校,118.767658,39.744724,eeb7e97b6b5ffbe6081cc7e9,滦州市,1,118.75503001616,39.7376187053523
200,107,266,曹妃甸职业技术学院,4113014601,河北省教育厅,唐山市,专科,民办,曹妃甸职业技术学院,118.607041,39.188952,27f51aa7dd15d318704b8775,曹妃甸区,1,118.5947294867,39.18227063509
202,108,267,承德应用技术职业学院,4113014632,河北省,承德市,专科,,承德应用技术职业学院,117.932782,40.878286,2a0d602f708d63f86ca3cc89,双桥区,1,117.920027613846,40.8709201023219
204,109,268,邯郸幼儿师范高等专科学校,4113014686,河北省,邯郸市,专科,,邯郸幼儿师范高等专科学校,114.212071,36.662804,a05feaa8db45eb5425e0a054,武安市,1,114.1994410556,36.6566366295898
205,109,268,邯郸幼儿师范高等专科学校,4113014686,河北省,邯郸市,专科,,邯郸幼儿师范高等专科学校(大名校区),115.158387,36.29446,925c550f6580e4b25a3ac86b,大名县,1,115.145746109883,36.2885421457583
206,110,269,邯郸科技职业学院,4113014695,河北省,邯郸市,专科,,邯郸科技职业学院,114.428306,36.460492,59b50716d0268ca526d2bbc5,邯山区,1,114.415600309958,36.4545591189158
207,111,270,唐山海运职业学院,4113014696,河北省教育厅,唐山市,专科,民办,唐山海运职业学院,118.602207,39.192901,e5d7f880b495a66ea1d23088,曹妃甸区,1,118.589923884998,39.1861357143721
209,112,271,邢台应用技术职业学院,4113014742,河北省教育厅,邢台市,专科,民办,邢台应用技术职业学院,115.336114,36.994302,cca94205b6da63790b69d9c3,威县,1,115.323616102041,36.987457172482
210,113,306,山西省财政税务专科学校,4114011630,山西省,太原市,专科,,山西省财政税务专科学校,112.52385,37.857968,ebad788f3d9a194ac17da239,万柏林区,1,112.51085441637,37.8515459518233
212,113,306,山西省财政税务专科学校,4114011630,山西省,太原市,专科,,山西省财政税务专科学校(北院),112.525292,37.860666,5ff01fdae0d58c938605bfe8,万柏林区,1,112.512310861678,37.854228859576
213,114,307,长治职业技术学院,4114012388,山西省,长治市,专科,,长治职业技术学院(北校区),113.138337,36.222086,0a0704248dc3473ddbecedf9,潞州区,1,113.125206025747,36.2158952995241
214,114,307,长治职业技术学院,4114012388,山西省,长治市,专科,,长治职业技术学院(东校区),113.125494,36.189413,09185c5687cc4b5cf019378a,潞州区,1,113.112272615904,36.183432556376
218,115,308,山西艺术职业学院,4114012704,山西省,太原市,专科,,山西艺术职业学院,112.579999,37.858856,589aaddd7c8950ebaeb22a8a,迎泽区,1,112.567318845964,37.8521001418586
219,115,308,山西艺术职业学院,4114012704,山西省,太原市,专科,,山西艺术职业学院(奶生堂校区),112.565277,37.877417,5c56edd624ab045ba1d2305a,杏花岭区,1,112.552610665969,37.8705658743278
220,115,308,山西艺术职业学院,4114012704,山西省,太原市,专科,,山西艺术职业学院(影视传媒分院),112.481838,37.858143,e96b4420de326c5a82288a6e,万柏林区,1,112.468729367252,37.8514845563048
221,116,309,晋城职业技术学院,4114012774,山西省,晋城市,专科,,晋城职业技术学院,112.879333,35.494757,af1ae56b8db6bb134207c14f,城区,1,112.866682349198,35.4894659061813
222,117,310,山西药科职业学院,4114012776,山西省,太原市,专科,,山西药科职业学院,112.657831,37.782726,d305db1f84f81f40922ca3b3,小店区,1,112.645063511416,37.7761781382059
226,119,312,山西机电职业技术学院,4114012888,山西省,长治市,专科,,山西机电职业技术学院,113.141,36.2144,7d5f3a0a39a6574a2db90885,城区,1,113.127888718059,36.2081678692674
227,119,312,山西机电职业技术学院,4114012888,山西省,长治市,专科,,山西机电职业技术学院(东湖校区),113.069469,36.547204,78b79164bd2ce747d52ce27d,襄垣县,1,113.056361506111,36.5408223322509
231,121,314,山西林业职业技术学院,4114012891,山西省,太原市,专科,,山西林业职业技术学院,112.54596,37.901799,3245ad6ceeee96e513293568,杏花岭区,1,112.533185523889,37.8950874329472
232,122,315,山西水利职业技术学院,4114012892,山西省,运城市,专科,,山西水利职业技术学院(运城校区),111.041357,35.059046,9fbfeef20e823944ede4a53a,盐湖区,1,111.028905668805,35.0537704086092
233,123,316,阳泉职业技术学院,4114012893,山西省,阳泉市,专科,,阳泉职业技术学院,113.633472,37.894388,bd95e3444babd2ec8f1a89a7,郊区,1,113.620686329738,37.8876273224747
235,124,317,临汾职业技术学院,4114013171,山西省,临汾市,专科,,临汾职业技术学院,111.622562,36.065525,5ce2637d6ab31250ae31e52b,尧都区,1,111.610043641659,36.059554931641
236,124,317,临汾职业技术学院,4114013171,山西省,临汾市,专科,,临汾职业技术学院(二校区),111.538802,36.112281,50fb64ff3d25255ce9f853dc,尧都区,1,111.526016625842,36.1067316648886
237,125,318,山西职业技术学院,4114013528,山西省,太原市,专科,,山西职业技术学院,112.589978,37.801789,d7624d36c2c010d409a8d446,小店区,1,112.577279878972,37.7951834912664
238,125,318,山西职业技术学院,4114013528,山西省,太原市,专科,,山西职业技术学院(长风校区),112.605131,37.818073,5b25f446625d54eb1029355f,迎泽区,1,112.592336598784,37.8117336470409
239,126,319,山西金融职业学院,4114013530,山西省,太原市,专科,,山西金融职业学院,112.536367,37.960281,af1ae56b11fe276f4307c182,尖草坪区,1,112.523462368741,37.9537056882987
240,127,320,太原城市职业技术学院,4114013532,山西省,太原市,专科,,太原城市职业技术学院,112.535568,37.895979,f5e3bcaecab2f2c05e17c35a,尖草坪区,1,112.522701010601,37.8894155489368
242,128,321,山西信息职业技术学院,4114013541,山西省教育厅,临汾市,专科,民办,山西信息职业技术学院,111.550161,36.129509,9ab9d030ba9788662cb17ec7,尧都区,1,111.537383198184,36.1240007750019
243,129,322,山西体育职业学院,4114013692,山西省,太原市,专科,,山西体育职业学院,112.569938,37.786514,9b17ea23a520aa3a4054d70b,小店区,1,112.557296165702,37.7796648472385
244,130,323,山西警官职业学院,4114013693,山西省,太原市,专科,,山西警官职业学院,112.602982,37.828457,1020060f2416a7a71894c65f,迎泽区,1,112.590191457981,37.8220813403593
246,131,324,山西国际商务职业学院,4114013694,山西省,太原市,专科,,山西国际商务职业学院,112.60751,37.815655,9c42c090f82381b35b10937e,小店区,1,112.594705751088,37.8093530331298
247,132,325,潞安职业技术学院,4114013695,山西省,长治市,专科,,潞安职业技术学院,112.997362,36.447193,b3aa435d8cee440a1476439f,襄垣县,1,112.98441415154,36.441464713467
248,133,326,太原旅游职业学院,4114013696,山西省,太原市,专科,,太原旅游职业学院,112.606566,37.69948,9f97b1c5deb8007bb64f544f,小店区,1,112.593776935721,37.6931529320131
250,134,327,山西旅游职业学院,4114013697,山西省,太原市,专科,,山西旅游职业学院,112.627041,37.810224,a7c56ee06c650eb2a3acc45f,小店区,1,112.614180292862,37.8040708538021
251,135,328,山西管理职业学院,4114013698,山西省,临汾市,专科,,山西管理职业学院,111.513094,36.147102,4edf9fbf3348d295cc06a42a,尧都区,1,111.500312239908,36.1410935299588
255,137,330,忻州职业技术学院,4114013821,山西省,忻州市,专科,,忻州职业技术学院,112.741829,38.477165,e96b4420c8c77a5882288a63,忻府区,1,112.728658985286,38.4709143648638
256,138,331,山西同文职业技术学院,4114013862,山西省教育厅,晋中市,专科,民办,山西同文职业技术学院,111.893697,37.037491,c8b5cdef917c9802130daa3d,介休市,1,111.880902266512,37.0315213891869
257,139,332,晋中职业技术学院,4114013913,山西省,晋中市,专科,,晋中职业技术学院(东校区),112.727655,37.692277,7d5f3a0a5e9b72352db908b5,榆次区,1,112.71463470767,37.6858040979169
258,140,333,山西华澳商贸职业学院,4114013914,山西省教育厅,晋中市,专科,民办,山西华澳商贸职业学院,112.646329,37.677796,e913667dc27b53eeb1077d93,榆次区,1,112.633522636438,37.6714513062896
259,142,335,运城幼儿师范高等专科学校,4114014093,山西省,运城市,专科,,运城幼儿师范高等专科学校,111.071194,35.10486,d5f93c0ed96e665deddfca35,盐湖区,1,111.058563598609,35.0997094546876
261,143,336,山西老区职业技术学院,4114014105,山西省教育厅,太原市,专科,民办,山西老区职业技术学院,112.520878,37.907786,34059f97466b485771455b33,尖草坪区,1,112.507875658382,37.9014105867973
262,144,337,山西经贸职业学院,4114014177,山西省,太原市,专科,,山西经贸职业学院(南校区),112.455811,37.735204,55fa2c0b6faac72e1ce99973,晋源区,1,112.442773971027,37.7280816701934
263,144,337,山西经贸职业学院,4114014177,山西省,太原市,专科,,山西经贸职业学院,112.535963,37.845693,923ffd001c1440b6d92f285a,万柏林区,1,112.523070015379,37.8391030001182
265,145,338,朔州职业技术学院,4114014186,山西省,朔州市,专科,,朔州职业技术学院,112.41351,39.307274,beabdbf453df8f997169d3b3,朔城区,1,112.400123231942,39.3001607706106
267,146,339,山西铁道职业技术学院,4114014247,山西省,太原市,专科,,山西铁道职业技术学院,112.621381,37.886867,f757e6ee5daba014260bd065,杏花岭区,1,112.608541342614,37.8807243589995
268,147,340,晋中师范高等专科学校,4114014270,山西省,晋中市,专科,,晋中师范高等专科学校,112.74022,37.731398,05dd7d5f789a7f00ad080f10,榆次区,1,112.727123198661,37.7250446093762
269,148,341,阳泉师范高等专科学校,4114014271,山西省,阳泉市,专科,,阳泉师范高等专科学校,113.624736,37.809602,6875a583d4ab9907bda2407c,平定县,1,113.61190133828,37.8029493421024
270,149,342,山西青年职业学院,4114014336,山西省,太原市,专科,,山西青年职业学院,112.606306,37.704114,e331439a7451f1086140a9d5,小店区,1,112.593514611127,37.6977819858224
271,150,343,运城护理职业学院,4114014397,山西省,运城市,专科,,运城护理职业学院,110.929394,35.124474,11ff142e04effbce12882488,盐湖区,1,110.917354146467,35.1195249327894
278,152,345,朔州师范高等专科学校,4114014462,山西省,朔州市,专科,,朔州师范高等专科学校,112.463009,39.382779,b723bc8817c6b20a0aa8d476,朔城区,1,112.449755800023,39.3754017204931
279,153,346,吕梁职业技术学院,4114014500,山西省,吕梁市,专科,,吕梁职业技术学院,111.773904,37.125556,a9221fd06ff270b2da2f280e,孝义市,1,111.760848941042,37.1193489688797
280,153,346,吕梁职业技术学院,4114014500,山西省,吕梁市,专科,,吕梁职业技术学院(南校区),111.763077,37.122293,7b7279104d8732ba84154175,孝义市,1,111.75006900956,37.1159339602982
283,154,347,大同师范高等专科学校,4114014627,山西省,大同市,专科,,大同师范高等专科学校,113.234427,40.082659,69fcd6dfddfd382ecb2915a4,平城区,1,113.220850443153,40.0758012435843
284,155,348,太原幼儿师范高等专科学校,4114014628,山西省,太原市,专科,,太原幼儿师范高等专科学校(徐沟校区),112.503224,37.568426,b9975cbfd14e25bda104642e,清徐县,1,112.490150128386,37.5620597297872
285,155,348,太原幼儿师范高等专科学校,4114014628,山西省,太原市,专科,,太原幼儿师范高等专科学校(兴华校区),112.519097,37.893901,c017c367a06f6ad2fda77816,万柏林区,1,112.506086233549,37.8875392043606
290,156,349,山西工程职业学院,4114014681,山西省,太原市,专科,,山西工程职业学院,112.555701,37.887164,9f91fe222cfa92a40f0a702b,杏花岭区,1,112.542997951945,37.8803484077579
291,156,349,山西工程职业学院,4114014681,山西省,太原市,专科,,山西工程职业学院(唐槐校区),112.612053,37.685163,57bb69b0f9498872a8059dd9,小店区,1,112.599252783707,37.678916090254
292,157,350,长治幼儿师范高等专科学校,4114014687,山西省,长治市,专科,,长治幼儿师范高等专科学校,113.087135,36.228593,a08f90b437a4dffb344aae02,潞州区,1,113.073944379852,36.2226100690662
293,158,351,山西通用航空职业技术学院,4114014697,山西省,大同市,专科,,山西通用航空职业技术学院,113.404192,39.944283,2432afd98f1a83dd902ca371,云州区,1,113.390651424843,39.9366173859547
294,159,352,朔州陶瓷职业技术学院,4114014698,山西省,朔州市,专科,,朔州陶瓷职业技术学院,113.119895,39.853556,aaf0ff4f71a7ac53f50e77be,怀仁市,1,113.106168219227,39.8464879482293
297,160,353,山西卫生健康职业学院,4214050166,山西省,太原市,专科,,山西卫生健康职业学院(双东校区),112.585237,37.850074,b4218492ee1f318cab175af3,迎泽区,1,112.572534913496,37.8433897335112
298,161,371,内蒙古建筑职业技术学院,4115010871,内蒙古自治区,呼和浩特市,专科,,内蒙古建筑职业技术学院(北校区),111.641129,40.879276,23116913c3ae5afd734b8717,回民区,1,111.627926156013,40.8720588895305
299,161,371,内蒙古建筑职业技术学院,4115010871,内蒙古自治区,呼和浩特市,专科,,内蒙古建筑职业技术学院,111.645439,40.822646,7d5f3a0a3536ab4b2cb90815,回民区,1,111.63218349902,40.8155303487401
301,162,372,内蒙古丰州职业学院,4115011429,内蒙古自治区教育厅,呼和浩特市,专科,民办,内蒙古丰州职业学院,111.717271,40.807849,f67d8a4651ad07e33517dca7,赛罕区,1,111.704018100481,40.8001765630384
303,162,372,内蒙古丰州职业学院,4115011429,内蒙古自治区教育厅,呼和浩特市,专科,民办,内蒙古丰州职业学院中山学院,111.805762,40.503105,4b8f3e38175c1bac99005081,和林格尔县,1,111.792364265061,40.4960949246497
304,163,373,包头职业技术学院,4115012057,内蒙古自治区,包头市,专科,,包头职业技术学院,109.959862,40.650215,89fd4ea3db47a547e5e9652e,青山区,1,109.947684693642,40.6431598302359
305,163,373,包头职业技术学院,4115012057,内蒙古自治区,包头市,专科,,包头职业技术学院(呼得木林校区),109.896185,40.674897,2848ffd6d8bbb40f48cc4a28,青山区,1,109.884067690673,40.66781122046
308,164,374,兴安职业技术学院,4115012443,内蒙古自治区,兴安盟,专科,,兴安职业技术学院(新校区),122.026259,46.069394,7de6a01bcb34f0d83be4a684,科尔沁右翼前旗,1,122.013801679719,46.0613080751246
313,165,375,呼和浩特职业学院,4115012670,内蒙古自治区,呼和浩特市,专科,,呼和浩特职业学院(新校区),111.844452,40.902761,c5ddcc08873fa0bbd813183c,赛罕区,1,111.831299040796,40.8950417151827
316,165,375,呼和浩特职业学院,4115012670,内蒙古自治区,呼和浩特市,专科,,呼和浩特职业学院(西校区),111.662912,40.848678,5e8f72bfac62a5e7acee7a1d,新城区,1,111.649549044138,40.8416925005303
317,165,375,呼和浩特职业学院,4115012670,内蒙古自治区,呼和浩特市,专科,,呼和浩特职业学院住宅小区,111.66507,40.847188,eef2d528d674eba73be4a617,新城区,1,111.651699271028,40.8402046037573
318,166,376,包头轻工职业技术学院,4115012671,内蒙古自治区,包头市,专科,,包头轻工职业技术学院,109.954341,40.641924,e102414e78f813502dfaa74d,青山区,1,109.9422090522,40.6347880006723
319,167,377,内蒙古电子信息职业技术学院,4115012673,内蒙古自治区,呼和浩特市,专科,,内蒙古电子信息职业技术学院,111.8569,40.903691,e3c36f147fdf30f0e40738ce,赛罕区,1,111.843760852365,40.8960401719809
320,168,378,内蒙古机电职业技术学院,4115012674,内蒙古自治区,呼和浩特市,专科,,内蒙古机电职业技术学院,111.853126,40.911173,0dc3d82d24c9c51175e5b642,赛罕区,1,111.839982853268,40.903479143475
323,169,379,内蒙古化工职业学院,4115012675,内蒙古自治区,呼和浩特市,专科,,内蒙古化工职业学院,111.858743,40.913189,41572e00154246c9b45f1e3c,新城区,1,111.845594846728,40.9055495105526
325,171,381,锡林郭勒职业学院,4115012677,内蒙古自治区,锡林郭勒盟,专科,,锡林郭勒职业学院,116.033895,43.940908,228cfbb6b3f7d0541d1d1191,锡林浩特市,1,116.020728751396,43.9325108229104
326,171,381,锡林郭勒职业学院,4115012677,内蒙古自治区,锡林郭勒盟,专科,,锡林郭勒职业学院(多伦分院),116.51813,42.21263,597a2ae65b310cbe88b9880e,多伦县,1,116.505477860786,42.2042759836993
329,172,382,内蒙古警察职业学院,4115012797,内蒙古自治区,呼和浩特市,专科,,内蒙古警察职业学院,111.701494,40.878097,bc82984985d5d807a3acc4b2,新城区,1,111.688204580695,40.870609487747
333,173,383,内蒙古体育职业学院,4115012894,内蒙古自治区,呼和浩特市,专科,,内蒙古体育职业学院,111.680546,40.864971,08fc93dff46023919b68b43d,新城区,1,111.667178663238,40.8578643464564
334,174,384,乌兰察布职业学院,4115013699,内蒙古自治区,乌兰察布市,专科,,乌兰察布职业学院,113.185269,40.981298,f0dbc45fbf776edfac080fba,察哈尔右翼前旗,1,113.171645667697,40.9734234489327
335,175,385,通辽职业学院,4115013740,内蒙古自治区,通辽市,专科,,通辽职业学院,122.257978,43.687534,8fa14fc3d7caf56ef7eafcd0,科尔沁区,1,122.245931487282,43.679153658551
336,176,386,科尔沁艺术职业学院,4115013741,内蒙古自治区,通辽市,专科,,科尔沁艺术职业学院,122.266064,43.687903,a1418eb4bb0ec502ebe5822d,科尔沁区,1,122.254071344799,43.679374668512
337,177,387,内蒙古交通职业技术学院,4115013824,内蒙古自治区,赤峰市,专科,,内蒙古交通职业技术学院,118.898637,42.278204,33441a58887ac89ac9fa5fd0,松山区,1,118.885958572293,42.2702222893418
339,178,388,包头钢铁职业技术学院,4115013864,内蒙古自治区,包头市,专科,,包头钢铁职业技术学院,109.840921,40.630663,9aa5f22f1dc552c85b109333,昆都仑区,1,109.828668933765,40.6235920835485
340,178,388,包头钢铁职业技术学院,4115013864,内蒙古自治区,包头市,专科,,包头钢铁职业技术学院,109.82513,40.661638,b33a2919161f2c39b11e36eb,昆都仑区,1,109.81294610548,40.6542632143109
341,179,389,乌海职业技术学院,4115013915,内蒙古自治区,乌海市,专科,,乌海职业技术学院,106.805551,39.656421,060f5e5329f41ed7081cc7f6,海勃湾区,1,106.794401332583,39.6491564494062
342,180,390,内蒙古科技职业学院,4115014048,内蒙古自治区教育厅,呼和浩特市,专科,民办,内蒙古科技职业学院,111.813355,40.86247,97d97723e242925358bbbc40,赛罕区,1,111.799968459448,40.8551086670724
343,181,391,内蒙古北方职业技术学院,4115014049,内蒙古自治区教育厅,呼和浩特市,专科,民办,内蒙古北方职业技术学院,111.849057,40.903717,1bf85b258dc8f2a4a1a93416,赛罕区,1,111.835914920926,40.8960064344768
344,183,393,内蒙古经贸外语职业学院,4115014051,内蒙古自治区教育厅,呼和浩特市,专科,民办,内蒙古经贸外语职业学院,111.701074,40.901194,04bdf4a35d028d32354aae31,新城区,1,111.687786900491,40.893697848001
345,184,394,包头铁道职业技术学院,4115014187,内蒙古自治区,包头市,专科,,包头铁道职业技术学院,110.008864,40.660823,61549c39b1370e5ddc1e52e9,九原区,1,109.996491584147,40.6537023472622
346,185,395,乌兰察布医学高等专科学校,4115014219,内蒙古自治区,乌兰察布市,专科,,乌兰察布医学高等专科学校,113.175088,40.986693,42519e6dd516671a6268584f,察哈尔右翼前旗,1,113.161489056477,40.9786796236641
347,186,396,鄂尔多斯职业学院,4115014248,内蒙古自治区,鄂尔多斯市,专科,,鄂尔多斯职业学院,109.830261,39.622539,fc1d78a902018e4bb6147fbf,康巴什区,1,109.818143946186,39.6154651674659
349,190,400,内蒙古能源职业学院,4115014337,内蒙古自治区教育厅,呼和浩特市,专科,民办,内蒙古能源职业学院,111.776022,40.909672,6ac9a18239b07bc14d2fdffe,新城区,1,111.762508663564,40.9024694105023
351,191,401,赤峰工业职业技术学院,4115014338,内蒙古自治区,赤峰市,专科,,赤峰工业职业技术学院,118.880004,42.278886,dbe40a08333c5d974d776e59,松山区,1,118.867192258983,42.2711969314079
352,192,402,阿拉善职业技术学院,4115014339,内蒙古自治区,阿拉善盟,专科,,阿拉善职业技术学院,105.652193,38.840569,b99c458aed58692546572699,阿拉善左旗,1,105.641577942348,38.8343916542331
353,192,402,阿拉善职业技术学院,4115014339,内蒙古自治区,阿拉善盟,专科,,阿拉善职业技术学院,106.654924,39.432291,6a369e26dd58b37ac6effbf7,阿拉善左旗,1,106.643938024522,39.4255546596905
354,193,403,内蒙古美术职业学院,4115014387,内蒙古自治区教育厅,巴彦淖尔市,专科,民办,内蒙古美术职业学院,107.469339,40.724018,33c7da93e7fd559ffd0eb0ae,临河区,1,107.457166113447,40.7169620176341
355,194,404,内蒙古民族幼儿师范高等专科学校,4115014463,内蒙古自治区,鄂尔多斯市,专科,,内蒙古民族幼儿师范高等专科学校,109.914183,39.821401,8b580a82188d080280a00c88,东胜区,1,109.902274803741,39.814262414224
356,195,405,鄂尔多斯生态环境职业学院,4115014501,内蒙古自治区,鄂尔多斯市,专科,,鄂尔多斯生态环境职业学院,109.834498,39.631397,5baf948483cbc00200ff2d99,康巴什区,1,109.82236040761,39.6243989407968
357,196,406,扎兰屯职业学院,4115014539,内蒙古自治区,呼伦贝尔市,专科,,扎兰屯职业学院(吊桥校区),122.741538,48.020957,fea40d0f6eadccac08f5eb50,扎兰屯市,1,122.728731086054,48.0127437356907
358,196,406,扎兰屯职业学院,4115014539,内蒙古自治区,呼伦贝尔市,专科,,扎兰屯职业学院(雅鲁校区),122.740353,48.017601,16b98e0d2c5ab7e32811d11d,扎兰屯市,1,122.727542730646,48.0094107170088
359,196,406,扎兰屯职业学院,4115014539,内蒙古自治区,呼伦贝尔市,专科,,扎兰屯职业学院(明月校区),122.736942,48.023909,e28090851c0c11902bb97c67,扎兰屯市,1,122.72410762453,48.015787715601
360,197,407,赤峰应用技术职业学院,4115014699,内蒙古自治区,赤峰市,专科,,赤峰应用技术职业学院,118.887147,42.295955,bac0c024d5771b92db131854,松山区,1,118.874389431676,42.2881752217868
362,198,471,朝阳师范高等专科学校,4121010171,辽宁省,朝阳市,专科,,朝阳师范高等专科学校,120.436012,41.536083,48287eabb823ee2f465726cf,双塔区,1,120.423648997789,41.5280844354444
363,200,473,锦州师范高等专科学校,4121010180,辽宁省,锦州市,专科,,锦州师范高等专科学校西区,121.149928,41.147472,85def3695908a0d1ac080ff4,凌河区,1,121.137689670155,41.1397631944184
365,201,474,营口职业技术学院,4121010181,辽宁省,营口市,专科,,营口职业技术学院,122.246854,40.609507,8bc9588155a27f27f21937be,西市区,1,122.235116465184,40.6021555899813
367,202,475,铁岭师范高等专科学校,4121010182,辽宁省,铁岭市,专科,,铁岭师范高等专科学校,123.753066,42.256827,dc0f0adc7ea07d5cf8221359,铁岭县,1,123.740552917024,42.2485226707067
368,203,476,大连职业技术学院,4121010845,辽宁省,大连市,专科,,大连职业技术学院,121.496529,39.027603,083a55faccb42e79246e9821,甘井子区,1,121.484646784254,39.0208491338412
369,203,476,大连职业技术学院,4121010845,辽宁省,大连市,专科,,大连职业技术学院(南关岭校区),121.608774,39.028567,78bd50f79f86665b31870a20,甘井子区,1,121.597234684567,39.0219433457909
370,204,477,辽宁农业职业技术学院,4121010957,辽宁省,营口市,专科,,辽宁农业职业技术学院,122.158503,40.19013,73f75d03ad77e21b0b1cc778,鲅鱼圈区,1,122.146814690765,40.1822916831087
376,207,480,阜新高等专科学校,4121011250,辽宁省,阜新市,专科,,阜新高等专科学校,121.638618,42.003262,3810c879b926878a9d09f7b9,海州区,1,121.626696767419,41.9955151170233
377,207,480,阜新高等专科学校,4121011250,辽宁省,阜新市,专科,,阜新高等专科学校(北校区),121.642112,42.007597,9d1e1a87b2e148f8c356ac79,海州区,1,121.630196536088,41.999800607238
378,208,481,辽宁省交通高等专科学校,4121011500,辽宁省,沈阳市,专科,,辽宁省交通高等专科学校,123.517898,41.942296,01aeb8dfdd32918e0c0a7029,沈北新区,1,123.505448117462,41.9340773862819
379,210,483,盘锦职业技术学院,4121012063,辽宁省,盘锦市,专科,,盘锦职业技术学院,122.112493,40.734399,2e30cc949abe4e8838e4a604,大洼区,1,122.100412120523,40.7269584015298
385,214,487,辽宁生态工程职业学院,4121012593,辽宁省,沈阳市,专科,,辽宁生态工程职业学院(南校区),123.330533,41.665097,a82b2e3a9c75ae21f4e73bfe,苏家屯区,1,123.318042225916,41.6568861021121
386,214,487,辽宁生态工程职业学院,4121012593,辽宁省,沈阳市,专科,,辽宁生态工程职业学院(北校区),123.525508,41.946902,46de967d784c27a1f6c59cf6,沈北新区,1,123.513042117074,41.9388489823071
388,215,488,沈阳职业技术学院,4121012594,辽宁省,沈阳市,专科,,沈阳职业技术学院,123.506204,41.876893,dad739514f9049344251c0fe,大东区,1,123.493805935192,41.8684231545604
391,217,490,辽宁金融职业学院,4121012895,辽宁省,沈阳市,专科,,辽宁金融职业学院,123.524822,41.944486,e3a7fd13e03de75228b97cd1,沈北新区,1,123.512355609524,41.9364180206037
394,219,492,辽宁广告职业学院,4121012897,辽宁省教育厅,沈阳市,专科,民办,辽宁广告职业学院,123.356593,41.92434,78bd50f79c99675b31870ac1,于洪区,1,123.344132355246,41.9156307236758
396,221,494,辽宁经济职业技术学院,4121012899,辽宁省,沈阳市,专科,,辽宁经济职业技术学院,123.498366,41.942433,64ff3be1312eedbb90114cd1,沈北新区,1,123.485955706549,41.9338281489779
397,222,495,辽宁石化职业技术学院,4121012900,辽宁省,锦州市,专科,,辽宁石化职业技术学院,121.1288,41.141571,71cd5d1ed8d3d6876268588c,古塔区,1,121.116585393414,41.1337052471961
398,222,495,辽宁石化职业技术学院,4121012900,辽宁省,锦州市,专科,,辽宁石化职业技术学院(南校区),121.126024,41.136993,47fec552365a3056ab0dd873,古塔区,1,121.113823836389,41.1290849559586
399,227,500,大连枫叶职业技术学院,4121013961,辽宁省教育厅,大连市,专科,民办,大连枫叶职业技术学院,121.313683,38.966932,26a054db7c48fb90c26c1401,甘井子区,1,121.302036692356,38.9596287459201
400,229,502,辽河石油职业技术学院,4121014077,辽宁省,盘锦市,专科,,辽河石油职业技术学院,121.815561,41.35273,5508504db84b65b6c7f02547,双台子区,1,121.80383786517,41.3443760297338
401,229,502,辽河石油职业技术学院,4121014077,辽宁省,盘锦市,专科,,辽河石油职业技术学院党校校区,122.070071,41.118766,a395c1528d9d88dba2d2305f,兴隆台区,1,122.058152111417,41.1105832815526
402,231,504,辽宁铁道职业技术学院,4121014188,辽宁省,锦州市,专科,,辽宁铁道职业技术学院,121.156479,41.150316,2ad32cc322fc46f29c95de8b,凌河区,1,121.144264897818,41.1425715682838
406,232,505,辽宁建筑职业学院,4121014189,辽宁省,辽阳市,专科,,辽宁建筑职业学院(北校区),123.171885,41.261515,e11601b65c0ab848f7eafc8a,白塔区,1,123.159485041453,41.2536172012669
407,232,505,辽宁建筑职业学院,4121014189,辽宁省,辽阳市,专科,,辽宁建筑职业学院(南校区),123.165632,41.253137,45b439f372d64995a1d230ef,白塔区,1,123.153255975549,41.245137943411
408,234,507,大连装备制造职业技术学院,4121014227,辽宁省教育厅,大连市,专科,民办,大连装备制造职业技术学院,121.712478,39.208188,8a3295ab3568661ff7231003,金州区,1,121.700891870668,39.2010266093947
409,236,509,辽宁现代服务职业技术学院,4121014240,辽宁省,沈阳市,专科,,辽宁现代服务职业技术学院,123.597412,41.93743,50f7d146259b46b972210b63,沈北新区,1,123.585281633879,41.9290156858023
410,239,512,辽宁城市建设职业技术学院,4121014288,辽宁省,沈阳市,专科,,辽宁城市建设职业技术学院,123.498365,41.951896,275d63cd869da40e16a19015,沈北新区,1,123.485962700751,41.9432950000295
411,244,517,辽宁民族师范高等专科学校,4121014464,辽宁省,沈阳市,专科,,辽宁民族师范高等专科学校,123.457026,41.838304,b4e2dbf33adff78f9de3214f,皇姑区,1,123.444423684411,41.8298893685163
412,245,518,辽宁轻工职业学院,4121014473,辽宁省,大连市,专科,,辽宁轻工职业学院,121.747865,39.083375,96b672aa94d38c75ce04ef20,金州区,1,121.736111029616,39.076689192636
413,246,519,辽宁特殊教育师范高等专科学校,4121014526,辽宁省,沈阳市,专科,,辽宁特殊教育师范高等专科学校,123.636918,41.69357,487b0c428df718560782c2e7,浑南区,1,123.624682807735,41.6854877735499
414,247,520,辽宁师范高等专科学校,4121014662,辽宁省,沈阳市,专科,,辽宁师范高等专科学校,123.417575,41.68919,c604666a52f151d654bfff2c,浑南区,1,123.404816870599,41.6810804087701
417,251,561,四平职业大学,4122011044,吉林省,四平市,专科,,四平职业大学,124.438102,43.097427,c369b02d51bc608ea8f729af,铁东区,1,124.425468712905,43.0884900072503
423,253,563,长春金融高等专科学校,4122011440,吉林省,长春市,专科,,长春金融高等专科学校(莲花山校区),125.56347,43.907086,4981607421e0225db21e362b,二道区,1,125.550738707809,43.8990355853703
424,257,567,吉林司法警官职业学院,4122012901,吉林省,长春市,专科,,吉林司法警官职业学院,125.184701,44.078728,4f32eea5cc897376d2f49e3b,宽城区,1,125.17173654543,44.0701969269003
425,264,574,松原职业技术学院,4122013917,吉林省,松原市,专科,,松原职业技术学院,124.866426,45.179198,8eb48fa14124b9dbf32d83f5,宁江区,1,124.853552249768,45.1716451803048
427,264,574,松原职业技术学院,4122013917,吉林省,松原市,专科,,松原职业技术学院(北校区),124.813722,45.211479,2a7a25ec379f21636c3e1b7d,宁江区,1,124.801018389945,45.2031133052809
428,265,575,吉林铁道职业技术学院,4122014052,吉林省,吉林市,专科,,吉林铁道职业技术学院,126.556168,43.724838,32a7781ab7b2b4903586f4e5,永吉县,1,126.543846917594,43.7168380233176
429,266,576,白城职业技术学院,4122014107,吉林省,白城市,专科,,白城职业技术学院,122.810951,45.64815,cf8fc8828d6634af9e9d6898,洮北区,1,122.798394508003,45.6404204990988
431,270,580,吉林城市职业技术学院,4122014426,吉林省教育厅,长春市,专科,民办,吉林城市职业技术学院,125.274512,44.015147,3c388f54fe000d69bd4842d7,宽城区,1,125.261726989517,44.0065930763087
432,274,584,长春早期教育职业学院,4122014701,吉林省教育厅,长春市,专科,民办,长春早期教育职业学院,125.015682,44.014092,ad43cf0081ea1b8c6c476043,农安县,1,125.002870484401,44.0058585927924
433,278,627,齐齐哈尔高等师范专科学校,4123010238,黑龙江省,齐齐哈尔市,专科,,齐齐哈尔高等师范专科学校,123.980191,47.320699,803708f120d89704008972b2,铁锋区,1,123.967126925507,47.312299689923
434,282,631,黑龙江建筑职业技术学院,4123012053,黑龙江省,哈尔滨市,专科,,黑龙江建筑职业技术学院,126.515105,45.878296,b3ccfe263ed092b04151c0b6,呼兰区,1,126.50240986451,45.8702091465952
435,283,632,黑龙江艺术职业学院,4123012490,黑龙江省,哈尔滨市,专科,,黑龙江艺术职业学院,126.737552,45.733413,9b5c01062e868918d8d89129,香坊区,1,126.724985168971,45.7249954854284
436,285,634,黑龙江林业职业技术学院,4123012724,黑龙江省,牡丹江市,专科,,黑龙江林业职业技术学院,129.573317,44.595274,e13d24d925832df499005004,爱民区,1,129.55973292642,44.5873742729556
437,285,634,黑龙江林业职业技术学院,4123012724,黑龙江省,牡丹江市,专科,,黑龙江林业职业技术学院(南校区),129.5786,44.589878,17192e0bcf48d002fb2d61e9,爱民区,1,129.565058399668,44.5818769573897
440,290,639,鹤岗师范高等专科学校,4123012905,黑龙江省,鹤岗市,专科,,鹤岗师范高等专科学校,130.508872,47.406108,64ff3be11457c2bb90114c2e,东山区,1,130.494393432607,47.3980568227439
441,292,641,哈尔滨铁道职业技术学院,4123012907,黑龙江省,哈尔滨市,专科,,哈尔滨铁道职业技术学院,126.644899,45.584297,14076deed030fef403294fa8,平房区,1,126.632438381567,45.5764912595798
442,296,645,哈尔滨传媒职业学院,4123013302,黑龙江省教育厅,哈尔滨市,专科,民办,哈尔滨传媒职业学院,126.523845,45.58562,6e060bc5774dce4542d63ecb,南岗区,1,126.511209972023,45.5776709896402
446,299,648,黑龙江公安警官职业学院,4123013449,黑龙江省,哈尔滨市,专科,,黑龙江公安警官职业学院,126.545715,45.87403,2a7a25ec16bc00636d3e1ba0,呼兰区,1,126.53300090236,45.8664353909322
447,300,649,哈尔滨城市职业学院,4123013451,黑龙江省教育厅,哈尔滨市,专科,民办,哈尔滨城市职业学院,126.807312,45.645454,83b7023e3694847e58109397,阿城区,1,126.794582726815,45.63752995376
448,302,651,黑龙江旅游职业技术学院,4123013729,黑龙江省,哈尔滨市,专科,,黑龙江旅游职业技术学院,126.625954,45.673299,4ea3f2f113ceceaaafcb66af,南岗区,1,126.613627834433,45.6651628254119
449,302,651,黑龙江旅游职业技术学院,4123013729,黑龙江省,哈尔滨市,专科,,黑龙江旅游职业技术学院(太阳岛校区),126.613152,45.798204,ff142ce94d4bd5ba17c8f6f9,松北区,1,126.600875558274,45.7899484164692
450,304,653,黑龙江生态工程职业学院,4123013731,黑龙江省,哈尔滨市,专科,,黑龙江生态工程职业学院,126.508097,45.883279,eef2d5286ab397da3be4a656,呼兰区,1,126.495419780342,45.8750393381274
451,307,656,黑龙江民族职业学院,4123013935,黑龙江省,哈尔滨市,专科,,黑龙江民族职业学院,126.653854,45.583092,e817f9a1ebdbefd5b42655be,平房区,1,126.641325302205,45.5754113286394
452,308,657,大庆医学高等专科学校,4123014017,黑龙江省,大庆市,专科,,大庆医学高等专科学校,125.055655,46.607892,dbf4d6ee313c5b2a6ea3cc88,萨尔图区,1,125.042332255181,46.5995154655819
453,309,658,黑龙江交通职业技术学院,4123014053,黑龙江省,哈尔滨市,专科,,黑龙江交通职业技术学院(哈尔滨校区),126.527603,45.878008,41572e00419d1ab4b55f1ea0,呼兰区,1,126.514876805532,45.8701940496938
454,310,659,哈尔滨应用职业技术学院,4123014055,黑龙江省教育厅,哈尔滨市,专科,民办,哈尔滨应用职业技术学院,126.427801,45.655265,cd9d05dd096cecb684420ead,道里区,1,126.414717314769,45.6473416657964
455,312,661,哈尔滨科学技术职业学院,4123014108,黑龙江省,哈尔滨市,专科,,哈尔滨科学技术职业学院,126.963895,45.548354,925c550fd4b1bbcf5a3ac854,阿城区,1,126.951463178635,45.5399611852582
457,313,662,佳木斯职业学院,4123014178,黑龙江省,佳木斯市,专科,,佳木斯职业学院,130.329872,46.797352,a5768438dec21cb729fc48eb,郊区,1,130.315736530287,46.7887596505135
458,314,663,黑龙江护理高等专科学校,4123014272,黑龙江省,哈尔滨市,专科,,黑龙江护理高等专科学校,126.623128,45.694526,9a6a87ed4ded62f888db7336,南岗区,1,126.610829276984,45.68635488348
460,314,663,黑龙江护理高等专科学校,4123014272,黑龙江省,哈尔滨市,专科,,黑龙江护理高等专科学校(阿城校区),126.969686,45.507895,12c1eae9d7d1d287c3364490,阿城区,1,126.957219456472,45.4994810757644
461,315,664,齐齐哈尔理工职业学院,4123014400,黑龙江省教育厅,齐齐哈尔市,专科,民办,齐齐哈尔理工职业学院,123.612137,47.22183,41ed4eddce2a26711ef74d4b,富拉尔基区,1,123.599223857766,47.2135012882532
462,316,665,哈尔滨幼儿师范高等专科学校,4123014425,黑龙江省,哈尔滨市,专科,,哈尔滨幼儿师范高等专科学校,126.779023,45.73155,6671cdbb06eb673f33f71d7a,香坊区,1,126.766194234517,45.7237948119517
463,317,666,黑龙江冰雪体育职业学院,4123014540,黑龙江省,哈尔滨市,专科,,黑龙江冰雪体育职业学院,126.695977,45.865174,85d369cc08aeddd72cb908da,松北区,1,126.683358316994,45.8571822448821
464,318,667,哈尔滨北方航空职业技术学院,4123014633,黑龙江省教育厅,哈尔滨市,专科,民办,哈尔滨北方航空职业技术学院,127.035223,45.558254,51a6ca4050f5d560373a710e,阿城区,1,127.022222073997,45.5503862555716
467,319,708,上海旅游高等专科学校,4131010275,上海市,上海市,专科,,上海旅游高等专科学校,121.518798,30.83894,8eb48fa1c55a25a4f32d830a,奉贤区,1,121.50786136293,30.8354967951422
468,320,709,上海东海职业技术学院,4131010851,上海市教委,上海市,专科,民办,上海东海职业技术学院,121.463708,31.036094,53349ee33d8e6912230262aa,闵行区,1,121.452708094205,31.0318668990968
469,321,710,上海工商职业技术学院,4131010852,上海市教委,上海市,专科,民办,上海工商职业技术学院,121.185744,31.362358,864ffc86799e09e71d1d117a,嘉定区,1,121.174740424314,31.3580682164889
470,321,710,上海工商职业技术学院,4131010852,上海市教委,上海市,专科,民办,上海工商职业技术学院(青浦校区),121.227548,31.254778,d24e48eb347f63b5aeee7ab9,青浦区,1,121.216632956469,31.2506044912586
471,322,711,上海出版印刷高等专科学校,4131011733,上海市,上海市,专科,,上海出版印刷高等专科学校(水丰路校区),121.549229,31.289409,a3e8341c6f04a0eb4afd3fc1,杨浦区,1,121.538500356146,31.2852912320007
472,322,711,上海出版印刷高等专科学校,4131011733,上海市,上海市,专科,,上海出版印刷高等专科学校(营口路校区),121.540331,31.295303,7abfd4524c56fd4416c905c9,杨浦区,1,121.529535821751,31.2913131107701
473,322,711,上海出版印刷高等专科学校,4131011733,上海市,上海市,专科,,上海出版印刷高等专科学校(国顺东路校区),121.547538,31.309616,9ef2b37e4da2316de81e97dd,杨浦区,1,121.536792252414,31.3055113302075
474,323,712,上海行健职业学院,4131012493,上海市,上海市,专科,,上海行健职业学院(原平路分校),121.438036,31.286535,ca11e84d40cd6758e215f999,静安区,1,121.426998373618,31.2820364091251
475,324,713,上海城建职业学院,4131012495,上海市,上海市,专科,,上海城建职业学院(奉贤校区),121.421378,30.912343,a553478eed3d1c637369d3d0,奉贤区,1,121.410286003229,30.9082679306886
476,324,713,上海城建职业学院,4131012495,上海市,上海市,专科,,上海城建职业学院(宝山校区),121.473073,31.412144,1b560a4729abf90eab175a23,宝山区,1,121.462034301978,31.4079303384946
477,324,713,上海城建职业学院,4131012495,上海市,上海市,专科,,上海城建职业学院(杨浦校区),121.560509,31.332832,8f4dd6346a514d49f8f0cb12,杨浦区,1,121.549814361448,31.3285949424255
478,324,713,上海城建职业学院,4131012495,上海市,上海市,专科,,上海城建职业学院(静安校区),121.487799,31.253189,04178e8e915a1316ce04efb2,静安区,1,121.476719950123,31.2493311475651
480,324,713,上海城建职业学院,4131012495,上海市,上海市,专科,,上海城建职业学院(国科路校区),121.524633,31.292098,44ad18efa891403c5abbbc8c,杨浦区,1,121.513710435931,31.2883496558081
481,325,714,上海交通职业技术学院,4131012497,上海市,上海市,专科,,上海交通职业技术学院(浦东校区),121.686591,31.073403,15c44abc262c12027c29bd78,浦东新区,1,121.675911745204,31.0692281614741
482,325,714,上海交通职业技术学院,4131012497,上海市,上海市,专科,,上海交通职业技术学院,121.431097,31.198343,87a674fbdc5a6b52ad045708,徐汇区,1,121.420029605349,31.1939523928957
483,325,714,上海交通职业技术学院,4131012497,上海市,上海市,专科,,上海交通职业技术学院(嘉定校区),121.239983,31.489644,0efd26bb8de07d6441d63ed6,嘉定区,1,121.228996931389,31.485638142701
485,326,715,上海海事职业技术学院,4131012498,上海市,上海市,专科,,上海海事职业技术学院,121.534987,31.244897,2550c6d73fb2432de607387c,浦东新区,1,121.524115381863,31.2410059981974
489,327,716,上海电子信息职业技术学院,4131012499,上海市,上海市,专科,,上海电子信息职业技术学院(奉贤校区),121.702789,30.931226,5c2dc21df8f7fb7a6ec02c89,奉贤区,1,121.692066309273,30.9272312831534
490,327,716,上海电子信息职业技术学院,4131012499,上海市,上海市,专科,,上海电子信息职业技术学院(闵行校区),121.43054,31.034452,b730158c82d671446849f37a,闵行区,1,121.419484711822,31.0301583108968
491,327,716,上海电子信息职业技术学院,4131012499,上海市,上海市,专科,,上海电子信息职业技术学院(徐汇校区),121.465451,31.194542,203787f73e6b78c52806ce2b,徐汇区,1,121.454436444935,31.1902593494476
492,327,716,上海电子信息职业技术学院,4131012499,上海市,上海市,专科,,上海电子信息职业技术学院生活园区,121.698358,30.92897,8eb48fa1ddb33dd8f32d836f,奉贤区,1,121.68765708032,30.9249275764009
493,328,717,上海震旦职业学院,4131012583,上海市教委,上海市,专科,民办,上海震旦职业学院,121.362517,31.425121,0523a14131d18f1cb23c817f,宝山区,1,121.351394463077,31.4210534881113
494,328,717,上海震旦职业学院,4131012583,上海市教委,上海市,专科,民办,上海震旦职业学院(南校区),121.366039,31.41824,95dfa9aeef4a74d5c72ba1ce,宝山区,1,121.354896247797,31.4142304791789
497,331,720,上海思博职业技术学院,4131012586,上海市教委,上海市,专科,民办,上海思博职业技术学院,121.78711,31.043761,b292b3aabe7e7b57bf4842bc,浦东新区,1,121.776337681697,31.039701226089
499,332,721,上海工艺美术职业学院,4131012588,上海市,上海市,专科,,上海工艺美术职业学院,121.25867,31.413834,2b1bfe89d3687fc92806ce04,嘉定区,1,121.247661971105,31.4101289099752
500,332,721,上海工艺美术职业学院,4131012588,上海市,上海市,专科,,上海工艺美术职业学院,121.442666,31.192696,0cb1d16ba21a00135d17c334,徐汇区,1,121.431645533708,31.1882167680446
502,333,722,上海济光职业技术学院,4131012798,上海市教委,上海市,专科,民办,上海济光职业技术学院,121.441473,31.370663,406c41a06a2fa164843304d9,宝山区,1,121.430407947445,31.3661070010944
503,333,722,上海济光职业技术学院,4131012798,上海市教委,上海市,专科,民办,上海济光职业技术学院(杨浦校区),121.506482,31.306783,c3340ae69eda923f4bcc4a49,杨浦区,1,121.495450595865,31.3031258493239
504,334,723,上海工商外国语职业学院,4131012800,上海市教委,上海市,专科,民办,上海工商外国语职业学院,121.787733,31.050963,516aa5be3d5dc7a9f4eafc51,浦东新区,1,121.776966727063,31.0468904447173
506,335,724,上海科学技术职业学院,4131012801,上海市,上海市,专科,,上海科学技术职业学院,121.264624,31.392408,a8fc7828ca59bfc6d8d891d7,嘉定区,1,121.253596731928,31.3887337048043
508,336,725,上海农林职业技术学院,4131012912,上海市,上海市,专科,,上海农林职业技术学院,121.225792,31.016352,49d959385f0a6442c61e51f3,松江区,1,121.214903414621,31.0122741039315
511,336,725,上海农林职业技术学院,4131012912,上海市,上海市,专科,,上海农林职业技术学院实训基地(水产公路),121.134908,30.93963,caa446b41a635f06b04c4939,松江区,1,121.123770776893,30.935948792542
512,337,726,上海邦德职业技术学院,4131012913,上海市教委,上海市,专科,民办,上海邦德职业技术学院,121.408506,31.328958,b292b3aabd3c7a57be484242,宝山区,1,121.397305708567,31.3249017242581
513,338,727,上海电影艺术职业学院,4131013747,上海市教委,上海市,专科,民办,上海电影艺术职业学院,121.591568,31.19784,4fc3161ab4e20ba83b13fdb0,浦东新区,1,121.580890889924,31.1939626378897
514,340,729,上海工会管理职业学院,4131014023,上海市,上海市,专科,,上海工会管理职业学院,121.525455,31.266523,875e0c56e5aa0292cac3dbe2,杨浦区,1,121.514522411386,31.2627700400713
515,340,729,上海工会管理职业学院,4131014023,上海市,上海市,专科,,上海工会管理职业学院,121.421378,30.912343,a553478eed3d1c637369d3d0,奉贤区,1,121.410286003229,30.9082679306886
518,341,730,上海民航职业技术学院,4131014394,交通运输部（中国民用航空局）,上海市,专科,,上海民航职业技术学院,121.462475,31.177613,65af8b9ef7d5e4f61329358c,徐汇区,1,121.451474207079,31.1732897654776
519,341,730,上海民航职业技术学院,4131014394,交通运输部（中国民用航空局）,上海市,专科,,上海民航职业技术学院(浦东校区),121.793188,31.057643,4c1d4094161e6f6b88fc06bd,浦东新区,1,121.782450153925,31.0534950932438
520,341,730,上海民航职业技术学院,4131014394,交通运输部（中国民用航空局）,上海市,专科,,上海民航职业技术学院(浦东校区)生活园区,121.791778,31.056641,0457a361985cfa1bb34c4971,浦东新区,1,121.78103335378,31.0525101661968
521,343,810,盐城幼儿师范高等专科学校,3632000466,江苏省,盐城市,专科,,盐城幼儿师范高等专科学校(北校区),120.17344,33.323518,0aae9467d95a587043afe6eb,盐都区,1,120.161932476179,33.3192544605757
522,343,810,盐城幼儿师范高等专科学校,3632000466,江苏省,盐城市,专科,,盐城幼儿师范高等专科学校(南校区),120.18274,33.313498,c923fc87448d1df58505bf98,盐都区,1,120.171233639531,33.3093299120238
524,344,811,苏州幼儿师范高等专科学校,3632000583,江苏省,苏州市,专科,,苏州幼儿师范高等专科学校,120.676137,31.387279,a718517c4d7fd764471a3202,相城区,1,120.665300228656,31.3836755424833
525,345,812,明达职业技术学院,4132010826,江苏省教育厅,盐城市,专科,民办,明达职业技术学院,120.344741,33.79193,593850fb793fca5ddf1e5220,射阳县,1,120.333440024656,33.7870402821029
527,346,813,无锡职业技术学院,4132010848,江苏省,无锡市,专科,,无锡职业技术学院(高浪路),120.278627,31.502251,0e0986c69add7ca524e0a069,滨湖区,1,120.26754049225,31.4982370391577
528,346,813,无锡职业技术学院,4132010848,江苏省,无锡市,专科,,无锡职业技术学院(中桥校区),120.301201,31.546064,7d2c0ee1d40fd3865fbe86f0,梁溪区,1,120.290039758119,31.5423333920253
530,347,814,江苏建筑职业技术学院,4132010849,江苏省,徐州市,专科,,江苏建筑职业技术学院,117.182764,34.209231,dffd631c2dacdebc38221ce5,泉山区,1,117.170367181814,34.2047913042584
533,348,815,江苏工程职业技术学院,4132010958,江苏省,南通市,专科,,江苏工程职业技术学院,120.894238,32.012926,162005448bf39642250bd070,崇川区,1,120.883456288105,32.0093922063071
534,349,816,苏州工艺美术职业技术学院,4132010960,江苏省,苏州市,专科,,苏州工艺美术职业技术学院,120.592312,31.236873,f4a33da9fcad26093010af46,吴中区,1,120.581685955551,31.232812186329
535,350,817,连云港职业技术学院,4132011050,江苏省,连云港市,专科,,连云港职业技术学院,119.248642,34.668765,0b003083bbb423e9fd0eb0fb,海州区,1,119.236591396988,34.6638998427217
536,352,819,南通职业大学,4132011052,江苏省,南通市,专科,,南通职业大学(海门分校),121.172984,31.834014,a03d8ad3f82304e184330417,海门区,1,121.161850968378,31.8299122136054
537,354,821,沙洲职业工学院,4132011288,江苏省,苏州市,专科,,沙洲职业工学院,120.594373,31.909881,6e665bd9475289a0f942b2e4,张家港市,1,120.583735566286,31.9057482753109
538,355,822,扬州市职业大学,4132011462,江苏省,扬州市,专科,,扬州市职业大学(广播电视大学后勤服务有限公司),119.386574,32.402063,3502373162a6ac7c213bf244,邗江区,1,119.374651249159,32.3977766170701
540,355,822,扬州市职业大学,4132011462,江苏省,扬州市,专科,,扬州市职业大学师范学院,119.442634,32.783685,0835cc27bf2df103eee4a502,高邮市,1,119.430593571951,32.7795650326752
542,356,823,连云港师范高等专科学校,4132011585,江苏省,连云港市,专科,,连云港师范高等专科学校,119.234616,34.652324,e3e2cd9d2304589dc7f50dc6,海州区,1,119.222504285158,34.6476470797872
545,357,824,江苏经贸职业技术学院,4132012047,江苏省,南京市,专科,,江苏经贸职业技术学院(江宁校区),118.891435,31.937283,50fb64ff430ab720e9f853f0,江宁区,1,118.879878300591,31.93355508707
546,357,824,江苏经贸职业技术学院,4132012047,江苏省,南京市,专科,,江苏经贸职业技术学院(光华校区),118.832132,32.023406,1e5aa8af75664083e5e96599,秦淮区,1,118.820537964504,32.0194372114889
547,358,825,九州职业技术学院,4132012054,江苏省教育厅,徐州市,专科,民办,九州职业技术学院,117.167349,34.189883,c7fb04bd51717b16fa0cadcc,铜山区,1,117.154990791451,34.1852710617088
548,359,826,硅湖职业技术学院,4132012078,江苏省教育厅,苏州市,专科,民办,硅湖职业技术学院,121.146456,31.29098,72986da367b867a71ce999e3,昆山市,1,121.135284783706,31.2871904331854
549,360,827,泰州职业技术学院,4132012106,江苏省,泰州市,专科,,泰州职业技术学院,119.900585,32.380772,069f3ce8753a98246dc02c79,海陵区,1,119.889424426415,32.3767480315671
551,360,827,泰州职业技术学院,4132012106,江苏省,泰州市,专科,,泰州职业技术学院药学院,119.897478,32.379646,40f02c3faf323a7ef2193788,高港区,1,119.886322524135,32.375584704105
553,361,828,常州信息职业技术学院,4132012317,江苏省,常州市,专科,,常州信息职业技术学院,119.96101,31.683938,0295e072f5fcabf9130daa7a,武进区,1,119.949751807493,31.6802839899218
554,362,829,江苏联合职业技术学院,4132012678,江苏省,南京市,专科,,江苏联合职业技术学院,118.779348,32.064444,983d3f1eba991f31b54f54de,鼓楼区,1,118.767626305132,32.0604299820825
555,362,829,江苏联合职业技术学院,4132012678,江苏省,南京市,专科,,江苏联合职业技术学院(江宁分院),118.905384,31.937874,8b24c35c72d8cb999a005000,江宁区,1,118.893903570793,31.9339011726666
560,363,830,江苏海事职业技术学院,4132012679,江苏省,南京市,专科,,江苏海事职业技术学院(江宁校区),118.913687,31.924348,2ea792ee7313647f940319a6,江宁区,1,118.902253427044,31.9202574768531
563,365,832,无锡科技职业学院,4132012681,江苏省,无锡市,专科,,无锡科技职业学院,120.396068,31.52616,7388dffd0e26b1ebd2ff23aa,新吴区,1,120.384886934334,31.5219249781191
565,366,833,江苏医药职业学院,4132012682,江苏省,盐城市,专科,,江苏医药职业学院,120.17829,33.330994,b766cd1204fea3fb0b69d95b,盐都区,1,120.166786600317,33.3267840487203
568,368,835,南通科技职业学院,4132012684,江苏省,南通市,专科,,南通科技职业学院,120.89843,32.009602,04821efb2fded84baeb22a43,崇川区,1,120.887639967608,32.0061103704391
570,369,836,苏州经贸职业技术学院,4132012685,江苏省,苏州市,专科,,苏州经贸职业技术学院,120.573288,31.258533,8e2f746c655b7b62dbeceda0,虎丘区,1,120.562556416665,31.2547706615811
572,370,837,苏州工业职业技术学院,4132012686,江苏省,苏州市,专科,,苏州工业职业技术学院,120.596833,31.225668,04e8faa419d54cebab175afc,吴中区,1,120.586228019472,31.2215659305037
573,372,839,苏州卫生职业技术学院,4132012688,江苏省,苏州市,专科,,苏州卫生职业技术学院(石湖校区),120.591798,31.267099,53cebd50f7b781612a02e141,虎丘区,1,120.58118772405,31.2630363573834
574,372,839,苏州卫生职业技术学院,4132012688,江苏省,苏州市,专科,,苏州卫生职业技术学院(书院巷校区),120.628577,31.304713,99d9e193c6e82746fe0eb078,姑苏区,1,120.61795666907,31.3007502910048
575,372,839,苏州卫生职业技术学院,4132012688,江苏省,苏州市,专科,,苏州卫生职业技术学院(药学院),120.58645,31.267205,56e88cba6fd5a765a4c7567f,虎丘区,1,120.575812249453,31.2632174124524
576,372,839,苏州卫生职业技术学院,4132012688,江苏省,苏州市,专科,,苏州卫生职业技术学院(木渎校区),120.521398,31.2629,5997650d1ea50f2f2cb9089d,吴中区,1,120.510498476268,31.2590431951865
578,373,840,无锡商业职业技术学院,4132012702,江苏省,无锡市,专科,,无锡商业职业技术学院(九龙校区),120.179885,31.567127,fa01e937de55c44a774ff13d,滨湖区,1,120.168529375258,31.5633120246547
579,373,840,无锡商业职业技术学院,4132012702,江苏省,无锡市,专科,,无锡商业职业技术学院(姚湾校区),120.188119,31.555322,d1469ee798407f62853304a8,滨湖区,1,120.176795637973,31.5515466595575
580,374,841,江苏航运职业技术学院,4132012703,江苏省,南通市,专科,,江苏航运职业技术学院,120.969167,31.922481,19758fb6b20142ef07fef53b,崇川区,1,120.958466166236,31.9182094188486
581,375,842,南京交通职业技术学院,4132012804,江苏省,南京市,专科,,南京交通职业技术学院,118.918469,31.918547,50fb64ff1b88cf5de9f8537b,江宁区,1,118.907052800657,31.9144098266302
582,376,843,江苏电子信息职业学院,4132012805,江苏省,淮安市,专科,,江苏电子信息职业学院,119.054086,33.558009,16b6f581f5d918c09e9d680d,清江浦区,1,119.042149999192,33.5530284054975
583,377,844,江苏农牧科技职业学院,4132012806,江苏省,泰州市,专科,,江苏农牧科技职业学院,119.94864,32.462905,43e0173471e6f8b08bfc066e,海陵区,1,119.937295220597,32.4594657484946
584,377,844,江苏农牧科技职业学院,4132012806,江苏省,泰州市,专科,,江苏农牧科技职业学院(迎宾路校区),119.948092,32.496429,9ed943853dd5dbf20f0a7051,海陵区,1,119.93676674892,32.492991758612
585,378,845,常州纺织服装职业技术学院,4132012807,江苏省,常州市,专科,,常州纺织服装职业技术学院,119.946147,31.689912,5b25f4465f234194112935a0,武进区,1,119.93487349478,31.68638199266
586,379,846,苏州农业职业技术学院,4132012808,江苏省,苏州市,专科,,苏州农业职业技术学院,120.588194,31.320135,b5f4c60805075c0d2ee67bc1,姑苏区,1,120.577566305681,31.316101090113
587,379,846,苏州农业职业技术学院,4132012808,江苏省,苏州市,专科,,苏州农业职业技术学院(东山分校区),120.410171,31.059253,25db40b787a28c339e9d6822,吴中区,1,120.398970138329,31.0554372475684
588,380,847,苏州工业园区职业技术学院,4132012809,江苏省,苏州市,专科,,苏州工业园区职业技术学院,120.761705,31.264902,4b6ec9dc346bb195a1d2301d,苏州工业园区,1,120.750815831736,31.2610155373884
589,382,849,炎黄职业技术学院,4132012919,江苏省教育厅,淮安市,专科,民办,炎黄职业技术学院,119.308566,33.791416,d6ee872412167ee0a8f0cd60,涟水县,1,119.296641139163,33.7866164995102
590,383,850,南京科技职业学院,4132012920,江苏省,南京市,专科,,南京科技职业学院,118.755557,32.239979,d55d3954085464b3bda24042,六合区,1,118.743742820462,32.2363686588293
591,384,851,正德职业技术学院,4132012921,江苏省教育厅,南京市,专科,民办,正德职业技术学院,118.790004,31.947136,31f9101b35723eb926e0a07b,江宁区,1,118.778349566714,31.9429250752823
592,385,852,钟山职业技术学院,4132012922,江苏省教育厅,南京市,专科,民办,钟山职业技术学院,118.896004,32.050734,b0313d5961efb921e60738c3,栖霞区,1,118.884469532895,32.0469531173715
593,386,853,无锡南洋职业技术学院,4132012923,江苏省教育厅,无锡市,专科,民办,无锡南洋职业技术学院西区,120.251851,31.500955,c81a9516f713eb7630169bd0,滨湖区,1,120.24084983133,31.496558794372
595,387,854,江南影视艺术职业学院,4132013017,江苏省教育厅,无锡市,专科,民办,江南影视艺术职业学院,120.182316,31.574378,197a4c3c44ce3ade9122e003,惠山区,1,120.170956651761,31.5705780355617
596,388,855,金肯职业技术学院,4132013100,江苏省教育厅,南京市,专科,民办,金肯职业技术学院,118.88766,31.690769,850815e146bb05e543e192fa,江宁区,1,118.87611025396,31.6870646195484
597,388,855,金肯职业技术学院,4132013100,江苏省教育厅,南京市,专科,民办,金肯职业技术学院(西校区),118.88411,31.694826,f438f6fa92affdd8d3ff23a6,江宁区,1,118.872536902559,31.6911732648104
598,388,855,金肯职业技术学院,4132013100,江苏省教育厅,南京市,专科,民办,金肯职业技术学院,118.885627,31.692029,d524dc58a7bd3101fa42b218,江宁区,1,118.874064802279,31.6883552336809
599,389,856,常州工业职业技术学院,4132013101,江苏省,常州市,专科,,常州工业职业技术学院,119.946004,31.68445,9f6a73be4a6ef1bc4002455f,武进区,1,119.934736613978,31.6809212416751
600,390,857,常州工程职业技术学院,4132013102,江苏省,常州市,专科,,常州工程职业技术学院,119.95297,31.689954,a12baa40db78f756e856faed,武进区,1,119.941695142382,31.6863926141643
601,391,858,江苏农林职业技术学院,4132013103,江苏省,镇江市,专科,,江苏农林职业技术学院,119.178279,31.964258,2a7a25ec0d0d27636c3e1bf3,句容市,1,119.166461622849,31.9598653249655
602,391,858,江苏农林职业技术学院,4132013103,江苏省,镇江市,专科,,江苏农林职业技术学院风景园林学院,119.277869,31.937039,f5bc41ec028a2af696f08c06,句容市,1,119.266189298122,31.9327098079172
603,391,858,江苏农林职业技术学院,4132013103,江苏省,镇江市,专科,,江苏农林职业技术学院北院,119.178761,31.968123,be3be478e103b3734f6d46ce,句容市,1,119.16694488982,31.9637379620731
604,392,859,江苏食品药品职业技术学院,4132013104,江苏省,淮安市,专科,,江苏食品药品职业技术学院,119.052521,33.551613,925c550f4958d0b25a3ac803,清江浦区,1,119.040587287782,33.5466269728939
605,392,859,江苏食品药品职业技术学院,4132013104,江苏省,淮安市,专科,,江苏食品药品职业技术学院洪泽湖产业学院,118.787256,33.131516,58e4014963d188e0593ac84b,洪泽区,1,118.77548952173,33.1270538053739
606,393,860,建东职业技术学院,4132013105,江苏省教育厅,常州市,专科,民办,建东职业技术学院,119.985998,31.87348,da35d50925859d848bfc067d,新北区,1,119.974793961542,31.8693600372886
607,394,861,南京铁道职业技术学院,4132013106,江苏省,南京市,专科,,南京铁道职业技术学院(浦口校区),118.705716,32.107955,babe236f19c5571c2fb908f7,浦口区,1,118.694104232345,32.1038661775643
610,395,862,徐州工业职业技术学院,4132013107,江苏省,徐州市,专科,,徐州工业职业技术学院(九里校区),117.150151,34.305683,20d71dbac3b8754679b55c7c,鼓楼区,1,117.137847242094,34.3006954432044
613,396,863,江苏信息职业技术学院,4132013108,江苏省,无锡市,专科,,江苏信息职业技术学院,120.175267,31.575608,e93761f68a557a0c223bf23d,惠山区,1,120.163898700892,31.5717424540467
614,397,864,宿迁职业技术学院,4132013110,江苏省,宿迁市,专科,,宿迁职业技术学院,118.29623,34.026782,b40e5605180986999968b416,宿豫区,1,118.284209737096,34.0221115360931
615,398,865,南京信息职业技术学院,4132013112,江苏省,南京市,专科,,南京信息职业技术学院,118.948207,32.134965,6e2f779398c30cb3adb22a85,栖霞区,1,118.936701820933,32.1310277191591
616,400,867,常州机电职业技术学院,4132013114,江苏省,常州市,专科,,常州机电职业技术学院,119.953637,31.683912,0a15c7ec6cd841fced74f8ed,武进区,1,119.942369147209,31.680346271798
617,401,868,江阴职业技术学院,4132013137,江苏省,无锡市,专科,,江阴职业技术学院,120.252103,31.879355,c61bd305356ec968c27da273,江阴市,1,120.241087593625,31.8749843344872
619,402,869,无锡城市职业技术学院,4132013748,江苏省,无锡市,专科,,无锡城市职业技术学院,120.19095,31.589515,ab0e1a4505d8430dd23ce3de,惠山区,1,120.179605730889,31.5857267012738
620,402,869,无锡城市职业技术学院,4132013748,江苏省,无锡市,专科,,无锡城市职业技术学院(南校区),120.194586,31.584732,8e03e166e63348575e0d0270,惠山区,1,120.183261056974,31.5809291801281
622,403,870,无锡工艺职业技术学院,4132013749,江苏省,无锡市,专科,,无锡工艺职业技术学院,119.840623,31.345106,c75b7326782d6243b817e74e,宜兴市,1,119.829226335094,31.3414623893959
623,406,873,盐城工业职业技术学院,4132013752,江苏省,盐城市,专科,,盐城工业职业技术学院,120.181359,33.327149,cd9d05dd24b8cbb685420ef9,盐都区,1,120.169858597839,33.3229665987567
626,406,873,盐城工业职业技术学院,4132013752,江苏省,盐城市,专科,,盐城工业职业技术学院继续教育学院,120.180135,33.327476,7d61be5dd4a721a077026944,盐都区,1,120.168632820073,33.3232842826362
627,407,874,江苏财经职业技术学院,4132013753,江苏省,淮安市,专科,,江苏财经职业技术学院,119.066645,33.557247,550fd5f9a7af4b79931fc903,清江浦区,1,119.054632632608,33.552393117804
628,408,875,扬州工业职业技术学院,4132013754,江苏省,扬州市,专科,,扬州工业职业技术学院,119.404582,32.342028,2856f7498b28eba554bfff6e,邗江区,1,119.392693281537,32.3375515030429
629,409,876,苏州百年职业学院,4132013962,江苏省教育厅,苏州市,专科,中外合作办学,苏州百年职业学院,120.749749,31.28051,28ac08379647fddacafa5f28,苏州工业园区,1,120.738933006078,31.2764003224469
630,410,877,昆山登云科技职业学院,4132013963,江苏省教育厅,苏州市,专科,民办,昆山登云科技职业学院,120.898403,31.396734,669775d08ae0c65bfd0eb0eb,昆山市,1,120.887657550598,31.3932144498991
631,411,878,南京视觉艺术职业学院,4132013964,江苏省教育厅,南京市,专科,民办,南京视觉艺术职业学院,118.933388,31.75503,8e914a24b436fb41d4851ff6,溧水区,1,118.921978113596,31.7508467629339
632,412,879,江苏城市职业学院,4132014000,江苏省,南京市,专科,,江苏城市职业学院(应天校区),118.753985,32.025975,ec4bdef871115c1a1ee99958,建邺区,1,118.742192338238,32.0223390949404
633,412,879,江苏城市职业学院,4132014000,江苏省,南京市,专科,,江苏城市职业学院,118.744685,32.06965,bfca448f75ef8e72b45f1e87,鼓楼区,1,118.732851889844,32.0660443493621
634,412,879,江苏城市职业学院,4132014000,江苏省,南京市,专科,,江苏城市职业学院(定淮门东校区),118.76152,32.074839,7596043477499002f8f0cb08,鼓楼区,1,118.749705895203,32.0711254351532
635,413,880,南京城市职业学院,4132014001,江苏省,南京市,专科,,南京城市职业学院(溧水校区),119.008645,31.722402,0cf709e87cca5662a9059da3,溧水区,1,118.996879549566,31.7185164785414
641,415,882,苏州高博软件技术职业学院,4132014163,江苏省教育厅,苏州市,专科,民办,苏州高博软件技术职业学院,120.424515,31.326822,881a28e700ae2947f942b246,虎丘区,1,120.413249522615,31.3229952600355
642,416,883,南京旅游职业学院,4132014180,江苏省,南京市,专科,,南京旅游职业学院,118.89785,31.934879,60bf6264c043214714c8f656,江宁区,1,118.886332635598,31.9310373362465
644,418,885,苏州信息职业技术学院,4132014256,江苏省,苏州市,专科,,苏州信息职业技术学院,120.6397,31.140909,34f68ab06109780a8f55ecd7,吴江区,1,120.629006256711,31.1372119361486
646,419,886,宿迁泽达职业技术学院,4132014293,江苏省教育厅,宿迁市,专科,民办,宿迁泽达职业技术学院,118.289859,34.026099,dffd4642a86c9bb23d9a5ebe,宿豫区,1,118.277810639274,34.0215515413343
647,423,890,江苏商贸职业学院,4132014475,江苏省,南通市,专科,,江苏商贸职业学院,120.895329,32.058128,1bf85b2573d5e4a4a1a9340d,崇川区,1,120.884510477627,32.0546089761081
648,424,891,南通师范高等专科学校,4132014493,江苏省,南通市,专科,,南通师范高等专科学校(新校区),120.979166,31.919287,7e61b085a0ae25d2d13ce36b,崇川区,1,120.968418611085,31.9150640538309
649,424,891,南通师范高等专科学校,4132014493,江苏省,南通市,专科,,南通师范高等专科学校,120.880451,32.010902,f4460918d98a006ab11e36c4,崇川区,1,120.869711377975,32.0071379371553
650,425,892,扬州中瑞酒店职业学院,4132014528,江苏省教育厅,扬州市,专科,民办,扬州中瑞酒店职业学院,119.362693,32.375128,38a656605c34bec48bf15d4b,邗江区,1,119.350709794793,32.3712987804117
651,426,893,江苏护理职业学院,4132014541,江苏省,淮安市,专科,,江苏护理职业学院,119.054362,33.541581,b6c5e1852a7b5822b020a822,清江浦区,1,119.042410547891,33.5366043958132
652,426,893,江苏护理职业学院,4132014541,江苏省,淮安市,专科,,江苏护理职业学院(黄河校区),119.021845,33.626976,c43eac364a12b853ab0dd88b,淮阴区,1,119.009916690548,33.6222790830902
653,428,895,江苏城乡建设职业学院,4132014543,江苏省,常州市,专科,,江苏城乡建设职业学院,119.75311,31.770854,8c77fa8a3c6c316c5cd4fe9d,钟楼区,1,119.74167226282,31.7665472389911
654,428,895,江苏城乡建设职业学院,4132014543,江苏省,常州市,专科,,江苏城乡建设职业学院(湖塘校区),119.961934,31.733296,a3ac3c3e14b1caed1329353a,武进区,1,119.950659251105,31.72962825903
655,428,895,江苏城乡建设职业学院,4132014543,江苏省,常州市,专科,,江苏城乡建设职业学院木梳路校区(清潭校区),119.941104,31.776722,93f614022b8939519a005023,钟楼区,1,119.929853170799,31.7732000447741
657,429,896,江苏航空职业技术学院,4132014568,江苏省,镇江市,专科,,江苏航空职业技术学院,119.725991,32.149143,87dd9fb82ce4776f40024512,京口区,1,119.714397072691,32.1453976371994
658,430,897,江苏安全技术职业学院,4132014589,江苏省,徐州市,专科,,江苏安全技术职业学院(贾汪校区),117.488022,34.429799,9293f951135270cbcf06a4e2,贾汪区,1,117.475752969838,34.4245853984714
659,430,897,江苏安全技术职业学院,4132014589,江苏省,徐州市,专科,,江苏安全技术职业学院(云龙校区),117.256313,34.269682,c8f59194a0c59d42ca09f095,云龙区,1,117.244188139595,34.2646656270398
662,431,898,江苏旅游职业学院,4132014604,江苏省,扬州市,专科,,江苏旅游职业学院(新校区),119.41674,32.30908,ae4cbd882fb0aa11441a329b,邗江区,1,119.404828485362,32.304645486763
665,432,959,宁波职业技术学院,4133010863,浙江省,宁波市,专科,,宁波职业技术学院(西校区),121.820961,29.902048,fff12a9ceb79eb8ea3acc4d1,北仑区,1,121.810335617225,29.8982834937441
667,432,959,宁波职业技术学院,4133010863,浙江省,宁波市,专科,,宁波职业技术学院东区,121.827593,29.898856,2f51267b1cf1ff8e40ab9a4c,北仑区,1,121.816961512472,29.8952054351099
668,434,961,浙江交通职业技术学院,4133012036,浙江省,杭州市,专科,,浙江交通职业技术学院,120.09557,30.349759,69fcd6dfac80292ecb2915a3,余杭区,1,120.084255833352,30.3460455771877
669,435,962,金华职业技术学院,4133012061,浙江省,金华市,专科,,金华职业技术学院,119.642556,29.067929,1a34f4df1b3d5a9b95ca07ff,婺城区,1,119.631437015713,29.0645851998487
671,436,963,宁波城市职业技术学院,4133012645,浙江省,宁波市,专科,,宁波城市职业技术学院,121.577728,29.814698,34059f974cbf4e5571455b65,鄞州区,1,121.567174817844,29.8110089197778
672,436,963,宁波城市职业技术学院,4133012645,浙江省,宁波市,专科,,宁波城市职业技术学院(奉化校区),121.379955,29.70307,eccb9c48c9b35f3cf603b8f0,奉化区,1,121.368872389101,29.6997218576248
674,438,965,浙江同济科技职业学院,4133012647,浙江省,杭州市,专科,,浙江同济科技职业学院,120.316027,30.248992,2e00c5dd8f1c5f1dd6851f8c,萧山区,1,120.304949960667,30.2457110111457
675,439,966,浙江工商职业技术学院,4133012789,浙江省,宁波市,专科,,浙江工商职业技术学院,121.512311,29.869908,2410d13c2468b91c4354d7b1,海曙区,1,121.501426894579,29.8667130087025
677,440,967,台州职业技术学院,4133012790,浙江省,台州市,专科,,台州职业技术学院,121.405764,28.659357,d219bb1d2054998af50e7730,椒江区,1,121.394801307305,28.6564995300942
679,440,967,台州职业技术学院,4133012790,浙江省,台州市,专科,,台州职业技术学院(华海学院),121.179437,28.806228,fcb318b67d27a8d71d58005a,临海市,1,121.168618337207,28.8031071966616
680,443,970,浙江建设职业技术学院,4133012862,浙江省,杭州市,专科,,浙江建设职业技术学院,120.305158,30.252249,cc0849a06b6e33519503198c,萧山区,1,120.29407913642,30.2490274113855
681,443,970,浙江建设职业技术学院,4133012862,浙江省,杭州市,专科,,浙江建设职业技术学院继续教育学院,120.137643,30.286247,7833191b59bfb0b1fbdc85ae,西湖区,1,120.126433602355,30.2822274016477
682,444,971,浙江艺术职业学院,4133012863,浙江省,杭州市,专科,,浙江艺术职业学院,120.163144,30.180824,3c0ea7c51e3b059dfbf0cbc5,滨江区,1,120.151912495244,30.1772751438143
683,444,971,浙江艺术职业学院,4133012863,浙江省,杭州市,专科,,浙江艺术职业学院(东冠校区),120.171267,30.167663,7e4fe18df4d673fc0e3dda4c,滨江区,1,120.160016970667,30.1642552851863
684,446,973,浙江商业职业技术学院,4133012865,浙江省,杭州市,专科,,浙江商业职业技术学院(滨江校区),120.17042,30.180812,a6695fbde033f52c057ce819,滨江区,1,120.159180008431,30.1773932729229
685,446,973,浙江商业职业技术学院,4133012865,浙江省,杭州市,专科,,浙江商业职业技术学院(德胜校区),120.163162,30.300186,3dc9befd43edbc6bbea2401c,拱墅区,1,120.151919655636,30.2966285758572
687,447,974,浙江经济职业技术学院,4133012866,浙江省,杭州市,专科,,浙江经济职业技术学院,120.385485,30.315108,141565e7d0484040b34c49f2,钱塘区,1,120.3744517086,30.3111909438875
688,448,975,浙江旅游职业学院,4133012867,浙江省,杭州市,专科,,浙江旅游职业学院(南校区),120.308893,30.248842,c5ddcc080bb43cc7d913188c,萧山区,1,120.297814320701,30.2456138977927
689,448,975,浙江旅游职业学院,4133012867,浙江省,杭州市,专科,,浙江旅游职业学院(千岛湖校区),119.111991,29.687376,48db9178b858d7b995f08cdc,淳安县,1,119.100127721405,29.6840360801405
690,448,975,浙江旅游职业学院,4133012867,浙江省,杭州市,专科,,浙江旅游职业学院(北校区),120.312062,30.252452,7204791c47cdf6ad1d1d113c,萧山区,1,120.300978932355,30.2492052952571
691,449,976,浙江育英职业技术学院,4133012868,浙江省教育厅,杭州市,专科,民办,浙江育英职业技术学院,120.358136,30.311075,4cf8d24e6a4f15e59cf7793c,江干区,1,120.347161725542,30.3070677789791
692,453,980,杭州职业技术学院,4133012872,浙江省,杭州市,专科,,杭州职业技术学院,120.359645,30.327048,38e480371255e448373a713c,钱塘区,1,120.34868231643,30.3230280639449
693,455,982,湖州职业技术学院,4133012875,浙江省,湖州市,专科,,湖州职业技术学院,120.137571,30.882815,66831210d78eaa9c725e80e7,吴兴区,1,120.126310363485,30.8785752478527
694,456,983,绍兴职业技术学院,4133012876,浙江省教育厅,绍兴市,专科,民办,绍兴职业技术学院,120.56757,29.986662,915331ec6e643a4d364aae94,越城区,1,120.556926377086,29.9834351181633
698,459,986,浙江东方职业技术学院,4133013002,浙江省教育厅,温州市,专科,民办,浙江东方职业技术学院(滨海校区),120.806319,27.811584,b0b2f3359731429445572655,龙湾区,1,120.795745560719,27.8090164101014
700,461,988,浙江纺织服装职业技术学院,4133013025,浙江省,宁波市,专科,,浙江纺织服装职业技术学院,121.631262,29.917872,c29c30cb22e8dcdaee74f852,镇海区,1,121.620553034399,29.914840675971
701,463,990,浙江长征职业技术学院,4133013027,浙江省教育厅,杭州市,专科,民办,浙江长征职业技术学院,120.025999,30.214131,5508504d2f81facac7f02512,西湖区,1,120.014849595172,30.2103643547548
702,472,999,浙江汽车职业技术学院,4133014089,浙江省教育厅,台州市,专科,民办,浙江汽车职业技术学院,121.177119,28.880333,101bc61b6993feddc42ba105,临海市,1,121.166292967773,28.8771994295233
703,477,1004,浙江宇翔职业技术学院,4133014703,浙江省教育厅,湖州市,专科,民办,浙江宇翔职业技术学院,119.676039,30.626944,033d1917cf25d0061df74d83,安吉县,1,119.664665608873,30.6234118747986
704,481,1054,安徽职业技术学院,4134010869,安徽省,合肥市,专科,,安徽职业技术学院,117.386038,31.934639,a5ef680fc23bbdd4b8df8faa,瑶海区,1,117.373847967847,31.9303137982939
709,484,1057,淮南联合大学,4134011308,安徽省,淮南市,专科,,淮南联合大学,116.954717,32.618115,9296b10180bb9627a8f0cd18,田家庵区,1,116.942927882441,32.6146419814403
710,484,1057,淮南联合大学,4134011308,安徽省,淮南市,专科,,淮南联合大学(北校区),117.016751,32.650892,fc4d38d4754ab3dcf60e77ea,田家庵区,1,117.004880587124,32.6466158191451
712,486,1059,安徽水利水电职业技术学院,4134012073,安徽省,合肥市,专科,,安徽水利水电职业技术学院,117.43332,31.83094,eb1fc8710c9e2e788c55ec89,肥东县,1,117.420969856116,31.8270949197785
713,491,1064,淮南职业技术学院,4134012220,安徽省,淮南市,专科,,淮南职业技术学院,117.019337,32.627693,e889a744b61367b58605bfdc,田家庵区,1,117.007471172356,32.6234507051213
714,496,1069,六安职业技术学院,4134012813,安徽省,六安市,专科,,六安职业技术学院,116.55059,31.837742,e62b9eae1a7ef7182fb90891,金安区,1,116.539066871847,31.8337621586093
715,496,1069,六安职业技术学院,4134012813,安徽省,六安市,专科,,六安职业技术学院,116.494462,31.742919,30edd7455c2e86485d0d0219,裕安区,1,116.482741275984,31.7389119027123
716,497,1070,安徽电子信息职业技术学院,4134012814,安徽省,蚌埠市,专科,,安徽电子信息职业技术学院,117.430518,32.902833,07f3c8b5ea5c8e636240a932,龙子湖区,1,117.418057152571,32.898892249508
717,499,1072,安徽交通职业技术学院,4134012816,安徽省,合肥市,专科,,安徽交通职业技术学院(北校区),117.30536,31.83568,b3aa435d41c1810b147643b5,包河区,1,117.293207549907,31.8320026362729
718,499,1072,安徽交通职业技术学院,4134012816,安徽省,合肥市,专科,,安徽交通职业技术学院(南区),117.303245,31.830046,3e3203b06d51ae9609a8d478,包河区,1,117.291099520014,31.826366392655
719,500,1073,安徽体育运动职业技术学院,4134012817,安徽省,合肥市,专科,,安徽体育运动职业技术学院,117.358661,31.776554,e2282b90d21fce7b5e0d02ac,包河区,1,117.34660616632,31.7721069612522
721,503,1076,合肥职业技术学院,4134013058,安徽省,合肥市,专科,,合肥职业技术学院科硕创新创业学院,117.247996,31.808153,6c5432cf7efcbdf1dbd89119,蜀山区,1,117.2361114159,31.8038039106692
722,505,1078,池州职业技术学院,4134013060,安徽省,池州市,专科,,池州职业技术学院,117.480927,30.666441,f7aedd5f45d5d09428d7abcf,贵池区,1,117.468976723204,30.6624014353534
725,507,1080,安徽广播影视职业技术学院,4134013062,安徽省,合肥市,专科,,安徽广播影视职业技术学院,117.378587,31.935332,295784f9db763dbacafa5f7c,瑶海区,1,117.366436252343,31.9309154191655
726,509,1082,安徽电气工程职业技术学院,4134013336,安徽省,合肥市,专科,,安徽电气工程职业技术学院(新校区),117.307128,31.819802,7bfa08fca0f4cf7f24d2bbba,包河区,1,117.294979804584,31.816121334966
727,509,1082,安徽电气工程职业技术学院,4134013336,安徽省,合肥市,专科,,安徽电气工程职业技术学院(黄山路),117.267767,31.848518,2527be1eacdeaab34bfc8db0,蜀山区,1,117.255807768871,31.8443707511851
729,512,1085,安徽机电职业技术学院,4134013339,安徽省,芜湖市,专科,,安徽机电职业技术学院,118.368311,31.289016,24907e07f3fb285c58f6bea2,弋江区,1,118.356398797197,31.2851235196574
730,514,1087,安徽中澳科技职业学院,4134013341,安徽省,合肥市,专科,,安徽中澳科技职业学院(庐阳校区),117.257989,31.884107,db1f39d425b3ac6ff4c59cb0,庐阳区,1,117.246098567336,31.8798411590655
731,518,1091,安庆职业技术学院,4134013345,安徽省,安庆市,专科,,安庆职业技术学院,117.136028,30.545232,68ed0e79763ff62b213bf293,迎江区,1,117.1241045262,30.5411928028378
734,520,1093,马鞍山师范高等专科学校,4134013760,安徽省,马鞍山市,专科,,马鞍山师范高等专科学校,118.502797,31.661304,6b0ba14eea5f5013d518b7c4,雨山区,1,118.490985705079,31.6576014161699
735,520,1093,马鞍山师范高等专科学校,4134013760,安徽省,马鞍山市,专科,,马鞍山师范高等专科学校(滨江校区),118.349228,31.727734,7847b9f7f90f676533621208,和县,1,118.337363589278,31.7234639182356
737,521,1094,安徽财贸职业学院,4134013845,安徽省,合肥市,专科,,安徽财贸职业学院(翡翠校区),117.185894,31.75871,d5464cf8a4de8a57fda77810,肥西县,1,117.173764658987,31.7549732880562
738,521,1094,安徽财贸职业学院,4134013845,安徽省,合肥市,专科,,安徽财贸职业学院(和平校区),117.37264,31.850126,0abf14988f15164a1f3894ff,瑶海区,1,117.360517086466,31.8456482046935
740,522,1095,安徽国际商务职业学院,4134013846,安徽省,合肥市,专科,,安徽国际商务职业学院(新校区),117.276349,31.990983,46e86fdd9d0e796cd13ce3ef,长丰县,1,117.26434800727,31.9870217582867
741,523,1096,安徽公安职业学院,4134013847,安徽省,合肥市,专科,,安徽公安职业学院,117.18346,31.834892,a0505a5695de92d4adb22a0a,蜀山区,1,117.17128897054,31.8311501300808
742,525,1098,安徽审计职业学院,4134013849,安徽省,合肥市,专科,,安徽审计职业学院,117.264486,31.729764,413473544623b3096f3e1be1,蜀山区,1,117.252554388018,31.7255476242257
743,525,1098,安徽审计职业学院,4134013849,安徽省,合肥市,专科,,安徽审计职业学院(老校区),117.311771,31.822337,c505c2f69ffd76e44f6d461c,包河区,1,117.299614266745,31.8186359626641
744,532,1105,安徽绿海商务职业学院,4134014133,安徽省教育厅,合肥市,专科,民办,安徽绿海商务职业学院,117.205381,31.755395,eb36750315a5211b00ec0110,蜀山区,1,117.19332459968,31.7515346264262
745,533,1106,合肥共达职业技术学院,4134014135,安徽省教育厅,合肥市,专科,民办,合肥共达职业技术学院,117.321083,31.969818,f99448f58fcaec8343ab9a9d,瑶海区,1,117.30891342854,31.9660481062886
747,536,1109,徽商职业学院,4134014191,安徽省,合肥市,专科,,徽商职业学院,117.037952,31.75614,2cc3c8e819b4caab4d2fdf14,肥西县,1,117.026004384888,31.752094410209
748,536,1109,徽商职业学院,4134014191,安徽省,合肥市,专科,,徽商职业学院(槽郢路),117.268077,31.843267,038144d6fc813254d4851f57,蜀山区,1,117.256114028439,31.8391231010355
749,537,1110,马鞍山职业技术学院,4134014192,安徽省,马鞍山市,专科,,马鞍山职业技术学院,118.567507,31.669165,764672e5106e76ae94ec8425,雨山区,1,118.556092508899,31.6649301126308
751,539,1112,安徽矿业职业技术学院,4134014229,安徽省教育厅,淮北市,专科,民办,安徽矿业职业技术学院,116.793825,33.954644,c2e18af521b3beaf0869d96e,相山区,1,116.781934854715,33.9500048617998
752,540,1113,合肥信息技术职业学院,4134014230,安徽省教育厅,合肥市,专科,民办,合肥信息技术职业学院,117.17978,31.764669,7478bba1161cf6237ab55c25,肥西县,1,117.167649384409,31.760901304331
757,544,1117,安徽汽车职业技术学院,4134014298,安徽省,合肥市,专科,,安徽汽车职业技术学院,117.278813,31.744957,670af5835868649c8e7727f4,包河区,1,117.266814032567,31.7409900763625
758,549,1122,安徽粮食工程职业学院,4134014418,安徽省,合肥市,专科,,安徽粮食工程职业学院,117.402623,31.922984,690bf1c2b7bc6648e812e4f0,瑶海区,1,117.390345641906,31.9189400897748
760,549,1122,安徽粮食工程职业学院,4134014418,安徽省,合肥市,专科,,安徽粮食工程职业学院(西区),117.237656,31.861065,a950766ad3e080149de32129,蜀山区,1,117.225750083576,31.8567538135375
761,551,1124,合肥科技职业学院,4134014420,安徽省教育厅,合肥市,专科,民办,合肥科技职业学院,117.037167,31.752733,a5cc6c4ebb16d1531894c6e0,肥西县,1,117.025223454308,31.7486738823515
762,553,1126,阜阳幼儿师范高等专科学校,4134014536,安徽省,阜阳市,专科,,阜阳幼儿师范高等专科学校,115.786187,32.905117,5e0e546731cd0a575bf6beef,颍州区,1,115.774263146983,32.9008786013278
763,554,1127,黄山健康职业学院,4134014704,安徽省教育厅,黄山市,专科,民办,黄山健康职业学院,118.202665,29.78077,64b6efb1a407f87102294f07,休宁县,1,118.191030940989,29.776863130886
765,555,1128,宿州航空职业学院,4134014747,安徽省教育厅,宿州市,专科,民办,宿州航空职业学院,117.23563,33.678243,0df1e91f3eb46d5f744ff159,埇桥区,1,117.223562982787,33.6733865774665
769,556,1168,福建船政交通职业学院,4135010866,福建省,福州市,专科,,福建船政交通职业学院,119.318408,26.033675,750ec165936def2a4c3a597b,仓山区,1,119.3070977096,26.0307684372882
770,556,1168,福建船政交通职业学院,4135010866,福建省,福州市,专科,,福建船政交通职业学院(长安校区),119.315774,26.037381,2a7a25ece5a91f636c3e1b4f,仓山区,1,119.304475556847,26.0344314226042
775,556,1168,福建船政交通职业学院,4135010866,福建省,福州市,专科,,福建船政交通职业学院(高盖山校区),119.319989,26.024919,51f7b6e0d62deaa4abf0cdcc,仓山区,1,119.30867584647,26.022034310226
777,557,1169,漳州职业技术学院,4135011314,福建省,漳州市,专科,,漳州职业技术学院,117.646759,24.52821,f4ad70b55e2873eec26c14ef,芗城区,1,117.635436454887,24.5253854154351
778,558,1170,闽西职业技术学院,4135011315,福建省,龙岩市,专科,,闽西职业技术学院(南校区),117.037921,25.068978,05dd7d5f13df587fad080fca,新罗区,1,117.026523066882,25.0657402155147
783,560,1172,福建华南女子职业学院,4135011499,福建省教育厅,福州市,专科,民办,福建华南女子职业学院(旗山校区),119.209437,26.030498,d6ee87246da5399da9f0cda8,闽侯县,1,119.198089501311,26.0277882531215
784,560,1172,福建华南女子职业学院,4135011499,福建省教育厅,福州市,专科,民办,福建华南女子职业学院(烟台山校区),119.321122,26.05089,071de35abcad65779a00500e,仓山区,1,119.309777958052,26.0480368288901
785,561,1173,福州职业技术学院,4135011502,福建省,福州市,专科,,福州职业技术学院,119.16418,26.080417,4a6525bb9ed0f29eafee7ac6,闽侯县,1,119.152830581513,26.0770718141278
786,565,1177,福建电力职业技术学院,4135012628,福建省,泉州市,专科,,福建电力职业技术学院,118.593126,24.952475,75036835970637af5e0d0203,丰泽区,1,118.58219652314,24.9494066036595
787,565,1177,福建电力职业技术学院,4135012628,福建省,泉州市,专科,,福建电力职业技术学院(洛江校区),118.642838,25.026529,96a9bcb2cb0572ce336212ee,洛江区,1,118.631813154918,25.023725583474
788,566,1178,厦门海洋职业技术学院,4135012629,福建省,厦门市,专科,,厦门海洋职业技术学院(翔安校区),118.262656,24.59813,968298d8aeb515b9c61e518f,翔安区,1,118.251378286247,24.5953202206188
789,566,1178,厦门海洋职业技术学院,4135012629,福建省,厦门市,专科,,厦门海洋职业技术学院(思明校区),118.112067,24.494228,803708f192db0179008972b6,思明区,1,118.100601425793,24.4907916940581
790,568,1180,福建卫生职业技术学院,4135012633,福建省,福州市,专科,,福建卫生职业技术学院,119.177774,26.14849,39d43f827ce4c186a9059dae,闽侯县,1,119.166468955321,26.1452793860611
792,572,1184,泉州华光职业学院,4135012927,福建省教育厅,泉州市,专科,民办,泉州华光职业学院,118.707302,24.966098,ad482ee0aad39b6f95ec84ca,惠安县,1,118.696242891,24.9627916310087
793,572,1184,泉州华光职业学院,4135012927,福建省教育厅,泉州市,专科,民办,泉州华光职业学院(北区),118.709693,24.971114,e420b3d044aa5784a8f729f9,惠安县,1,118.698615589659,24.9678425975504
796,573,1185,闽北职业技术学院,4135013764,福建省,南平市,专科,,闽北职业技术学院(江南校区),118.258048,26.584793,14b279c95039f064940319ad,延平区,1,118.24661446121,26.5824868263417
798,574,1186,福州黎明职业技术学院,4135013765,福建省教育厅,福州市,专科,民办,福州黎明职业技术学院,119.186194,25.912993,181653345a32c907fb2d61cc,闽侯县,1,119.174895942561,25.9097531945059
799,574,1186,福州黎明职业技术学院,4135013765,福建省教育厅,福州市,专科,民办,福州黎明职业技术学院(福屿校区),119.284842,26.084457,b292b3aa88a0492bbe4842e2,鼓楼区,1,119.273630216505,26.0812312028756
801,575,1187,厦门演艺职业学院,4135013767,福建省教育厅,厦门市,专科,民办,厦门演艺职业学院,118.272552,24.588576,8b960c32f7bead3c40e19231,翔安区,1,118.261286161396,24.585754363075
802,576,1188,厦门华天涉外职业技术学院,4135013768,福建省教育厅,厦门市,专科,民办,厦门华天涉外职业技术学院,118.256782,24.609822,4cf8d24e24a1cbe49cf7795a,翔安区,1,118.245496806304,24.6069721914641
803,577,1189,福州科技职业技术学院,4135013769,福建省教育厅,福州市,专科,民办,福州科技职业技术学院,119.253429,26.085497,5211d219a286215a7dc87604,仓山区,1,119.242134781452,26.0826956128088
807,580,1192,湄洲湾职业技术学院,4135013772,福建省,莆田市,专科,,湄洲湾职业技术学院,118.861672,25.270463,881a28e7249a0d47f942b27a,仙游县,1,118.850573471927,25.267726930644
808,580,1192,湄洲湾职业技术学院,4135013772,福建省,莆田市,专科,,湄洲湾职业技术学院(梧塘校区),119.096454,25.503662,7ef85129f87436d716c9056a,涵江区,1,119.084966613837,25.500606287408
809,581,1193,福建生物工程职业技术学院,4135013969,福建省,福州市,专科,,福建生物工程职业技术学院,119.25334,26.086639,15e1e85e216c77a25810935a,仓山区,1,119.242045888163,26.08384011862
810,581,1193,福建生物工程职业技术学院,4135013969,福建省,福州市,专科,,福建生物工程职业技术学院(铜盘校区),119.259763,26.110519,1dff81b60f0473e13f9a5e68,闽侯县,1,119.248516195063,26.1076217194881
811,583,1195,福建幼儿师范高等专科学校,4135013972,福建省,福州市,专科,,福建幼儿师范高等专科学校,119.312999,26.036059,cf8463352747e37feddfca87,仓山区,1,119.301717821685,26.0330617261758
812,583,1195,福建幼儿师范高等专科学校,4135013972,福建省,福州市,专科,,福建幼儿师范高等专科学校(白马校区),119.294011,26.087112,69fcd6df46ec432ecb2915b6,鼓楼区,1,119.282785349694,26.0839048193395
813,583,1195,福建幼儿师范高等专科学校,4135013972,福建省,福州市,专科,,福建幼儿师范高等专科学校(金山校区),119.271086,26.033532,2b9810cd7a1f1832f33cbac4,仓山区,1,119.259891815642,26.0303962551634
814,584,1196,厦门城市职业学院,4135013973,福建省,厦门市,专科,,厦门城市职业学院,118.172844,24.468855,691305231574820a735e80ae,思明区,1,118.161478377191,24.4656391153298
815,584,1196,厦门城市职业学院,4135013973,福建省,厦门市,专科,,厦门城市职业学院(斗西校区),118.092488,24.471295,d6c5d991477891e930169b76,思明区,1,118.081096550144,24.4676103796548
816,587,1199,宁德职业技术学院,4135013977,福建省,宁德市,专科,,宁德职业技术学院,119.662702,27.100689,a3f21eeea57a86442eb17ea4,福安市,1,119.651718999108,27.0978707336667
819,588,1200,福州软件职业技术学院,4135013978,福建省教育厅,福州市,专科,民办,福州软件职业技术学院(长乐校区),119.709605,25.974794,102eecc1f6956e7135b06c45,长乐区,1,119.698480423667,25.9722591158184
820,590,1202,厦门软件职业技术学院,4135014059,福建省教育厅,厦门市,专科,民办,厦门软件职业技术学院,118.081478,24.622274,783a63f07e5f1c8a9ef7795a,集美区,1,118.070055761904,24.6186044963301
821,591,1203,福建体育职业技术学院,4135014060,福建省,福州市,专科,,福建体育职业技术学院,119.306166,26.118805,f99854c4c3a4cd04fd0eb098,鼓楼区,1,119.29491804924,26.1157548428126
822,593,1205,厦门南洋职业学院,4135014111,福建省教育厅,厦门市,专科,民办,厦门南洋职业学院,118.2595,24.606617,3ccd35af7705910d13293516,翔安区,1,118.248215304178,24.6037894315255
823,594,1206,厦门东海职业技术学院,4135014112,福建省教育厅,厦门市,专科,民办,厦门东海职业技术学院,118.179015,24.751717,5e5d952775e77d255f0d02b5,同安区,1,118.167633881328,24.7484033636282
824,595,1207,漳州科技职业学院,4135014113,福建省教育厅,漳州市,专科,民办,漳州科技职业学院,117.543091,24.082247,9ee5a929741be0e5c72ba114,漳浦县,1,117.531718493628,24.07939622798
825,598,1210,漳州卫生职业学院,4135014117,福建省,漳州市,专科,,漳州卫生职业学院,117.640172,24.533657,50fb64ff7962e95de9f8531d,芗城区,1,117.628885009128,24.5307292197539
826,600,1212,泉州轻工职业学院,4135014232,福建省教育厅,泉州市,专科,民办,泉州轻工职业学院,118.554034,24.81646,5c56edd65f235159a1d230dc,晋江市,1,118.543096216462,24.8131310491746
827,606,1263,上饶幼儿师范高等专科学校,3636000312,江西省,上饶市,专科,,上饶幼儿师范高等专科学校,117.988372,28.423997,7e363692b8b0f6598733046b,信州区,1,117.976873995562,28.4211908157192
829,607,1264,抚州幼儿师范高等专科学校,3636000519,江西省,抚州市,专科,,抚州幼儿师范高等专科学校,116.418811,27.954949,4f57559939943d0d95ec84b1,临川区,1,116.407345683074,27.9517697172205
830,609,1266,江西医学高等专科学校,4136010888,江西省,上饶市,专科,,江西医学高等专科学校,117.983285,28.424548,7bfd452371de1a9e4bcc4aeb,信州区,1,117.971819332281,28.421675925683
831,610,1267,九江职业大学,4136011505,江西省,九江市,专科,,九江职业大学(濂溪校区),116.008904,29.658458,588f6e173fac38641e580038,濂溪区,1,115.997280688254,29.6551531680753
832,610,1267,九江职业大学,4136011505,江西省,九江市,专科,,九江职业大学(鹤问湖校区),115.968728,29.707419,17dbfe64cc6d36192fb908ef,浔阳区,1,115.957204187652,29.7042907664825
835,611,1268,九江职业技术学院,4136011785,江西省,九江市,专科,,九江职业技术学院,115.999008,29.686579,4fa7c073a62b6f0ef82d6125,濂溪区,1,115.987371155089,29.6834373439571
836,611,1268,九江职业技术学院,4136011785,江西省,九江市,专科,,九江职业技术学院(濂溪校区),116.021312,29.676474,fc4a3a3eea951249bb17e7d5,濂溪区,1,116.009698805346,29.6729038269725
837,615,1272,江西电力职业技术学院,4136012933,江西省,南昌市,专科,,江西电力职业技术学院,115.815475,28.723998,bd5046e8c54a2341d72ce209,新建区,1,115.803997596912,28.72089352459
838,616,1273,江西环境工程职业学院,4136012934,江西省,赣州市,专科,,江西环境工程职业学院(东江源校区),114.921123,25.889649,ada07f48ac1607b2c51b759c,章贡区,1,114.909883216341,25.8871433562534
840,616,1273,江西环境工程职业学院,4136012934,江西省,赣州市,专科,,江西环境工程职业学院九龙驾校,114.920411,25.88599,2c0c49503bcdd27716a19081,章贡区,1,114.909168326802,25.8834905441495
841,618,1275,鹰潭职业技术学院,4136012937,江西省,鹰潭市,专科,,鹰潭职业技术学院,117.063484,28.301142,558eb93b68f29d6081288a66,贵溪市,1,117.051683806581,28.2986544608674
845,619,1276,江西信息应用职业技术学院,4136012939,江西省,南昌市,专科,,江西信息应用职业技术学院,115.91224,28.593585,cac5fc7642ad3ff32cb96d1b,青云谱区,1,115.900950932158,28.5907416554137
846,621,1278,江西财经职业学院,4136012941,江西省,九江市,专科,,江西财经职业学院,116.001418,29.710789,c04f0ed001fa8093f13cba9f,浔阳区,1,115.989800592257,29.7076117187823
847,621,1278,江西财经职业学院,4136012941,江西省,九江市,专科,,江西财经职业学院(八里湖校区),115.92126,29.641359,ea5fcd0c67c8781a636858b8,柴桑区,1,115.909937271061,29.6377701191117
848,622,1279,江西应用技术职业学院,4136012942,江西省,赣州市,专科,,江西应用技术职业学院(黄金校区),114.900057,25.808199,17009d98c353ecee1894c6f1,章贡区,1,114.888785365666,25.805710404376
849,622,1279,江西应用技术职业学院,4136012942,江西省,赣州市,专科,,江西应用技术职业学院(章贡校区),114.950922,25.853707,2e00c5ddabafbb1cd7851f39,章贡区,1,114.939725747609,25.8506550145647
850,628,1285,江西工业贸易职业技术学院,4136013423,江西省,南昌市,专科,,江西工业贸易职业技术学院,115.793989,28.660004,844a750ea8dd9bc462685827,红谷滩区,1,115.782501310591,28.6569508663611
853,631,1288,江西生物科技职业学院,4136013426,江西省,南昌市,专科,,江西生物科技职业学院,115.944008,28.568898,87248d9604dea1b32806ce62,南昌县,1,115.932716386493,28.5660923269878
854,633,1290,抚州职业技术学院,4136013428,江西省,抚州市,专科,,抚州职业技术学院,116.401229,27.961227,bbeac9361128d6ab33169b49,临川区,1,116.389772885985,27.9579933536147
857,634,1291,江西中医药高等专科学校,4136013775,江西省,抚州市,专科,,江西中医药高等专科学校(新校区),116.403721,27.952499,da17f4febdf768555e0d022a,临川区,1,116.392274515476,27.9492550527685
858,634,1291,江西中医药高等专科学校,4136013775,江西省,抚州市,专科,,江西中医药高等专科学校(老校区),116.364405,27.974593,c6453f641b030b092ad7ab40,临川区,1,116.352848558599,27.9719441247568
859,635,1292,江西经济管理职业学院,4136013866,江西省,南昌市,专科,,江西经济管理职业学院,115.807543,28.645634,60d7bcfc13d3603e43e192f9,红谷滩区,1,115.796097690641,28.6425349408825
860,637,1294,江西工程职业学院,4136013868,江西省,南昌市,专科,,江西工程职业学院,115.904222,28.655707,c7eca12b69d5e437e115f90f,西湖区,1,115.892932192691,28.6529575499143
861,640,1297,江西航空职业技术学院,4136013871,江西省教育厅,南昌市,专科,民办,江西航空职业技术学院(新溪桥东一路),115.930386,28.646036,4fc3161ac947fea93a13fd0f,青云谱区,1,115.919150709108,28.6430825042633
862,640,1297,江西航空职业技术学院,4136013871,江西省教育厅,南昌市,专科,民办,江西航空职业技术学院(昌南校区),115.939569,28.499855,ab0334a811a4ba7d4e5547ae,南昌县,1,115.928298040853,28.4970239447649
864,640,1297,江西航空职业技术学院,4136013871,江西省教育厅,南昌市,专科,民办,江西航空职业技术学院(经开校区),115.905588,28.795449,bd905ac377756455bda240dd,新建区,1,115.894285000227,28.7925860744642
866,651,1308,景德镇陶瓷职业技术学院,4136014402,江西省教育厅,景德镇市,专科,民办,景德镇陶瓷职业技术学院,117.240006,29.366198,8bc85716b08db18c2cb96d86,浮梁县,1,117.228342460362,29.3625254846411
867,659,1316,南昌影视传播职业学院,4136014544,江西省教育厅,南昌市,专科,民办,南昌影视传播职业学院,115.960139,28.749812,f9aeac1598f6eb56cd04ef00,南昌县,1,115.94874783611,28.7471563442272
870,676,1403,山东劳动职业技术学院,4137012329,山东省,济南市,专科,,山东劳动职业技术学院(长清校区),116.824472,36.578294,49a02a7a76bc6a412b201a50,长清区,1,116.812237785366,36.572508972222
871,676,1403,山东劳动职业技术学院,4137012329,山东省,济南市,专科,,山东劳动职业技术学院(槐荫校区),116.979222,36.652209,7d855d544e7a5aebae0457c7,槐荫区,1,116.967022416593,36.6460009933443
872,679,1406,潍坊职业学院,4137012391,山东省,潍坊市,专科,,潍坊职业学院,119.148671,36.722492,2ad32cc35d47f38e9d95de31,奎文区,1,119.136304827874,36.7157890404369
873,679,1406,潍坊职业学院,4137012391,山东省,潍坊市,专科,,潍坊职业学院(滨海校区),119.212474,37.092191,fa88646564d7a0dedeee8b5a,寒亭区,1,119.200045937388,37.0858142758547
875,684,1411,山东科技职业学院,4137012819,山东省,潍坊市,专科,,山东科技职业学院,119.030401,36.669209,f3c2373c7afbe353d22dd634,潍城区,1,119.018185398261,36.6626188273325
876,684,1411,山东科技职业学院,4137012819,山东省,潍坊市,专科,,山东科技职业学院(滨海校区),119.218922,37.100762,58021c71592850ae018972a2,寒亭区,1,119.206477986273,37.0944512978079
879,690,1417,山东畜牧兽医职业学院,4137012947,山东省,潍坊市,专科,,山东畜牧兽医职业学院(北校区),119.177082,36.714921,f696f3c2b993f2ea1b11d531,奎文区,1,119.164810689273,36.7081815015681
880,690,1417,山东畜牧兽医职业学院,4137012947,山东省,潍坊市,专科,,山东畜牧兽医职业学院(南校区),119.174409,36.709816,1eeed546e2b9598fb5147f5e,奎文区,1,119.162143155628,36.7030527958535
881,696,1423,青岛酒店管理职业技术学院,4137013011,山东省,青岛市,专科,,青岛酒店管理职业技术学院,120.496077,36.175255,687cc92a711082031811d50e,李沧区,1,120.484733380634,36.1687644633592
882,697,1424,山东信息职业技术学院,4137013012,山东省,潍坊市,专科,,山东信息职业技术学院,119.160842,36.71709,41c8c7761519490e1e1d1165,奎文区,1,119.148544453993,36.7102817661709
883,697,1424,山东信息职业技术学院,4137013012,山东省,潍坊市,专科,,山东信息职业技术学院(滨海校区),119.206584,37.088106,a5c7d23c37e90625dc1e52ff,寒亭区,1,119.194174764298,37.081638477121
885,704,1431,济南职业学院,4137013323,山东省,济南市,专科,,济南职业学院(彩石校区),117.267088,36.639758,341c35deca5ab4bfe607386d,历城区,1,117.254643357679,36.6333382555988
886,704,1431,济南职业学院,4137013323,山东省,济南市,专科,,济南职业学院(南校区),117.031501,36.645702,680fb7032c74479d8ab98881,历下区,1,117.019091850227,36.6393033055681
888,706,1433,潍坊工商职业学院,4137013388,山东省教育厅,潍坊市,专科,民办,潍坊工商职业学院,119.502634,35.963892,4ab687da5d5d35b27069d3cb,诸城市,1,119.490549612953,35.9576986454954
891,723,1450,菏泽家政职业学院,4137014118,山东省,菏泽市,专科,,菏泽家政职业学院,116.105329,34.766419,3083924ecb736da296f08c5f,单县,1,116.093007980649,34.7615405675574
892,724,1451,山东传媒职业学院,4137014193,山东省,济南市,专科,,山东传媒职业学院(章丘校区),117.487517,36.669845,447c70cb40f7107a130daa86,章丘区,1,117.474994543383,36.6631515445157
893,724,1451,山东传媒职业学院,4137014193,山东省,济南市,专科,,山东传媒职业学院(文东校区),117.073695,36.659366,b66eb17426d4d66a4e2fdf6f,历下区,1,117.061017272222,36.6532807777356
894,725,1452,临沂职业学院,4137014195,山东省,临沂市,专科,,临沂职业学院,118.292118,35.016577,b703e96bf43e61f98e1a8980,罗庄区,1,118.279996071349,35.0112895454384
895,725,1452,临沂职业学院,4137014195,山东省,临沂市,专科,,临沂职业学院(经济开发区校区),118.430615,34.99478,96dc37d85e87553743ab9a70,河东区,1,118.418430205911,34.9890293175456
899,736,1463,菏泽职业学院,4137014477,山东省,菏泽市,专科,,菏泽职业学院,115.483858,35.285667,1b72c761216758e0c5f50d5b,牡丹区,1,115.471434208861,35.2801216143005
901,738,1465,威海海洋职业学院,4137014507,山东省,威海市,专科,,威海海洋职业学院,122.445818,37.069794,3df537c8af62aa420c0e6b69,荣成市,1,122.434326185703,37.0631625685535
902,741,1468,日照航海工程职业学院,4137014605,山东省教育厅,日照市,专科,民办,日照航海工程职业学院,119.530913,35.476258,c7ccf8922574cdf39322e0e3,东港区,1,119.519061964094,35.470136024233
903,743,1470,青岛幼儿师范高等专科学校,4137014688,山东省,青岛市,专科,,青岛幼儿师范高等专科学校,120.120347,36.179864,1cdd79165a785eafd42ce2de,胶州市,1,120.108580726617,36.1732190875801
906,746,1473,临沂科技职业学院,4137014708,山东省,临沂市,专科,,临沂科技职业学院,118.510133,35.115579,746e74098779923dadcb6629,河东区,1,118.497991018906,35.1104531611723
907,751,1535,漯河职业技术学院,4141010835,河南省,漯河市,专科,,漯河职业技术学院,114.015637,33.575362,f6ea5ec773e433ddf7e73bd9,源汇区,1,114.003358064488,33.5705951537916
911,751,1535,漯河职业技术学院,4141010835,河南省,漯河市,专科,,漯河职业技术学院(临颍分院),113.96208,33.836418,5ce7cd0dd22bb517b3077d56,临颍县,1,113.949737636323,33.8322528625667
912,752,1536,三门峡职业技术学院,4141010842,河南省,三门峡市,专科,,三门峡职业技术学院,111.168355,34.794162,5215e225c25442d5d2f49e76,湖滨区,1,111.155750926356,34.7892498617855
913,754,1538,开封大学,4141011069,河南省,开封市,专科,,开封大学(北校区),114.340939,34.832959,f7cb723c7336d67b7702697a,龙亭区,1,114.328562494488,34.8276960782087
917,754,1538,开封大学,4141011069,河南省,开封市,专科,,开封大学新校区/开封大学,114.340525,34.83034,db6d8d5886c528055b3ac88d,龙亭区,1,114.328147857646,34.8250880668312
919,757,1541,郑州电力高等专科学校,4141011828,河南省,郑州市,专科,,郑州电力高等专科学校,113.904446,34.804218,49a02a7a5c0ab4402b201afe,中牟县,1,113.892143453153,34.7991545907832
920,758,1542,黄河水利职业技术学院,4141012058,河南省,开封市,专科,,黄河水利职业技术学院,114.326923,34.833466,764672e59535f9ad94ec84c2,龙亭区,1,114.314495729653,34.8284727329562
923,760,1544,河南工业和信息化职业学院,4141012581,河南省,焦作市,专科,,河南工业和信息化职业学院,113.296598,35.203232,fb6e0ad2af250ad93f9a5e37,山阳区,1,113.283780189642,35.1974434886186
926,768,1552,河南工业职业技术学院,4141012794,河南省,南阳市,专科,,河南工业职业技术学院(新校区),112.603574,33.043616,2d26cb915e25094c3310afd3,宛城区,1,112.591284904174,33.0397988174831
927,768,1552,河南工业职业技术学院,4141012794,河南省,南阳市,专科,,河南工业职业技术学院(老校区),112.551321,33.01316,c9e43972289e5a769d9d68df,宛城区,1,112.539070093917,33.0089354797144
928,768,1552,河南工业职业技术学院,4141012794,河南省,南阳市,专科,,河南工业职业技术学院文化路生活区,112.53454,33.008752,fa7da3e878f11b6142d63ef1,卧龙区,1,112.522163255425,33.0047584958646
929,772,1556,河南质量工程职业学院,4141013564,河南省,平顶山市,专科,,河南质量工程职业学院,113.297889,33.71859,764672e597ffffad95ec84b8,湛河区,1,113.285243788889,33.7137930278267
930,776,1560,商丘医学高等专科学校,4141013782,河南省,商丘市,专科,,商丘医学高等专科学校(新校区),115.714852,34.36339,7d6e6e90cf2ca5f193114c9a,梁园区,1,115.702753722383,34.3586674170159
931,795,1579,新乡职业技术学院,4141014245,河南省,新乡市,专科,,新乡职业技术学院,114.048985,35.284734,5e53af1a376f5b224051c09b,红旗区,1,114.036272049314,35.2792742611134
932,795,1579,新乡职业技术学院,4141014245,河南省,新乡市,专科,,新乡职业技术学院(北校区),114.046723,35.397116,4f64412b1abc50b9ab0dd8b8,卫辉市,1,114.034020585091,35.3915285173878
934,803,1587,河南应用技术职业学院,4141014307,河南省,郑州市,专科,,河南应用技术职业学院,113.545708,34.778737,79fd6ea21a99ea35d42ce259,中原区,1,113.533106587426,34.7736429371748
935,817,1601,河南医学高等专科学校,4141014466,河南省,郑州市,专科,,河南医学高等专科学校,113.713892,34.620649,c7fb04bdf9d2e315fa0cad70,新郑市,1,113.70114253404,34.6161375688114
937,823,1607,濮阳医学高等专科学校,4141014597,河南省,濮阳市,专科,,濮阳医学高等专科学校,114.998545,35.817475,961df256ff9c330a8e77273b,华龙区,1,114.986293280921,35.8116219281866
939,834,1618,河南对外经济贸易职业学院,4141014712,河南省,开封市,专科,,河南对外经济贸易职业学院,114.239919,34.835146,39c5d4b8d9126940e812e406,龙亭区,1,114.227655599379,34.8297248587065
942,835,1619,濮阳石油化工职业技术学院,4141014713,河南省,濮阳市,专科,,濮阳石油化工职业技术学院,115.110728,35.778358,0a46dc0f788c3f5e30621250,华龙区,1,115.098219544961,35.7721501556992
947,837,1621,兰考三农职业学院,4141014715,河南省,开封市,专科,,兰考三农职业学院,114.804325,34.804693,85f3bf53109b5962a1046451,兰考县,1,114.792153689912,34.799867830549
948,849,1701,武汉职业技术学院,4142010834,湖北省,武汉市,专科,,武汉职业技术学院,114.422856,30.490329,696ec5b04dc2a578100daa43,洪山区,1,114.410729997149,30.4869775370232
949,849,1701,武汉职业技术学院,4142010834,湖北省,武汉市,专科,,武汉职业技术学院(东区),114.422827,30.490246,ae6053fc13ed3b15f03cba17,洪山区,1,114.410701086997,30.4868944722512
950,852,1704,荆州理工职业学院,4142011074,湖北省,荆州市,专科,,荆州理工职业学院(中校区),112.259248,30.334966,d627de791437139f5e0d02d2,沙市区,1,112.246975834136,30.3318427962478
951,852,1704,荆州理工职业学院,4142011074,湖北省,荆州市,专科,,荆州理工职业学院(东校区),112.300071,30.301515,d5ff0d3541fe18705bf6be3b,沙市区,1,112.287855010642,30.2979877168011
954,855,1707,武汉城市职业学院,4142011796,湖北省,武汉市,专科,,武汉城市职业学院,114.328791,30.482329,bf29b702f57bd3e409b93a18,洪山区,1,114.316806974588,30.4788914893055
955,855,1707,武汉城市职业学院,4142011796,湖北省,武汉市,专科,,武汉城市职业学院(南校区),114.320914,30.445304,32e733522d974ad5250bd06c,洪山区,1,114.308927114501,30.4420087875785
956,862,1714,武汉工程职业技术学院,4142012738,湖北省,武汉市,专科,,武汉工程职业技术学院(校本部),114.553483,30.718569,341c35defd9381bde6073824,新洲区,1,114.541746411755,30.7154129475727
957,862,1714,武汉工程职业技术学院,4142012738,湖北省,武汉市,专科,,武汉工程职业技术学院(凤凰山校区),114.428302,30.655896,ee7986a1e0ff3b11e6073892,青山区,1,114.416159998799,30.6524903089818
959,869,1721,武汉软件工程职业学院,4142012978,湖北省,武汉市,专科,,武汉软件工程职业学院,114.433626,30.450796,d52831f99a3b91a62ffaa780,江夏区,1,114.421543804923,30.4474503478262
960,869,1721,武汉软件工程职业学院,4142012978,湖北省,武汉市,专科,,武汉软件工程职业学院(武昌校区),114.359666,30.608892,1393a52212dca57e96ca07f8,武昌区,1,114.347736966265,30.6048962170239
962,874,1726,湖北城市建设职业技术学院,4142012983,湖北省,武汉市,专科,,湖北城市建设职业技术学院,114.443373,30.407743,ac8555710625c676a10464df,江夏区,1,114.431303798389,30.404306462624
963,882,1734,武汉商贸职业学院,4142012991,湖北省教育厅,武汉市,专科,民办,武汉商贸职业学院,114.467834,30.442733,550fd5f999cb4579931fc9df,江夏区,1,114.455962623804,30.4389312659139
964,883,1735,湖北艺术职业学院,4142013263,湖北省,武汉市,专科,,湖北艺术职业学院,114.378261,30.516706,beabdbf47cec64987169d3e2,洪山区,1,114.366288518413,30.5127503854557
965,883,1735,湖北艺术职业学院,4142013263,湖北省,武汉市,专科,,湖北艺术职业学院(石牌岭路校区),114.349857,30.531756,7e685ff42ee50f1b465726ee,武昌区,1,114.337912671471,30.527903738267
966,883,1735,湖北艺术职业学院,4142013263,湖北省,武汉市,专科,,湖北艺术职业学院(武珞路),114.353553,30.533978,15e1e85e023018a359109389,洪山区,1,114.341616722717,30.530072237445
967,885,1737,咸宁职业技术学院,4142013265,湖北省,咸宁市,专科,,咸宁职业技术学院,114.321259,29.832714,7ae24097afc4fc2230169b2b,咸安区,1,114.309316345396,29.8294520798552
968,887,1739,江汉艺术职业学院,4142013793,湖北省,潜江市,专科,,江汉艺术职业学院,112.91504,30.428779,435d7aea5f1708355abbbc01,,1,112.903033123304,30.4252185250991
970,895,1747,湖北科技职业学院,4142014119,湖北省,武汉市,专科,,湖北科技职业学院(关山校区),114.410792,30.477711,d146b388bdfc83de750269e3,洪山区,1,114.398699984531,30.4742616225532
971,897,1749,湖北工程职业学院,4142014197,湖北省,黄石市,专科,,湖北工程职业学院(广州路校区),115.030907,30.191113,41572e0017ae44c9b45f1e68,下陆区,1,115.019001285986,30.1879257017565
972,897,1749,湖北工程职业学院,4142014197,湖北省,黄石市,专科,,湖北工程职业学院(新校区),115.125244,30.149288,0e11dfe13730b95a43afe694,大冶市,1,115.113206228723,30.1457875517881
974,900,1752,湖北体育职业学院,4142014356,湖北省,武汉市,专科,,湖北体育职业学院,114.457058,30.495571,11f6c0a9ecd9d74cb64f54ab,江夏区,1,114.445079244986,30.491908653669
976,901,1753,襄阳汽车职业技术学院,4142014357,湖北省,襄阳市,专科,,襄阳汽车职业技术学院,112.096686,31.958622,784931bc8066f4c6fca778f7,襄城区,1,112.084156924402,31.954263296861
981,935,1839,湖南邮电职业技术学院,4143012845,湖南省,长沙市,专科,,湖南邮电职业技术学院,112.982471,28.16644,9ee392b83ea53a41bbbd6369,天心区,1,112.970372492691,28.1642118329086
982,941,1845,湖南艺术职业学院,4143013032,湖南省,长沙市,专科,,湖南艺术职业学院(新校区),113.133669,28.262241,261308196d2ade9d5c17c306,长沙县,1,113.121274760851,28.2594659222171
983,941,1845,湖南艺术职业学院,4143013032,湖南省,长沙市,专科,,湖南艺术职业学院(北院),112.92754,28.217667,a5ef680f53790cd7b9df8f6a,岳麓区,1,112.91570152278,28.2148597100353
985,957,1861,湖南工艺美术职业学院,4143013921,湖南省,益阳市,专科,,湖南工艺美术职业学院,112.341059,28.580762,8ce08904cc2a6c8b725e809b,赫山区,1,112.328947826095,28.5777013692477
987,958,1862,湖南九嶷职业技术学院,4143013922,湖南省,永州市,专科,,湖南九嶷职业技术学院,111.639008,26.392629,9bec9dd18b015c0cb4265587,冷水滩区,1,111.627249781665,26.390238332874
989,966,1870,湖南安全技术职业学院,4143014025,湖南省,长沙市,专科,,湖南安全技术职业学院,113.0644,28.276451,9ef7b704941dd4fd16c905dc,长沙县,1,113.052139425103,28.2734637805015
990,987,1958,顺德职业技术学院,4144010831,广东省,佛山市,专科,,顺德职业技术学院,113.330979,22.815475,0a15c7ecf464c9ffed74f853,顺德区,1,113.319032403321,22.8124407401423
992,1009,1980,广东女子职业技术学院,4144012742,广东省,广州市,专科,,广东女子职业技术学院,113.473458,22.963387,f3ca69dcf1fcf898c61b75a7,番禺区,1,113.461453419665,22.9603432598443
993,1009,1980,广东女子职业技术学院,4144012742,广东省,广州市,专科,,广东女子职业技术学院(海珠校区),113.318049,23.105485,48b809749c99584d9a005050,海珠区,1,113.30615853287,23.1021497290252
994,1014,1985,阳江职业技术学院,4144012771,广东省,阳江市,专科,,阳江职业技术学院,111.993557,21.848992,bb1d38e4dc23dc4d0d0a708c,江城区,1,111.981989917663,21.845665661269
995,1030,2001,茂名职业技术学院,4144013712,广东省,茂名市,专科,,茂名职业技术学院(北校区),110.9399,21.680405,5ce2637d2704c751af31e596,茂南区,1,110.928832434579,21.6774980037526
996,1030,2001,茂名职业技术学院,4144013712,广东省,茂名市,专科,,茂名职业技术学院(南校区),110.984514,21.472931,a7ac2dcc8a28331aa9175a6c,电白区,1,110.973409168278,21.4694243875679
997,1030,2001,茂名职业技术学院,4144013712,广东省,茂名市,专科,,茂名职业技术学院三二分段校区,110.91569,21.659935,1facc358f214a9a8af31e58a,茂南区,1,110.904705208329,21.6567054609487
998,1044,2015,广州科技贸易职业学院,4144014065,广东省,广州市,专科,,广州科技贸易职业学院(番禺校区),113.399145,23.006543,c4767c9c1e7aafe87f29bd3a,番禺区,1,113.387213635987,23.0027835776713
999,1051,2022,广东南方职业学院,4144014265,广东省教育厅,江门市,专科,民办,广东南方职业学院,113.146046,22.590417,8f68e7ce8e4b8e5d0e3ddafb,江海区,1,113.13411903611,22.5869606064835
1002,1054,2025,广东环境保护工程职业学院,4144014311,广东省,佛山市,专科,,广东环境保护工程职业学院,112.916466,23.054338,bba87388e74c45debca8222e,南海区,1,112.904981939572,23.0509443401644
1003,1066,2037,广东茂名幼儿师范专科学校,4144014587,广东省,茂名市,专科,,广东茂名幼儿师范专科学校(茂名校区),110.843902,21.655698,8ae97f81a11a994194ca07ae,茂南区,1,110.832842228891,21.6526026969388
1004,1066,2037,广东茂名幼儿师范专科学校,4144014587,广东省,茂名市,专科,,广东茂名幼儿师范专科学校(高州校区),110.854197,21.933746,32c7f8ab147734fa61685818,高州市,1,110.843195319975,21.9306320739792
1005,1092,2101,柳州铁道职业技术学院,4145012392,广西壮族自治区,柳州市,专科,,柳州铁道职业技术学院,109.540008,24.401964,e81dbc05bbf97d7b901fc998,鱼峰区,1,109.529145012722,24.3988743692596
1007,1104,2113,广西工程职业学院,4145014127,广西壮族自治区教育厅,百色市,专科,民办,广西工程职业学院,107.611647,23.32066,f1ecf09129e91e1de01103a7,平果市,1,107.601231218313,23.3175840202449
1008,1121,2130,广西物流职业技术学院,4145014723,广西壮族自治区,贵港市,专科,,广西物流职业技术学院,109.556144,23.051623,27cce4e361839e3e5cbe86e6,港北区,1,109.545456076069,23.0482079274717
1010,1126,2135,崇左幼儿师范高等专科学校,4245051675,广西壮族自治区,崇左市,专科,,崇左幼儿师范高等专科学校,107.408529,22.390966,fb848efa00490aab9403193c,江州区,1,107.397904221975,22.3873700953284
1011,1139,2156,海南卫生健康职业学院,4146014724,海南省,海口市,专科,,海南卫生健康职业学院(秀华校区),110.296149,20.014587,7699f7d15a7c3a21715e800d,秀英区,1,110.285442087702,20.0104077365038
1012,1139,2156,海南卫生健康职业学院,4146014724,海南省,海口市,专科,,海南卫生健康职业学院(椰海校区),110.308792,19.983064,3f4e7ced7f0884199b68b4b9,龙华区,1,110.298014143058,19.9789963590735
1013,1148,2191,重庆传媒职业学院,4150012756,重庆市教委,重庆市,专科,民办,重庆传媒职业学院,106.079201,29.860057,90deb8c9a8106b7e94ca07f4,铜梁区,1,106.068870539871,29.8562631039305
1014,1157,2200,重庆医药高等专科学校,4150014009,重庆市,重庆市,专科,,重庆医药高等专科学校,106.319512,29.632984,cde9e2c79ea5a2cae81e975e,沙坪坝区,1,106.309257708758,29.629324021525
1015,1175,2218,重庆文化艺术职业学院,4150014482,重庆市,重庆市,专科,,重庆文化艺术职业学院,106.539468,29.353186,4a73726ab121e74b6268586c,巴南区,1,106.529234749063,29.3500372139107
1016,1201,2297,四川托普信息技术职业学院,4151012963,四川省教育厅,成都市,专科,民办,四川托普信息技术职业学院,103.930511,30.788082,4edf9fbf34b2df95cd06a4a0,郫都区,1,103.92201005223,30.7844779613897
1019,1247,2343,天府新区通用航空职业学院,4151014646,四川省教育厅,眉山市,专科,民办,天府新区通用航空职业学院,104.086243,30.203592,5bbb75fa01f1c4a714b54b63,仁寿县,1,104.077209236119,30.2002587435589
1021,1298,2423,贵州装备制造职业学院,4152014613,贵州省,贵阳市,专科,,贵州装备制造职业学院,106.473498,26.593218,1802bc84e5744cb4d92f28f6,清镇市,1,106.463236781558,26.5905676949044
1022,1310,2467,昆明冶金高等专科学校,4153011557,云南省,昆明市,专科,,昆明冶金高等专科学校,102.695529,25.07139,14076dee159d3bf502294f0e,五华区,1,102.687650192001,25.0684178603872
1023,1310,2467,昆明冶金高等专科学校,4153011557,云南省,昆明市,专科,,昆明冶金高等专科学校,102.447974,24.888503,bebc08b4ab0c84b2e115f928,安宁市,1,102.43986699434,24.8854469349426
1025,1326,2483,云南城市建设职业学院,4153013759,云南省教育厅,昆明市,专科,民办,云南城市建设职业学院,103.010667,25.240163,e83cf33145fb043a63180911,嵩明县,1,103.002436649671,25.2372921748024
1026,1330,2487,保山中医药高等专科学校,4153014014,云南省,保山市,专科,,保山中医药高等专科学校,99.230604,25.090268,f526e530f40b6c295a3ac88e,隆阳区,1,99.2232940937386,25.0870254392701
1027,1339,2496,昆明卫生职业学院,4153014372,云南省教育厅,昆明市,专科,民办,昆明卫生职业学院,102.631699,24.654939,d1384ef093c5cc759cec2b07,晋宁区,1,102.623971375572,24.6520134751125
1028,1339,2496,昆明卫生职业学院,4153014372,云南省教育厅,昆明市,专科,民办,昆明卫生职业学院(昆明校区),102.641494,25.083034,291e69fc73e56bf8fadc8558,五华区,1,102.633714257952,25.0802173355639
1034,1384,2602,咸阳职业技术学院,4161013946,陕西省,咸阳市,专科,,咸阳职业技术学院,108.74309,34.304881,3e4acec2f72791a9fbf0cbc1,,1,108.731963473682,34.3001070347533
1035,1403,2643,陇南师范高等专科学校,4162011806,甘肃省,陇南市,专科,,陇南师范高等专科学校,105.748001,33.760996,680fb70315a4889c8bb988d1,成县,1,105.737629757685,33.7564806951566
1038,1421,2661,兰州科技职业学院,4162014518,甘肃省教育厅,兰州市,专科,民办,兰州科技职业学院,104.014802,35.958759,96df4d9b0fd7b535f22d83b4,榆中县,1,104.005719829703,35.9530157440406
1039,1434,2678,青海建筑职业技术学院,4163012974,青海省,西宁市,专科,,青海建筑职业技术学院,101.765774,36.606991,96b672aa89138975cf04efe0,城中区,1,101.757429250646,36.6007630783763
1040,1438,2690,宁夏民族职业技术学院,4164012716,宁夏回族自治区,吴忠市,专科,,宁夏民族职业技术学院,106.161164,37.975591,5ce2637d8889302fae31e518,利通区,1,106.150076050783,37.9691801147876
1042,1441,2693,宁夏工商职业技术学院,4164013087,宁夏回族自治区,银川市,专科,,宁夏工商职业技术学院,106.137201,38.53203,00f1c7fbf41a081fc056ac39,西夏区,1,106.126010277422,38.52568350138
1043,1456,2727,新疆轻工职业技术学院,4165012514,新疆维吾尔自治区,乌鲁木齐市,专科,,新疆轻工职业技术学院(北校区),87.631767,43.934329,d8e617cfa16992d5130daac9,米东区,1,87.6224301077782,43.9271116682793
