num,uni_num,序号,学校名称,学校标识码,主管部门,所在地,办学层次,备注,campusName,lng,lat,uid,area
0,0,68,北京工业职业技术学院,4111010853,北京市,北京市,专科,nan,北京工业职业技术学院,116.127485,39.96617,ccc8aa4ff57aef925cbe86c4,石景山区
1,1,69,北京信息职业技术学院,4111010857,北京市,北京市,专科,nan,北京信息职业技术学院,116.489231,39.978853,d6c5d9919f16e9eb31169be2,朝阳区
2,1,69,北京信息职业技术学院,4111010857,北京市,北京市,专科,nan,北京信息职业技术学院(东坝校区),116.557744,39.97167,50f7d146e1850ac472210b42,朝阳区
3,1,69,北京信息职业技术学院,4111010857,北京市,北京市,专科,nan,北京信息职业技术学院(南校区),116.318268,39.844632,af1ae56b4f4379124207c100,丰台区
4,1,69,北京信息职业技术学院,4111010857,北京市,北京市,专科,nan,北京信息职业技术学院成人教育昌平教学区,116.241956,40.218169,344c558cb5c8817ac356acde,昌平区
5,2,70,北京电子科技职业学院,4111010858,北京市,北京市,专科,nan,北京电子科技职业学院(亦庄校区),116.515349,39.776965,69fcd6df1fc9fa2fcb291598,大兴区
6,2,70,北京电子科技职业学院,4111010858,北京市,北京市,专科,nan,北京电子科技职业学院,116.446846,39.96465,cdef4edf80ac284e29d7ab92,朝阳区
7,2,70,北京电子科技职业学院,4111010858,北京市,北京市,专科,nan,北京电子科技职业学院,116.508071,39.965843,2ba9812a220514634054d7f2,朝阳区
8,2,70,北京电子科技职业学院,4111010858,北京市,北京市,专科,nan,北京电子科技职业学院基础学院,116.517732,39.776907,71ff9540f1afcfe911882408,大兴区
9,3,71,北京京北职业技术学院,4111011090,北京市,北京市,专科,nan,北京京北职业技术学院,116.647689,40.34552,954bb674c8ac1b901811d5b1,怀柔区
10,4,72,北京交通职业技术学院,4111011092,北京市,北京市,专科,nan,北京交通职业技术学院,116.210855,40.235024,3ad0cd993faf5c04bda822a8,昌平区
11,4,72,北京交通职业技术学院,4111011092,北京市,北京市,专科,nan,北京交通职业技术学院航空学院,116.210932,40.234871,670fa6c49d27f63e8936eea4,昌平区
12,5,73,北京青年政治学院,4111011626,北京市,北京市,专科,nan,北京青年政治学院(望京校区),116.481254,39.986828,88ff0a1dcb7f9402d4851f87,朝阳区
13,5,73,北京青年政治学院,4111011626,北京市,北京市,专科,nan,北京青年政治学院(东校区),116.588976,40.006089,789770d8b0d5aa2dc4f02508,朝阳区
14,6,74,北京农业职业学院,4111012448,北京市,北京市,专科,nan,北京农业职业学院,116.234899,39.77807,b7b222953272a624ad31e526,房山区
15,6,74,北京农业职业学院,4111012448,北京市,北京市,专科,nan,北京农业职业学院,116.232467,39.997083,b0d056f226b9367ecbc3dbb1,海淀区
16,6,74,北京农业职业学院,4111012448,北京市,北京市,专科,nan,北京农业职业学院国际教育学院,116.425896,40.038043,75d0881a018bc64d3a04b175,朝阳区
17,6,74,北京农业职业学院,4111012448,北京市,北京市,专科,nan,北京农业职业学院机电工程学院,116.314337,40.084126,e20e19fda6fea355deee8bd5,昌平区
18,6,74,北京农业职业学院,4111012448,北京市,北京市,专科,nan,北京农业职业学院,116.227755,39.777081,cf336bb1b267da940ab93a42,房山区
19,7,75,北京政法职业学院,4111012451,北京市,北京市,专科,nan,北京政法职业学院,116.375245,39.768263,ef8742c0a2678a2d081cc782,大兴区
20,7,75,北京政法职业学院,4111012451,北京市,北京市,专科,nan,北京政法职业学院,116.610915,39.924287,0b04231651d1f07433169b6c,朝阳区
21,7,75,北京政法职业学院,4111012451,北京市,北京市,专科,nan,北京政法职业学院-教学楼(大兴校区),116.375636,39.76804,7f80507a8403794077026987,大兴区
22,8,76,北京财贸职业学院,4111012561,北京市,北京市,专科,nan,北京财贸职业学院,116.654178,39.927147,850815e1e223e19b43e19264,通州区
23,8,76,北京财贸职业学院,4111012561,北京市,北京市,专科,nan,北京财贸职业学院(东城校区),116.430855,39.928422,afba48c70280e5448605bf07,东城区
24,8,76,北京财贸职业学院,4111012561,北京市,北京市,专科,nan,北京财贸职业学院,116.480723,39.934068,ab414b05ce415a829e95deee,朝阳区
25,8,76,北京财贸职业学院,4111012561,北京市,北京市,专科,nan,北京财贸职业学院,116.654147,39.928202,f1f6396cd49e78949d95deaf,通州区
26,8,76,北京财贸职业学院,4111012561,北京市,北京市,专科,nan,北京财贸职业学院,116.653908,39.928315,ab2c86c78a3d4bcfc7f025ca,通州区
27,8,76,北京财贸职业学院,4111012561,北京市,北京市,专科,nan,北京财贸职业学院,116.654147,39.928202,f84451105c10ba34e7e96543,通州区
28,10,78,北京经贸职业学院,4111012565,北京市教委,北京市,专科,民办,北京经贸职业学院,116.170599,39.72787,3f9337d6819819b3f72310c6,房山区
29,12,80,北京戏曲艺术职业学院,4111012567,北京市,北京市,专科,nan,北京戏曲艺术职业学院,116.383753,39.861792,db1f39d491ab406ef4c59cbb,丰台区
30,13,81,北京汇佳职业学院,4111012568,北京市教委,北京市,专科,民办,北京汇佳职业学院,116.250302,40.199768,dffd4642d137b0b23c9a5e67,昌平区
31,14,82,北京科技经营管理学院,4111012733,北京市教委,北京市,专科,民办,北京科技经营管理学院(沙河新校区),116.296478,40.150244,e3a7fd13d489db5228b97c65,昌平区
32,14,82,北京科技经营管理学院,4111012733,北京市教委,北京市,专科,民办,北京科技经营管理学院教学主楼(沙河新校区),116.297429,40.151249,01ce46556ce6c82390114c4f,昌平区
33,15,83,北京科技职业学院,4111013703,北京市教委,北京市,专科,民办,北京科技职业学院(沙河校区),116.257172,40.123649,7ba5590242b2f3103362120c,昌平区
34,15,83,北京科技职业学院,4111013703,北京市教委,北京市,专科,民办,北京科技职业学院(八达岭校区),116.027038,40.423417,7aea43b7df3263f87c29bd2a,延庆区
35,16,84,北京培黎职业学院,4111013728,北京市教委,北京市,专科,民办,北京培黎职业学院,116.351983,40.02656,6689b56793d4bf0fc51b758a,海淀区
36,17,85,北京经济管理职业学院,4111014073,北京市,北京市,专科,nan,北京经济管理职业学院,116.481272,39.989565,454f20a6acfbdc4180a00c86,朝阳区
37,18,86,北京劳动保障职业学院,4111014075,北京市,北京市,专科,nan,北京劳动保障职业学院,116.191587,40.231565,18165334c49e5704fb2d6167,昌平区
38,19,87,北京社会管理职业学院,4111014139,北京市,北京市,专科,nan,北京社会管理职业学院(新校区),116.382311,39.76149,5573ae53da9fc92b157643a6,大兴区
39,20,88,北京艺术传媒职业学院,4111014140,北京市教委,北京市,专科,民办,北京艺术传媒职业学院,116.126717,40.105034,f3c2373c3a6d2352d32dd6aa,海淀区
40,20,88,北京艺术传媒职业学院,4111014140,北京市教委,北京市,专科,民办,北京艺术传媒职业学院北区,116.125539,40.107609,4470991e86634e0a88fc06e8,海淀区
41,20,88,北京艺术传媒职业学院,4111014140,北京市教委,北京市,专科,民办,北京艺术传媒职业学院家属院,116.125689,40.107561,dd4cb2f2d966c2ffdeee8b90,海淀区
42,21,89,北京体育职业学院,4111014215,北京市,北京市,专科,nan,北京体育职业学院,116.417479,39.859725,5615332669bd5f1c86420e21,丰台区
43,22,90,北京交通运输职业学院,4111014279,北京市,北京市,专科,nan,北京交通运输职业学院,116.349796,39.750691,56c130a268986da42fb96ddc,大兴区
44,22,90,北京交通运输职业学院,4111014279,北京市,北京市,专科,nan,北京交通运输职业学院(海淀校区),116.346671,40.055916,33fbfa83bc97a6c10bf5eb6f,海淀区
45,22,90,北京交通运输职业学院,4111014279,北京市,北京市,专科,nan,北京交通运输职业学院,116.668767,39.868594,0865fb917c3eceedb320a8e1,通州区
46,22,90,北京交通运输职业学院,4111014279,北京市,北京市,专科,nan,北京交通运输职业学院(车站路),116.668738,39.908402,82d2e38ca0cbd89acbfa5f41,通州区
47,23,91,北京卫生职业学院,4111014395,北京市,北京市,专科,nan,北京卫生职业学院,116.675206,39.891339,0fd5153f8280222ef7e73bf0,通州区
48,23,91,北京卫生职业学院,4111014395,北京市,北京市,专科,nan,北京卫生职业学院第二院区(玉带河西街),116.656052,39.906631,5ca77ab32beb38a9c61e512d,通州区
49,26,124,天津滨海职业学院,4112012484,天津市,天津市,专科,nan,天津滨海职业学院,117.649642,39.074073,ca25bf47b38c4d06c9fa5f06,滨海新区
50,26,124,天津滨海职业学院,4112012484,天津市,天津市,专科,nan,天津滨海职业学院国际语言学院,117.651598,39.075685,268417954a8d0499fa0cad5b,滨海新区
51,27,125,天津工程职业技术学院,4112012487,天津市,天津市,专科,nan,天津工程职业技术学院(南校区),117.505054,38.729391,aaea8ab80c86c2a4223bf2ed,滨海新区
52,28,126,天津渤海职业技术学院,4112012719,天津市,天津市,专科,nan,天津渤海职业技术学院,117.369046,39.269084,4fc3161aa24b05a83a13fd0b,北辰区
53,28,126,天津渤海职业技术学院,4112012719,天津市,天津市,专科,nan,天津渤海职业技术学院(友谊路校区),117.21167,39.101465,be54cde9216e3b5978f7963b,河西区
54,28,126,天津渤海职业技术学院,4112012719,天津市,天津市,专科,nan,天津渤海职业技术学院(分院),117.227233,39.07839,2e00c5dd86af461dd7851f39,河西区
55,29,127,天津电子信息职业技术学院,4112012720,天津市,天津市,专科,nan,天津电子信息职业技术学院,117.384125,39.01518,27baea166a28bb531b11d544,津南区
56,30,128,天津机电职业技术学院,4112012721,天津市,天津市,专科,nan,天津机电职业技术学院,117.361094,39.020311,a9c6e4f663e6825202ec01f3,津南区
57,31,129,天津现代职业技术学院,4112012722,天津市,天津市,专科,nan,天津现代职业技术学院,117.374811,39.025674,ba2e94cc5d8ffe9b932ca32e,津南区
58,31,129,天津现代职业技术学院,4112012722,天津市,天津市,专科,nan,天津现代职业技术学院滨江道校区一轻党校,117.21368,39.136363,fdb8ae64b1916361f11937c6,和平区
59,32,130,天津公安警官职业学院,4112012723,天津市,天津市,专科,nan,天津公安警官职业学院,117.116273,39.009204,bb1d38e4a1d0074c0c0a70f9,西青区
60,33,131,天津轻工职业技术学院,4112012732,天津市,天津市,专科,nan,天津轻工职业技术学院,117.379864,39.028623,5c5d7e98087174ed8bdb7337,津南区
61,33,131,天津轻工职业技术学院,4112012732,天津市,天津市,专科,nan,天津轻工职业技术学院-艺术工程学院,117.380403,39.027153,1e33ded79d9942a63062128a,津南区
62,34,132,天津商务职业学院,4112012788,天津市,天津市,专科,nan,天津商务职业学院,117.35271,39.01687,8a84ced3ba988c11343a71ce,津南区
63,34,132,天津商务职业学院,4112012788,天津市,天津市,专科,nan,天津商务职业学院(六纬路校区),117.239901,39.11632,1fbe201ccb2b5493373a719a,河东区
64,35,133,天津国土资源和房屋职业学院,4112012803,天津市,天津市,专科,nan,天津国土资源和房屋职业学院,117.46005,38.874855,be1ea5efd3cfb8be14948e20,滨海新区
65,35,133,天津国土资源和房屋职业学院,4112012803,天津市,天津市,专科,nan,天津国土资源和房屋职业学院,117.463717,38.872874,12f3ce7780c30aeb3be4a6d6,滨海新区
66,36,134,天津医学高等专科学校,4112012880,天津市,天津市,专科,nan,天津医学高等专科学校,117.294134,39.079677,cd9d05dd46f735b785420e38,河西区
67,37,135,天津开发区职业技术学院,4112012881,天津市,天津市,专科,nan,天津开发区职业技术学院,117.229286,39.116141,fe6bab2e69532ccf6268581e,河西区
68,37,135,天津开发区职业技术学院,4112012881,天津市,天津市,专科,nan,天津开发区职业技术学院计算机科学与信息工程学院,117.702477,39.09379,72658bbd88b7b821a2046471,滨海新区
69,38,136,天津艺术职业学院,4112012882,天津市,天津市,专科,nan,天津艺术职业学院,117.281455,39.097083,f02ee80243df6c4b2fb96d02,河东区
70,38,136,天津艺术职业学院,4112012882,天津市,天津市,专科,nan,天津艺术职业学院,117.184759,39.095185,d4034eb3412cfaf7c1364480,南开区
71,39,137,天津交通职业学院,4112012883,天津市,天津市,专科,nan,天津交通职业学院,117.083147,39.154957,46e86fdd5915256ed13ce3f8,西青区
72,40,138,天津工业职业学院,4112013700,天津市,天津市,专科,nan,天津工业职业学院,117.121215,39.265674,042e1949eab5354d62685899,北辰区
73,40,138,天津工业职业学院,4112013700,天津市,天津市,专科,nan,天津工业职业学院-北院,117.120252,39.268002,0672f20798cb557b78f7969d,北辰区
74,41,139,天津石油职业技术学院,4112013701,天津市,天津市,专科,nan,天津石油职业技术学院,117.225005,38.849007,550fd5f944d1a878931fc9c1,静海区
75,41,139,天津石油职业技术学院,4112013701,天津市,天津市,专科,nan,天津石油职业技术学院(西校区),117.180831,38.885014,a9d97034517dba19eee4a53f,静海区
76,41,139,天津石油职业技术学院,4112013701,天津市,天津市,专科,nan,天津石油职业技术学院,117.223972,38.850916,580e50e22ec8c34ea8059d97,静海区
77,41,139,天津石油职业技术学院,4112013701,天津市,天津市,专科,nan,天津石油职业技术学院,117.222779,38.850802,454f6cf4cc2a4ee095ca0794,静海区
78,41,139,天津石油职业技术学院,4112013701,天津市,天津市,专科,nan,天津石油职业技术学院(滨海校区),117.505054,38.729391,aaea8ab80c86c2a4223bf2ed,滨海新区
79,41,139,天津石油职业技术学院,4112013701,天津市,天津市,专科,nan,天津石油职业技术学院-教学楼A区,117.223788,38.849517,d9f8f34b5c950915d3ff23af,静海区
80,42,140,天津城市职业学院,4112013702,天津市,天津市,专科,nan,天津城市职业学院,117.243502,39.155519,50f2faa8b79854c3a0acc458,河东区
81,42,140,天津城市职业学院,4112013702,天津市,天津市,专科,nan,天津城市职业学院(月牙河校区),117.257519,39.173992,595e794c2b0ca4fd220220da,河北区
82,42,140,天津城市职业学院,4112013702,天津市,天津市,专科,nan,天津城市职业学院(南开分院),117.148755,39.150795,23032d86f8a32b5cda2f2845,南开区
83,42,140,天津城市职业学院,4112013702,天津市,天津市,专科,nan,天津城市职业学院(幸福道校区),117.229694,39.158732,c8e8f6336b6a3d11aa0dd89c,河北区
84,42,140,天津城市职业学院,4112013702,天津市,天津市,专科,nan,天津城市职业学院(河东分院),117.291217,39.137834,7eb53606c42a49c16fa3cccd,河东区
85,42,140,天津城市职业学院,4112013702,天津市,天津市,专科,nan,天津城市职业学院(红桥分院),117.178627,39.182099,bc75336e089317aefbdc85d4,红桥区
86,42,140,天津城市职业学院,4112013702,天津市,天津市,专科,nan,天津城市职业学院新华分院,117.188709,39.118262,1339d1a767aa9cc7a0acc4ca,和平区
87,42,140,天津城市职业学院,4112013702,天津市,天津市,专科,nan,天津城市职业学院(河西分院),117.222666,39.112436,083a55fae5a2d978246e983b,河西区
88,43,141,天津铁道职业技术学院,4112013863,天津市,天津市,专科,nan,天津铁道职业技术学院,117.227506,39.176797,0adce3e2f1af156081a00cb2,河北区
89,43,141,天津铁道职业技术学院,4112013863,天津市,天津市,专科,nan,天津铁道职业技术学院(南校区),117.239557,39.170651,6deee308d078ef6b28fc48b3,河北区
90,44,142,天津工艺美术职业学院,4112013911,天津市,天津市,专科,nan,天津工艺美术职业学院(建昌道校区),117.229989,39.180184,f709908a388a93598733046b,河北区
91,45,143,天津城市建设管理职业技术学院,4112014020,天津市,天津市,专科,nan,天津城市建设管理职业技术学院,117.115172,39.198553,b7021bf815ebd3f9f4e73bd0,北辰区
92,45,143,天津城市建设管理职业技术学院,4112014020,天津市,天津市,专科,nan,天津城市建设管理职业技术学院(南开校区),117.17789,39.14022,591a9bea54cd84efa4c756ab,南开区
93,46,144,天津生物工程职业技术学院,4112014021,天津市,天津市,专科,nan,天津生物工程职业技术学院,117.548562,39.080591,fa7da3e85e0c256343d63e90,东丽区
94,46,144,天津生物工程职业技术学院,4112014021,天津市,天津市,专科,nan,天津生物工程职业技术学院(河北校区),117.20192,39.166388,cc788fdedfb7778b88fc0664,河北区
95,46,144,天津生物工程职业技术学院,4112014021,天津市,天津市,专科,nan,天津生物工程职业技术学院成教学院,117.20192,39.166388,d1f94d9cb351c9b6354aae9f,河北区
96,47,145,天津海运职业学院,4112014022,天津市,天津市,专科,nan,天津海运职业学院,117.371349,39.009034,f3cfca73fd2fff542db96d6b,津南区
97,48,146,天津广播影视职业学院,4112014102,天津市,天津市,专科,nan,天津广播影视职业学院,117.120553,39.126932,ef773a0f6f75ff49220220c2,西青区
98,49,147,天津体育职业学院,4112014599,天津市,天津市,专科,nan,天津体育职业学院,117.078464,38.969981,00cca8bf72ab9dcf601c6761,静海区
99,50,148,天津滨海汽车工程职业学院,4112014600,天津市教委,天津市,专科,民办,天津滨海汽车工程职业学院,117.479841,38.994754,91aeb008ba83810b1288243a,津南区
100,51,210,邯郸职业技术学院,4113011034,河北省,邯郸市,专科,nan,邯郸职业技术学院,114.517917,36.588547,b292b3aa65dca256be484263,邯山区
101,51,210,邯郸职业技术学院,4113011034,河北省,邯郸市,专科,nan,邯郸职业技术学院,114.515754,36.591882,8ab7c163251c6ed1f8dc858b,邯山区
102,51,210,邯郸职业技术学院,4113011034,河北省,邯郸市,专科,nan,邯郸职业技术学院,114.51565,36.591826,dd6b4ab3c52332afce04efd0,邯山区
103,51,210,邯郸职业技术学院,4113011034,河北省,邯郸市,专科,nan,邯郸职业技术学院,114.515858,36.591938,6fc96ea8c488339e9fec2bd3,邯山区
104,51,210,邯郸职业技术学院,4113011034,河北省,邯郸市,专科,nan,邯郸职业技术学院(滨河校区),114.516606,36.605579,c86716ba8d44f289fe0eb07a,邯山区
105,52,211,石家庄职业技术学院,4113011238,河北省,石家庄市,专科,nan,石家庄职业技术学院,114.413104,38.052708,d991e116452114551f38946f,桥西区
106,52,211,石家庄职业技术学院,4113011238,河北省,石家庄市,专科,nan,石家庄职业技术学院(正定新区新校区),114.667557,38.151935,6f62cb61b80bc4e943d63ea5,正定县
107,53,212,张家口职业技术学院,4113011423,河北省,张家口市,专科,nan,张家口职业技术学院,114.923311,40.737249,4fc3161aef8cd0a93a13fd46,桥东区
108,53,212,张家口职业技术学院,4113011423,河北省,张家口市,专科,nan,张家口职业技术学院教工住宅小区,114.877031,40.826164,bff8fa7d02a0eea0c8213d58,桥西区
109,54,213,河北软件职业技术学院,4113012352,河北省,保定市,专科,nan,河北软件职业技术学院,115.550822,38.873954,de97022c6c74f3dd14c8f639,莲池区
110,54,213,河北软件职业技术学院,4113012352,河北省,保定市,专科,nan,河北软件职业技术学院东校区-南院,115.551556,38.873736,511aa6d1db1aa1fdf4c59c8f,莲池区
111,55,214,河北石油职业技术学院,4113012367,河北省,廊坊市,专科,nan,河北石油职业技术学院,116.68257,39.530335,d4a0e38e0779d942b04c493d,安次区
112,56,215,河北建材职业技术学院,4113012389,河北省,秦皇岛市,专科,nan,河北建材职业技术学院(西校区),119.565696,39.91747,6d5cd63eafa8450cc8213d65,海港区
113,56,215,河北建材职业技术学院,4113012389,河北省,秦皇岛市,专科,nan,河北建材职业技术学院(东校区),119.569379,39.920782,cc788fde10d2328a89fc0686,海港区
114,57,216,河北政法职业学院,4113012408,河北省,石家庄市,专科,nan,河北政法职业学院(新校区),114.469134,38.144471,23116913ed5f78fd734b8764,新华区
115,57,216,河北政法职业学院,4113012408,河北省,石家庄市,专科,nan,河北政法职业学院北院,114.478891,38.150092,adab9517918cc407f219376b,新华区
116,57,216,河北政法职业学院,4113012408,河北省,石家庄市,专科,nan,河北政法职业学院(东院),114.506876,38.134819,4e5f1304bdb4eb28b15c6a23,长安区
117,57,216,河北政法职业学院,4113012408,河北省,石家庄市,专科,nan,河北政法职业学院西院,114.478836,38.149557,5164f0e5c55b969188f15d9e,新华区
118,58,217,沧州职业技术学院,4113012415,河北省,沧州市,专科,nan,沧州职业技术学院,116.829903,38.287906,c460342185c29e1fb34c495f,运河区
119,58,217,沧州职业技术学院,4113012415,河北省,沧州市,专科,nan,沧州职业技术学院(北校区),116.849928,38.334207,deebc776bb722620c1f1cfa2,运河区
120,58,217,沧州职业技术学院,4113012415,河北省,沧州市,专科,nan,沧州职业技术学院孟村学院,117.110349,38.057732,35aafc9ac5de044cd8eced9a,孟村回族自治县
121,58,217,沧州职业技术学院,4113012415,河北省,沧州市,专科,nan,沧州职业技术学院-沧州工贸学校,116.824916,38.289039,5a6201c5d85d355996f08c45,运河区
122,59,218,河北能源职业技术学院,4113012418,河北省,唐山市,专科,nan,河北能源职业技术学院,118.131407,39.637959,e889a744a1077cb58605bfd0,路北区
123,59,218,河北能源职业技术学院,4113012418,河北省,唐山市,专科,nan,河北能源职业技术学院学生宿舍区(东门),118.135044,39.638714,bb573af42f2790a6b11e3682,路北区
124,59,218,河北能源职业技术学院,4113012418,河北省,唐山市,专科,nan,河北能源职业技术学院-学生宿舍区,118.134366,39.638943,1962239972ceacce95f08cb1,路北区
125,60,219,石家庄铁路职业技术学院,4113012424,河北省,石家庄市,专科,nan,石家庄铁路职业技术学院,114.533558,38.093999,3b033958ec5a2cd13a04b1ae,长安区
126,60,219,石家庄铁路职业技术学院,4113012424,河北省,石家庄市,专科,nan,石家庄铁路职业技术学院(北校区),114.507974,38.136204,8e95c9df4311326cbe484212,新华区
127,60,219,石家庄铁路职业技术学院,4113012424,河北省,石家庄市,专科,nan,石家庄铁路职业技术学院,114.591426,38.165553,209aa1b4cc8a877d344aaead,正定县
128,61,220,保定职业技术学院,4113012543,河北省,保定市,专科,nan,保定职业技术学院,115.477046,38.865727,a6c19631ba463f026140a960,竞秀区
129,61,220,保定职业技术学院,4113012543,河北省,保定市,专科,nan,保定职业技术学院(东校区),115.530274,38.876001,b1bd94c53c05d337213bf265,莲池区
130,61,220,保定职业技术学院,4113012543,河北省,保定市,专科,nan,保定职业技术学院(北校区),115.525666,38.886714,4cb8af50e3e04d1472455bfb,莲池区
131,61,220,保定职业技术学院,4113012543,河北省,保定市,专科,nan,保定职业技术学院-南区,115.475869,38.865674,ba058911fed096532811d18c,竞秀区
132,62,221,秦皇岛职业技术学院,4113012773,河北省,秦皇岛市,专科,nan,秦皇岛职业技术学院,119.488218,39.845334,efed8e3bc83d37d1bda2404b,北戴河区
133,62,221,秦皇岛职业技术学院,4113012773,河北省,秦皇岛市,专科,nan,秦皇岛职业技术学院,119.48801,39.839752,dc7b12054b06f8ebd0ff239e,北戴河区
134,62,221,秦皇岛职业技术学院,4113012773,河北省,秦皇岛市,专科,nan,秦皇岛职业技术学院海港校区,119.580494,39.975565,ddf96eb7f2a38b83b75f1e32,海港区
135,63,222,石家庄工程职业学院,4113012782,河北省教育厅,石家庄市,专科,民办,石家庄工程职业学院,114.445936,38.176806,64a8bf7de1b3a9665e0d0220,新华区
136,64,223,石家庄城市经济职业学院,4113012783,河北省教育厅,石家庄市,专科,民办,石家庄城市经济职业学院-南院,114.705919,38.048466,9f509fd62153f8c12806cecf,藁城区
137,65,224,唐山职业技术学院,4113012785,河北省,唐山市,专科,nan,唐山职业技术学院,118.097355,39.591377,ad258d353ee3ca26cc06a4f9,丰南区
138,65,224,唐山职业技术学院,4113012785,河北省,唐山市,专科,nan,唐山职业技术学院,118.13954,39.629818,a0ba6fafed99d3eca11de9bc,路北区
139,65,224,唐山职业技术学院,4113012785,河北省,唐山市,专科,nan,唐山职业技术学院(韩城校区),118.071051,39.642996,6b0c183902bf46dfa11de9ed,路北区
140,66,225,衡水职业技术学院,4113012786,河北省,衡水市,专科,nan,衡水职业技术学院,115.687471,37.705335,0adce3e2b923dd6180a00c26,桃城区
141,66,225,衡水职业技术学院,4113012786,河北省,衡水市,专科,nan,衡水职业技术学院,115.690452,37.705915,f3590866a701735432870a2c,桃城区
142,67,226,唐山工业职业技术学院,4113012787,河北省,唐山市,专科,nan,唐山工业职业技术学院(曹妃甸校区),118.575018,39.206763,d42ac90e2754bdcb2b201ab2,曹妃甸区
143,67,226,唐山工业职业技术学院,4113012787,河北省,唐山市,专科,nan,唐山工业职业技术学院(建筑校区),118.21899,39.673795,7bd44a49944f810c2fb17e91,路北区
144,67,226,唐山工业职业技术学院,4113012787,河北省,唐山市,专科,nan,唐山工业职业技术学院(路南校区),118.233631,39.63672,fbe39276008807d831f71df2,路南区
145,67,226,唐山工业职业技术学院,4113012787,河北省,唐山市,专科,nan,唐山工业职业技术学院(曹妃甸区职教中心),118.448947,39.280199,6cdaa66c6c75ff5d4bcc4aef,曹妃甸区
146,68,227,邢台医学高等专科学校,4113012884,河北省,邢台市,专科,nan,邢台医学高等专科学校,114.468313,37.094756,891cc98cbc6702fb8bdb73ca,信都区
147,68,227,邢台医学高等专科学校,4113012884,河北省,邢台市,专科,nan,邢台医学高等专科学校(皇寺校区),114.373587,37.184956,3d9236d43f4a63c1cafa5f05,信都区
148,69,228,河北艺术职业学院,4113012885,河北省,石家庄市,专科,nan,河北艺术职业学院,114.525139,38.043339,af1ae56b539965124207c16a,长安区
149,69,228,河北艺术职业学院,4113012885,河北省,石家庄市,专科,nan,河北艺术职业学院(西门),114.524182,38.042781,bc23ea48eda46ae44bcc4a55,长安区
150,69,228,河北艺术职业学院,4113012885,河北省,石家庄市,专科,nan,河北艺术职业学院家属院,114.525152,38.042186,9ce8954659598e28f4eafc51,长安区
151,70,229,河北旅游职业学院,4113012887,河北省,承德市,专科,nan,河北旅游职业学院(新校区),117.959933,40.908572,3c0ea7c5c3c5c89cfaf0cbbf,双桥区
152,71,230,石家庄财经职业学院,4113013070,河北省教育厅,石家庄市,专科,民办,石家庄财经职业学院,114.44225,38.174459,3578be473547646cd618b769,鹿泉区
153,71,230,石家庄财经职业学院,4113013070,河北省教育厅,石家庄市,专科,民办,石家庄财经职业学院(卧龙校区),114.289037,38.123487,0f7307b61524b1cfd6b74e88,鹿泉区
154,72,231,河北交通职业技术学院,4113013071,河北省,石家庄市,专科,nan,河北交通职业技术学院,114.649481,38.032887,34acabd90b9f7d8ac7f50df7,裕华区
155,72,231,河北交通职业技术学院,4113013071,河北省,石家庄市,专科,nan,河北交通职业技术学院(西院),114.457268,38.019602,0ce65c2d22d934582d4733df,桥西区
156,72,231,河北交通职业技术学院,4113013071,河北省,石家庄市,专科,nan,河北交通职业技术学院藁城分院,114.835794,38.026254,7524cb4f81136a3404026f4f,藁城区
157,72,231,河北交通职业技术学院,4113013071,河北省,石家庄市,专科,nan,河北交通职业技术学院东院,114.649446,38.03253,d2a2a1ed3e3539d35fbe86d5,裕华区
158,73,232,河北化工医药职业技术学院,4113013072,河北省,石家庄市,专科,nan,河北化工医药职业技术学院,114.609718,37.995841,61fb1f9e1d85fca517b54bc5,裕华区
159,74,233,石家庄信息工程职业学院,4113013073,河北省,石家庄市,专科,nan,石家庄信息工程职业学院(新校区),114.688258,38.156327,5890c1c9f3d78c97095cb35b,藁城区
160,75,234,河北对外经贸职业学院,4113013074,河北省,秦皇岛市,专科,nan,河北对外经贸职业学院,119.434214,39.807276,c7ae490c84ac22ee213bf211,北戴河区
161,75,234,河北对外经贸职业学院,4113013074,河北省,秦皇岛市,专科,nan,河北对外经贸职业学院-河北外院,119.434112,39.80728,cb60f4f73f094ef7441a32ff,北戴河区
162,76,235,保定电力职业技术学院,4113013392,河北省,保定市,专科,nan,保定电力职业技术学院,115.455847,38.857905,a8c7a1206ca3563633870a57,竞秀区
163,77,236,河北机电职业技术学院,4113013393,河北省,邢台市,专科,nan,河北机电职业技术学院,114.465692,37.101022,befdb29296bd99e186154189,信都区
164,78,237,渤海石油职业学院,4113013394,河北省,沧州市,专科,nan,渤海石油职业学院,116.065152,38.721985,4df589551136ae70882fb599,任丘市
165,78,237,渤海石油职业学院,4113013394,河北省,沧州市,专科,nan,渤海石油职业学院,116.065489,38.721957,d454eae7f145d61172455b61,任丘市
166,79,238,廊坊职业技术学院,4113013395,河北省,廊坊市,专科,nan,廊坊职业技术学院,116.750424,39.621821,b1650db9e036eb11e607384e,广阳区
167,79,238,廊坊职业技术学院,4113013395,河北省,廊坊市,专科,nan,廊坊职业技术学院(西校区),116.688106,39.530415,ea4a3dc997136a2e4e5547f6,安次区
168,79,238,廊坊职业技术学院,4113013395,河北省,廊坊市,专科,nan,廊坊职业技术学院北校区,116.713164,39.550068,c07ef856f25ab32cd0ff2339,广阳区
169,79,238,廊坊职业技术学院,4113013395,河北省,廊坊市,专科,nan,廊坊职业技术学院(大城校区),116.643111,38.710923,edd90a0c9c8e36cdd8d89118,大城县
170,79,238,廊坊职业技术学院,4113013395,河北省,廊坊市,专科,nan,廊坊职业技术学院(文安校区),116.451268,38.871359,fff5f223da156e1f01294f68,文安县
171,80,239,唐山科技职业技术学院,4113013396,河北省,唐山市,专科,nan,唐山科技职业技术学院,118.245074,39.603696,befdb292957b9ae1871541d3,路南区
172,80,239,唐山科技职业技术学院,4113013396,河北省,唐山市,专科,nan,唐山科技职业技术学院-唐钢技校,118.245812,39.60316,e3b9861521fc0cccab0dd877,路南区
173,81,240,石家庄邮电职业技术学院,4113013397,河北省,石家庄市,专科,nan,石家庄邮电职业技术学院,114.537472,38.024451,f757e6ee98a86717260bd06a,裕华区
174,81,240,石家庄邮电职业技术学院,4113013397,河北省,石家庄市,专科,nan,石家庄邮电职业技术学院(东校区),114.563832,38.024988,1bf85b252b879ca5a1a93422,裕华区
175,82,241,河北公安警察职业学院,4113013398,河北省,石家庄市,专科,nan,河北公安警察职业学院,114.477684,38.005631,8eb48fa1abb6cfa6f32d836f,桥西区
176,83,242,石家庄工商职业学院,4113013399,河北省教育厅,石家庄市,专科,民办,石家庄工商职业学院,114.478545,38.001454,083a55fad3790f79246e9872,桥西区
177,84,243,石家庄理工职业学院,4113013400,河北省教育厅,石家庄市,专科,民办,石家庄理工职业学院,114.357694,38.058814,eb74436f8522f71db9df8fcf,鹿泉区
178,84,243,石家庄理工职业学院,4113013400,河北省教育厅,石家庄市,专科,民办,石家庄理工职业学院,114.54267,37.633887,6e5e62460d920d63cc04ef5d,高邑县
179,84,243,石家庄理工职业学院,4113013400,河北省教育厅,石家庄市,专科,民办,石家庄理工职业学院,114.537615,37.634695,b96d839d85cd80dda2a934c2,高邑县
180,84,243,石家庄理工职业学院,4113013400,河北省教育厅,石家庄市,专科,民办,石家庄理工职业学院,114.547725,37.633079,db8f61f08573889ac17da219,高邑县
181,85,244,石家庄科技信息职业学院,4113013403,河北省教育厅,石家庄市,专科,民办,石家庄科技信息职业学院(灵寿新校区),114.420166,38.313839,4ab3392003165144c16c14d6,灵寿县
182,85,244,石家庄科技信息职业学院,4113013403,河北省教育厅,石家庄市,专科,民办,石家庄科技信息职业学院,114.466223,37.995276,776ebde7187e924a283a9f3d,鹿泉区
183,86,245,河北司法警官职业学院,4113013690,河北省,邯郸市,专科,nan,河北司法警官职业学院,114.495891,36.654522,07f3c8b5c26f96636240a961,丛台区
184,86,245,河北司法警官职业学院,4113013690,河北省,邯郸市,专科,nan,河北司法警官职业学院,114.503563,36.652778,ffcf0cc1f3004a528936ee33,丛台区
185,86,245,河北司法警官职业学院,4113013690,河北省,邯郸市,专科,nan,河北司法警官职业学院,114.503597,36.652543,c869e91d739aef1d1e5800cf,丛台区
186,86,245,河北司法警官职业学院,4113013690,河北省,邯郸市,专科,nan,河北司法警官职业学院,114.503535,36.65298,66e1ef9ca3c03b0d6cc02c75,丛台区
187,87,246,沧州医学高等专科学校,4113013779,河北省,沧州市,专科,nan,沧州医学高等专科学校,116.810159,38.290571,5fcfcd5088b718a315a190e3,运河区
188,88,247,河北女子职业技术学院,4113013822,河北省,石家庄市,专科,nan,河北女子职业技术学院,114.45535,38.004212,80bcd206075c3b791b11d520,桥西区
189,89,248,石家庄医学高等专科学校,4113014018,河北省教育厅,石家庄市,专科,民办,石家庄医学高等专科学校,114.42452,38.267735,b7c83b72213ab97dc9c3db59,灵寿县
190,90,249,石家庄经济职业学院,4113014047,河北省教育厅,石家庄市,专科,民办,石家庄经济职业学院,114.559916,38.15306,e284fbcf0238708ac4f50d2f,正定县
191,90,249,石家庄经济职业学院,4113014047,河北省教育厅,石家庄市,专科,民办,石家庄经济职业学院(西校区),114.423166,38.066419,1b5f27dcd1c465c315a190e2,桥西区
192,90,249,石家庄经济职业学院,4113014047,河北省教育厅,石家庄市,专科,民办,石家庄经济职业学院航空学院,114.423966,38.066911,bcf786b2b89ac26cf603b81d,桥西区
193,91,250,冀中职业学院,4113014103,河北省,保定市,专科,nan,冀中职业学院,115.008031,38.522351,0566ab1197bc36e4e5073898,定州市
194,91,250,冀中职业学院,4113014103,河北省,保定市,专科,nan,冀中职业学院(学前教育系保定校区),115.517376,38.861311,36acebd2a8e796bead080fad,莲池区
195,91,250,冀中职业学院,4113014103,河北省,保定市,专科,nan,冀中职业学院惠仁健康科技学院,115.552513,38.898453,9f5e961ce4cf0a55a8059de9,莲池区
196,92,251,石家庄人民医学高等专科学校,4113014158,河北省教育厅,石家庄市,专科,民办,石家庄人民医学高等专科学校,114.461781,37.999187,6ed3083a5589f5b72b3a9f72,桥西区
197,93,252,河北正定师范高等专科学校,4113014185,河北省,石家庄市,专科,nan,河北正定师范高等专科学校,114.574559,38.168476,fc059a534e584b2a112935af,正定县
198,93,252,河北正定师范高等专科学校,4113014185,河北省,石家庄市,专科,nan,河北正定师范高等专科学校(南校区),114.642055,38.012466,24b00b937d6939988bfc0637,裕华区
199,94,253,河北劳动关系职业学院,4113014208,河北省,石家庄市,专科,nan,河北劳动关系职业学院,114.463955,37.995326,5b25f446e502db9711293581,鹿泉区
200,95,254,石家庄科技职业学院,4113014213,河北省教育厅,石家庄市,专科,民办,石家庄科技职业学院,114.698924,38.042483,0dc3d82da1b55e6d74e5b682,藁城区
201,95,254,石家庄科技职业学院,4113014213,河北省教育厅,石家庄市,专科,民办,石家庄科技职业学院(北校区),114.591426,38.165553,209aa1b4cc8a877d344aaead,正定县
202,96,255,沧州幼儿师范高等专科学校,4113014259,河北省,沧州市,专科,nan,沧州幼儿师范高等专科学校,116.5776,38.082711,41572e0047d814b4b55f1e9f,泊头市
203,97,256,宣化科技职业学院,4113014260,河北省,张家口市,专科,nan,宣化科技职业学院(西区),115.058595,40.627111,a345ac07ede838ca3a13fde3,宣化区
204,97,256,宣化科技职业学院,4113014260,河北省,张家口市,专科,nan,宣化科技职业学院(东校区),115.073584,40.624355,662aed9460f626b9ab175a9d,宣化区
205,97,256,宣化科技职业学院,4113014260,河北省,张家口市,专科,nan,宣化科技职业学院南校区,115.018826,40.583809,eb200b3f477f0028c41b75ae,宣化区
206,97,256,宣化科技职业学院,4113014260,河北省,张家口市,专科,nan,宣化科技职业学院,115.058398,40.625262,593850fb50b7e15ddf1e5258,宣化区
207,98,257,廊坊燕京职业技术学院,4113014280,河北省,廊坊市,专科,nan,廊坊燕京职业技术学院,116.99671,39.976942,30c818eafb9d70fe01294f42,三河市
208,99,258,承德护理职业学院,4113014281,河北省,承德市,专科,nan,承德护理职业学院,117.960437,40.957721,ca0f1cb0e9cb411ec9c3db06,双桥区
209,101,260,廊坊卫生职业学院,4113014335,河北省,廊坊市,专科,nan,廊坊卫生职业学院,116.742221,39.615064,6ff8b90eede0188929fc4878,广阳区
210,102,261,河北轨道运输职业技术学院,4113014396,河北省,石家庄市,专科,nan,河北轨道运输职业技术学院(西校区),114.482012,38.062119,97066f0f9c7b720c71210b11,新华区
211,102,261,河北轨道运输职业技术学院,4113014396,河北省,石家庄市,专科,nan,河北轨道运输职业技术学院(东校区),114.706274,38.024715,ea76a50b1fc36df79a0050fc,藁城区
212,103,262,保定幼儿师范高等专科学校,4113014460,河北省,保定市,专科,nan,保定幼儿师范高等专科学校(定兴校区),115.816372,39.273602,c9ce112ffa33c625901fc9eb,定兴县
213,104,263,河北工艺美术职业学院,4113014471,河北省,保定市,专科,nan,河北工艺美术职业学院,115.26238,38.949126,0acaa6b1e5d256a8fb0caded,满城区
214,104,263,河北工艺美术职业学院,4113014471,河北省,保定市,专科,nan,河北工艺美术职业学院(瑞祥街),115.495936,38.889004,22e114070b6547b5d5b74e14,竞秀区
215,105,264,渤海理工职业学院,4113014472,河北省教育厅,沧州市,专科,民办,渤海理工职业学院,117.321172,38.398501,2330d5bf3fa399c6a4c7564c,黄骅市
216,106,265,唐山幼儿师范高等专科学校,4113014586,河北省,唐山市,专科,nan,唐山幼儿师范高等专科学校,118.767658,39.744724,eeb7e97b6b5ffbe6081cc7e9,滦州市
217,107,266,曹妃甸职业技术学院,4113014601,河北省教育厅,唐山市,专科,民办,曹妃甸职业技术学院,118.607041,39.188952,27f51aa7dd15d318704b8775,曹妃甸区
218,107,266,曹妃甸职业技术学院,4113014601,河北省教育厅,唐山市,专科,民办,曹妃甸职业技术学院,118.603545,39.189409,cc62f175eca572704251c05f,曹妃甸区
219,108,267,承德应用技术职业学院,4113014632,河北省,承德市,专科,nan,承德应用技术职业学院,117.932782,40.878286,2a0d602f708d63f86ca3cc89,双桥区
220,108,267,承德应用技术职业学院,4113014632,河北省,承德市,专科,nan,承德应用技术职业学院(北校区),117.972222,40.931691,2cc648e367e50c5097031930,双桥区
221,109,268,邯郸幼儿师范高等专科学校,4113014686,河北省,邯郸市,专科,nan,邯郸幼儿师范高等专科学校,114.212071,36.662804,a05feaa8db45eb5425e0a054,武安市
222,109,268,邯郸幼儿师范高等专科学校,4113014686,河北省,邯郸市,专科,nan,邯郸幼儿师范高等专科学校(大名校区),115.158387,36.29446,925c550f6580e4b25a3ac86b,大名县
223,110,269,邯郸科技职业学院,4113014695,河北省,邯郸市,专科,nan,邯郸科技职业学院,114.428306,36.460492,59b50716d0268ca526d2bbc5,邯山区
224,111,270,唐山海运职业学院,4113014696,河北省教育厅,唐山市,专科,民办,唐山海运职业学院,118.602207,39.192901,e5d7f880b495a66ea1d23088,曹妃甸区
225,111,270,唐山海运职业学院,4113014696,河北省教育厅,唐山市,专科,民办,唐山海运职业学院,118.602081,39.194306,a6f0744a20e473a21b94c6db,曹妃甸区
226,112,271,邢台应用技术职业学院,4113014742,河北省教育厅,邢台市,专科,民办,邢台应用技术职业学院,115.336114,36.994302,cca94205b6da63790b69d9c3,威县
227,113,306,山西省财政税务专科学校,4114011630,山西省,太原市,专科,nan,山西省财政税务专科学校,112.52385,37.857968,ebad788f3d9a194ac17da239,万柏林区
228,113,306,山西省财政税务专科学校,4114011630,山西省,太原市,专科,nan,山西省财政税务专科学校北院小区,112.521754,37.860935,ff27ea1a03789ff701294f1b,万柏林区
229,113,306,山西省财政税务专科学校,4114011630,山西省,太原市,专科,nan,山西省财政税务专科学校(北院),112.525292,37.860666,5ff01fdae0d58c938605bfe8,万柏林区
230,114,307,长治职业技术学院,4114012388,山西省,长治市,专科,nan,长治职业技术学院(北校区),113.138337,36.222086,0a0704248dc3473ddbecedf9,潞州区
231,114,307,长治职业技术学院,4114012388,山西省,长治市,专科,nan,长治职业技术学院(东校区),113.125494,36.189413,09185c5687cc4b5cf019378a,潞州区
232,114,307,长治职业技术学院,4114012388,山西省,长治市,专科,nan,长治职业技术学院,113.111594,36.23171,7c433fd03c0f49fe740269b0,潞州区
233,114,307,长治职业技术学院,4114012388,山西省,长治市,专科,nan,长治职业技术学院,113.137923,36.22043,73892f83ad0cbd3006fef5ae,潞州区
234,114,307,长治职业技术学院,4114012388,山西省,长治市,专科,nan,长治职业技术学院,113.137851,36.220859,e0b834f21710f9b0ece4a5d7,潞州区
235,115,308,山西艺术职业学院,4114012704,山西省,太原市,专科,nan,山西艺术职业学院,112.579999,37.858856,589aaddd7c8950ebaeb22a8a,迎泽区
236,115,308,山西艺术职业学院,4114012704,山西省,太原市,专科,nan,山西艺术职业学院(奶生堂校区),112.565277,37.877417,5c56edd624ab045ba1d2305a,杏花岭区
237,115,308,山西艺术职业学院,4114012704,山西省,太原市,专科,nan,山西艺术职业学院(影视传媒分院),112.481838,37.858143,e96b4420de326c5a82288a6e,万柏林区
238,115,308,山西艺术职业学院,4114012704,山西省,太原市,专科,nan,山西艺术职业学院(奶生堂校区)-家属院,112.565852,37.877559,96acda27300b799ff33cbae7,杏花岭区
239,115,308,山西艺术职业学院,4114012704,山西省,太原市,专科,nan,山西艺术职业学院-家属区,112.58042,37.859498,1a3ed292bfd5ba7be81e978c,迎泽区
240,116,309,晋城职业技术学院,4114012774,山西省,晋城市,专科,nan,晋城职业技术学院,112.879333,35.494757,af1ae56b8db6bb134207c14f,城区
241,117,310,山西药科职业学院,4114012776,山西省,太原市,专科,nan,山西药科职业学院,112.657831,37.782726,d305db1f84f81f40922ca3b3,小店区
242,117,310,山西药科职业学院,4114012776,山西省,太原市,专科,nan,山西药科职业学院,112.659347,37.781243,7851b8d695113dd2bea240e2,小店区
243,117,310,山西药科职业学院,4114012776,山西省,太原市,专科,nan,山西药科职业学院,112.659193,37.781235,dc3478dcbee00d7bb7265516,小店区
244,117,310,山西药科职业学院,4114012776,山西省,太原市,专科,nan,山西药科职业学院,112.659501,37.78125,93d5cd3be5c5376acac3db97,小店区
245,119,312,山西机电职业技术学院,4114012888,山西省,长治市,专科,nan,山西机电职业技术学院,113.141,36.2144,7d5f3a0a39a6574a2db90885,城区
246,119,312,山西机电职业技术学院,4114012888,山西省,长治市,专科,nan,山西机电职业技术学院(东湖校区),113.069469,36.547204,78b79164bd2ce747d52ce27d,襄垣县
247,119,312,山西机电职业技术学院,4114012888,山西省,长治市,专科,nan,山西机电职业技术学院(易通校区),113.082583,36.145109,8923b304b1004db2b75f1e4c,上党区
248,120,313,山西财贸职业技术学院,4114012890,山西省,太原市,专科,nan,山西财贸职业技术学院,112.661353,37.781328,9b364d33c417396ee8e5823f,小店区
249,120,313,山西财贸职业技术学院,4114012890,山西省,太原市,专科,nan,山西财贸职业技术学院,112.661353,37.781328,94664d18f342335ef02d830c,小店区
250,121,314,山西林业职业技术学院,4114012891,山西省,太原市,专科,nan,山西林业职业技术学院,112.54596,37.901799,3245ad6ceeee96e513293568,杏花岭区
251,121,314,山西林业职业技术学院,4114012891,山西省,太原市,专科,nan,山西林业职业技术学院住宅楼小区,112.544395,37.902142,ec0c6dba2e46e035c42ba17a,尖草坪区
252,122,315,山西水利职业技术学院,4114012892,山西省,运城市,专科,nan,山西水利职业技术学院(运城校区),111.041357,35.059046,9fbfeef20e823944ede4a53a,盐湖区
253,123,316,阳泉职业技术学院,4114012893,山西省,阳泉市,专科,nan,阳泉职业技术学院,113.633472,37.894388,bd95e3444babd2ec8f1a89a7,郊区
254,123,316,阳泉职业技术学院,4114012893,山西省,阳泉市,专科,nan,阳泉职业技术学院,113.634299,37.893475,919f3fac753ae9548d7727c7,郊区
255,124,317,临汾职业技术学院,4114013171,山西省,临汾市,专科,nan,临汾职业技术学院,111.622562,36.065525,5ce2637d6ab31250ae31e52b,尧都区
256,124,317,临汾职业技术学院,4114013171,山西省,临汾市,专科,nan,临汾职业技术学院(二校区),111.538802,36.112281,50fb64ff3d25255ce9f853dc,尧都区
257,124,317,临汾职业技术学院,4114013171,山西省,临汾市,专科,nan,临汾职业技术学院二中路家属院,111.554136,36.09165,b0973f3075af24d1344aaebb,尧都区
258,124,317,临汾职业技术学院,4114013171,山西省,临汾市,专科,nan,临汾职业技术学院-临汾铁路工程学校,111.617695,36.06482,aae7b6a8622ad2196f4760a9,尧都区
259,125,318,山西职业技术学院,4114013528,山西省,太原市,专科,nan,山西职业技术学院,112.589978,37.801789,d7624d36c2c010d409a8d446,小店区
260,125,318,山西职业技术学院,4114013528,山西省,太原市,专科,nan,山西职业技术学院(长风校区),112.605131,37.818073,5b25f446625d54eb1029355f,迎泽区
261,125,318,山西职业技术学院,4114013528,山西省,太原市,专科,nan,山西职业技术学院-西区,112.582843,37.801129,7285f13d75955498901fc91a,小店区
262,126,319,山西金融职业学院,4114013530,山西省,太原市,专科,nan,山西金融职业学院,112.536367,37.960281,af1ae56b11fe276f4307c182,尖草坪区
263,127,320,太原城市职业技术学院,4114013532,山西省,太原市,专科,nan,太原城市职业技术学院,112.535568,37.895979,f5e3bcaecab2f2c05e17c35a,尖草坪区
264,127,320,太原城市职业技术学院,4114013532,山西省,太原市,专科,nan,太原城市职业技术学院(建设路校区),112.591819,37.860902,4768f13b1fdcea12a2d23000,迎泽区
265,128,321,山西信息职业技术学院,4114013541,山西省教育厅,临汾市,专科,民办,山西信息职业技术学院,111.550161,36.129509,9ab9d030ba9788662cb17ec7,尧都区
266,129,322,山西体育职业学院,4114013692,山西省,太原市,专科,nan,山西体育职业学院,112.569938,37.786514,9b17ea23a520aa3a4054d70b,小店区
267,130,323,山西警官职业学院,4114013693,山西省,太原市,专科,nan,山西警官职业学院,112.602982,37.828457,1020060f2416a7a71894c65f,迎泽区
268,130,323,山西警官职业学院,4114013693,山西省,太原市,专科,nan,山西警官职业学院-家属院,112.601596,37.828321,bc76f81eaccf49711894c62c,迎泽区
269,130,323,山西警官职业学院,4114013693,山西省,太原市,专科,nan,山西警官职业学院生活区,112.601627,37.828443,e351139da4da5994dbd8910c,迎泽区
270,131,324,山西国际商务职业学院,4114013694,山西省,太原市,专科,nan,山西国际商务职业学院,112.60751,37.815655,9c42c090f82381b35b10937e,小店区
271,132,325,潞安职业技术学院,4114013695,山西省,长治市,专科,nan,潞安职业技术学院,112.997362,36.447193,b3aa435d8cee440a1476439f,襄垣县
272,132,325,潞安职业技术学院,4114013695,山西省,长治市,专科,nan,潞安职业技术学院-南区,112.997517,36.446755,1acc7a75092e11f7cf06a4c7,襄垣县
273,132,325,潞安职业技术学院,4114013695,山西省,长治市,专科,nan,潞安职业技术学院-北区,112.996064,36.448736,16b98e4739d249956f4760ac,襄垣县
274,132,325,潞安职业技术学院,4114013695,山西省,长治市,专科,nan,潞安职业技术学院-应急管理学院,112.997582,36.447088,91131a8e5a9100fb14b54b63,襄垣县
275,133,326,太原旅游职业学院,4114013696,山西省,太原市,专科,nan,太原旅游职业学院,112.606566,37.69948,9f97b1c5deb8007bb64f544f,小店区
276,133,326,太原旅游职业学院,4114013696,山西省,太原市,专科,nan,太原旅游职业学院,112.588056,37.838106,0f2748b30324483400ff2d67,小店区
277,134,327,山西旅游职业学院,4114013697,山西省,太原市,专科,nan,山西旅游职业学院,112.627041,37.810224,a7c56ee06c650eb2a3acc45f,小店区
278,135,328,山西管理职业学院,4114013698,山西省,临汾市,专科,nan,山西管理职业学院,111.513094,36.147102,4edf9fbf3348d295cc06a42a,尧都区
279,135,328,山西管理职业学院,4114013698,山西省,临汾市,专科,nan,山西管理职业学院,111.516414,36.146524,1d7e8b60411e280ec27da2fb,尧都区
280,135,328,山西管理职业学院,4114013698,山西省,临汾市,专科,nan,山西管理职业学院,111.51589,36.14612,a39b62e8da75faaf78f79693,尧都区
281,135,328,山西管理职业学院,4114013698,山西省,临汾市,专科,nan,山西管理职业学院,111.516152,36.146322,57789196e29600a294ec84fb,尧都区
282,136,329,山西电力职业技术学院,4114013745,山西省,太原市,专科,nan,山西电力职业技术学院-北区,112.4987,37.783683,3fe13f2a49aa1cb7b52655a2,晋源区
283,137,330,忻州职业技术学院,4114013821,山西省,忻州市,专科,nan,忻州职业技术学院,112.741829,38.477165,e96b4420c8c77a5882288a63,忻府区
284,138,331,山西同文职业技术学院,4114013862,山西省教育厅,晋中市,专科,民办,山西同文职业技术学院,111.893697,37.037491,c8b5cdef917c9802130daa3d,介休市
285,139,332,晋中职业技术学院,4114013913,山西省,晋中市,专科,nan,晋中职业技术学院(东校区),112.727655,37.692277,7d5f3a0a5e9b72352db908b5,榆次区
286,139,332,晋中职业技术学院,4114013913,山西省,晋中市,专科,nan,晋中职业技术学院(北门),112.721661,37.698544,d1e9fea32ee0a274a5da396c,榆次区
287,140,333,山西华澳商贸职业学院,4114013914,山西省教育厅,晋中市,专科,民办,山西华澳商贸职业学院,112.646329,37.677796,e913667dc27b53eeb1077d93,榆次区
288,142,335,运城幼儿师范高等专科学校,4114014093,山西省,运城市,专科,nan,运城幼儿师范高等专科学校,111.071194,35.10486,d5f93c0ed96e665deddfca35,盐湖区
289,142,335,运城幼儿师范高等专科学校,4114014093,山西省,运城市,专科,nan,运城幼儿师范高等专科学校家属院,111.010266,35.028533,d0e1253c5004b190e31103b7,盐湖区
290,142,335,运城幼儿师范高等专科学校,4114014093,山西省,运城市,专科,nan,运城幼儿师范高等专科学校(基础教学部),111.070356,35.104083,bd7381db9df172d2f4c59cad,盐湖区
291,143,336,山西老区职业技术学院,4114014105,山西省教育厅,太原市,专科,民办,山西老区职业技术学院,112.520878,37.907786,34059f97466b485771455b33,尖草坪区
292,144,337,山西经贸职业学院,4114014177,山西省,太原市,专科,nan,山西经贸职业学院(南校区),112.455811,37.735204,55fa2c0b6faac72e1ce99973,晋源区
293,144,337,山西经贸职业学院,4114014177,山西省,太原市,专科,nan,山西经贸职业学院,112.535963,37.845693,923ffd001c1440b6d92f285a,万柏林区
294,144,337,山西经贸职业学院,4114014177,山西省,太原市,专科,nan,山西经贸职业学院(北校区),112.535918,37.844774,bb42bf20ee9d3c0200ff2dda,万柏林区
295,144,337,山西经贸职业学院,4114014177,山西省,太原市,专科,nan,山西经贸职业学院(南门),112.535795,37.844743,ba3134bbdb8364342efaa77e,万柏林区
296,145,338,朔州职业技术学院,4114014186,山西省,朔州市,专科,nan,朔州职业技术学院,112.41351,39.307274,beabdbf453df8f997169d3b3,朔城区
297,145,338,朔州职业技术学院,4114014186,山西省,朔州市,专科,nan,朔州职业技术学院,112.416858,39.308807,3347b36aa372fe6757bfffa2,朔城区
298,146,339,山西铁道职业技术学院,4114014247,山西省,太原市,专科,nan,山西铁道职业技术学院,112.621381,37.886867,f757e6ee5daba014260bd065,杏花岭区
299,147,340,晋中师范高等专科学校,4114014270,山西省,晋中市,专科,nan,晋中师范高等专科学校,112.74022,37.731398,05dd7d5f789a7f00ad080f10,榆次区
300,148,341,阳泉师范高等专科学校,4114014271,山西省,阳泉市,专科,nan,阳泉师范高等专科学校,113.624736,37.809602,6875a583d4ab9907bda2407c,平定县
301,149,342,山西青年职业学院,4114014336,山西省,太原市,专科,nan,山西青年职业学院,112.606306,37.704114,e331439a7451f1086140a9d5,小店区
302,149,342,山西青年职业学院,4114014336,山西省,太原市,专科,nan,山西青年职业学院-省团委团校,112.608432,37.704659,0cc8d25e7ebbb9e02cb90857,小店区
303,150,343,运城护理职业学院,4114014397,山西省,运城市,专科,nan,运城护理职业学院,110.929394,35.124474,11ff142e04effbce12882488,盐湖区
304,150,343,运城护理职业学院,4114014397,山西省,运城市,专科,nan,运城护理职业学院,110.931413,35.122335,51f384c0d409aab76f3e1b49,盐湖区
305,150,343,运城护理职业学院,4114014397,山西省,运城市,专科,nan,运城护理职业学院小区,110.930661,35.12637,b5e27f1972b81d51ca1b9577,盐湖区
306,151,344,运城师范高等专科学校,4114014461,山西省,运城市,专科,nan,运城师范高等专科学校,110.927665,35.134705,b20f9e3ff2bd79ba1329356b,盐湖区
307,151,344,运城师范高等专科学校,4114014461,山西省,运城市,专科,nan,运城师范高等专科学校,110.927314,35.13528,1f2d04af867be28aeb1e9712,盐湖区
308,151,344,运城师范高等专科学校,4114014461,山西省,运城市,专科,nan,运城师范高等专科学校,110.927685,35.134568,5d78c5a1ff3696e4c16c145d,盐湖区
309,151,344,运城师范高等专科学校,4114014461,山西省,运城市,专科,nan,运城师范高等专科学校,110.927934,35.134675,ca36b9afef6ef569e812e424,盐湖区
310,152,345,朔州师范高等专科学校,4114014462,山西省,朔州市,专科,nan,朔州师范高等专科学校,112.463009,39.382779,b723bc8817c6b20a0aa8d476,朔城区
311,153,346,吕梁职业技术学院,4114014500,山西省,吕梁市,专科,nan,吕梁职业技术学院,111.773904,37.125556,a9221fd06ff270b2da2f280e,孝义市
312,153,346,吕梁职业技术学院,4114014500,山西省,吕梁市,专科,nan,吕梁职业技术学院(南校区),111.763077,37.122293,7b7279104d8732ba84154175,孝义市
313,153,346,吕梁职业技术学院,4114014500,山西省,吕梁市,专科,nan,吕梁职业技术学院南校区,111.760685,37.119916,a2f0fdb5383b7ed76cc02c89,孝义市
314,153,346,吕梁职业技术学院,4114014500,山西省,吕梁市,专科,nan,吕梁职业技术学院南校区,111.760982,37.119948,98552760b5573d15a1a9344c,孝义市
315,154,347,大同师范高等专科学校,4114014627,山西省,大同市,专科,nan,大同师范高等专科学校,113.234427,40.082659,69fcd6dfddfd382ecb2915a4,平城区
316,155,348,太原幼儿师范高等专科学校,4114014628,山西省,太原市,专科,nan,太原幼儿师范高等专科学校(徐沟校区),112.503224,37.568426,b9975cbfd14e25bda104642e,清徐县
317,155,348,太原幼儿师范高等专科学校,4114014628,山西省,太原市,专科,nan,太原幼儿师范高等专科学校(兴华校区),112.519097,37.893901,c017c367a06f6ad2fda77816,万柏林区
318,155,348,太原幼儿师范高等专科学校,4114014628,山西省,太原市,专科,nan,太原幼儿师范高等专科学校静馨园K区,112.504168,37.567339,225951cea38f50d63913fdd2,清徐县
319,155,348,太原幼儿师范高等专科学校,4114014628,山西省,太原市,专科,nan,太原幼儿师范高等专科学校静馨园N区,112.503504,37.567552,9187553df3ee67c841d63e84,清徐县
320,155,348,太原幼儿师范高等专科学校,4114014628,山西省,太原市,专科,nan,太原幼儿师范高等专科学校静馨园J区,112.504037,37.567711,ecf5718d462d149b7bf79632,清徐县
321,155,348,太原幼儿师范高等专科学校,4114014628,山西省,太原市,专科,nan,太原幼儿师范高等专科学校静馨园A区,112.501752,37.568006,de68bbbba505308bcf06a40b,清徐县
322,156,349,山西工程职业学院,4114014681,山西省,太原市,专科,nan,山西工程职业学院,112.555701,37.887164,9f91fe222cfa92a40f0a702b,杏花岭区
323,156,349,山西工程职业学院,4114014681,山西省,太原市,专科,nan,山西工程职业学院(唐槐校区),112.612053,37.685163,57bb69b0f9498872a8059dd9,小店区
324,157,350,长治幼儿师范高等专科学校,4114014687,山西省,长治市,专科,nan,长治幼儿师范高等专科学校,113.087135,36.228593,a08f90b437a4dffb344aae02,潞州区
325,158,351,山西通用航空职业技术学院,4114014697,山西省,大同市,专科,nan,山西通用航空职业技术学院,113.404192,39.944283,2432afd98f1a83dd902ca371,云州区
326,159,352,朔州陶瓷职业技术学院,4114014698,山西省,朔州市,专科,nan,朔州陶瓷职业技术学院,113.119895,39.853556,aaf0ff4f71a7ac53f50e77be,怀仁市
327,159,352,朔州陶瓷职业技术学院,4114014698,山西省,朔州市,专科,nan,朔州陶瓷职业技术学院,113.118038,39.851605,57450589706075b108f5eb4a,怀仁市
328,159,352,朔州陶瓷职业技术学院,4114014698,山西省,朔州市,专科,nan,朔州陶瓷职业技术学院,113.118624,39.85165,ea035164acf3b2d77f29bd94,怀仁市
329,160,353,山西卫生健康职业学院,4214050166,山西省,太原市,专科,nan,山西卫生健康职业学院(双东校区),112.585237,37.850074,b4218492ee1f318cab175af3,迎泽区
330,161,371,内蒙古建筑职业技术学院,4115010871,内蒙古自治区,呼和浩特市,专科,nan,内蒙古建筑职业技术学院(北校区),111.641129,40.879276,23116913c3ae5afd734b8717,回民区
331,161,371,内蒙古建筑职业技术学院,4115010871,内蒙古自治区,呼和浩特市,专科,nan,内蒙古建筑职业技术学院,111.645439,40.822646,7d5f3a0a3536ab4b2cb90815,回民区
332,161,371,内蒙古建筑职业技术学院,4115010871,内蒙古自治区,呼和浩特市,专科,nan,内蒙古建筑职业技术学院,111.638614,40.877652,b524b8107355359b48cc4aef,回民区
333,162,372,内蒙古丰州职业学院,4115011429,内蒙古自治区教育厅,呼和浩特市,专科,民办,内蒙古丰州职业学院,111.717271,40.807849,f67d8a4651ad07e33517dca7,赛罕区
334,162,372,内蒙古丰州职业学院,4115011429,内蒙古自治区教育厅,呼和浩特市,专科,民办,内蒙古丰州职业学院,111.890495,40.858248,10583fd9850b891edbd891e5,赛罕区
335,162,372,内蒙古丰州职业学院,4115011429,内蒙古自治区教育厅,呼和浩特市,专科,民办,内蒙古丰州职业学院-北区,111.717782,40.808092,06d38a4aefb1cb6e0d3ddad2,赛罕区
336,162,372,内蒙古丰州职业学院,4115011429,内蒙古自治区教育厅,呼和浩特市,专科,民办,内蒙古丰州职业学院中山学院,111.805762,40.503105,4b8f3e38175c1bac99005081,和林格尔县
337,163,373,包头职业技术学院,4115012057,内蒙古自治区,包头市,专科,nan,包头职业技术学院,109.959862,40.650215,89fd4ea3db47a547e5e9652e,青山区
338,163,373,包头职业技术学院,4115012057,内蒙古自治区,包头市,专科,nan,包头职业技术学院(呼得木林校区),109.896185,40.674897,2848ffd6d8bbb40f48cc4a28,青山区
339,163,373,包头职业技术学院,4115012057,内蒙古自治区,包头市,专科,nan,包头职业技术学院,109.955893,40.647834,2ee218d010c2a09e4107c15b,青山区
340,163,373,包头职业技术学院,4115012057,内蒙古自治区,包头市,专科,nan,包头职业技术学院,109.955584,40.646894,bd3320548472bd148605bfd6,青山区
341,164,374,兴安职业技术学院,4115012443,内蒙古自治区,兴安盟,专科,nan,兴安职业技术学院(新校区),122.026259,46.069394,7de6a01bcb34f0d83be4a684,科尔沁右翼前旗
342,164,374,兴安职业技术学院,4115012443,内蒙古自治区,兴安盟,专科,nan,兴安职业技术学院,122.032806,46.110542,2e1e2dc665116a1e100daa18,乌兰浩特市
343,164,374,兴安职业技术学院,4115012443,内蒙古自治区,兴安盟,专科,nan,兴安职业技术学院,122.017236,46.071977,becfe39f36c7854eb03c8170,科尔沁右翼前旗
344,164,374,兴安职业技术学院,4115012443,内蒙古自治区,兴安盟,专科,nan,兴安职业技术学院,122.017236,46.071977,69f164959793ffdef03cba85,科尔沁右翼前旗
345,164,374,兴安职业技术学院,4115012443,内蒙古自治区,兴安盟,专科,nan,兴安职业技术学院-音乐分院,122.029004,46.108621,b25f6d80a2aba787eedfca57,乌兰浩特市
346,164,374,兴安职业技术学院,4115012443,内蒙古自治区,兴安盟,专科,nan,兴安职业技术学院聚橙乌兰牧骑学院,122.029003,46.108619,2ba81cd6f77017b50f0e6bf3,乌兰浩特市
347,165,375,呼和浩特职业学院,4115012670,内蒙古自治区,呼和浩特市,专科,nan,呼和浩特职业学院(新校区),111.844452,40.902761,c5ddcc08873fa0bbd813183c,赛罕区
348,165,375,呼和浩特职业学院,4115012670,内蒙古自治区,呼和浩特市,专科,nan,呼和浩特职业学院,111.851866,40.905251,ee9ad48a6bced2ef1b94c68e,赛罕区
349,165,375,呼和浩特职业学院,4115012670,内蒙古自治区,呼和浩特市,专科,nan,呼和浩特职业学院,111.851787,40.9053,419a9d9dbb6992a7744ff16a,赛罕区
350,165,375,呼和浩特职业学院,4115012670,内蒙古自治区,呼和浩特市,专科,nan,呼和浩特职业学院(西校区),111.662912,40.848678,5e8f72bfac62a5e7acee7a1d,新城区
351,165,375,呼和浩特职业学院,4115012670,内蒙古自治区,呼和浩特市,专科,nan,呼和浩特职业学院住宅小区,111.66507,40.847188,eef2d528d674eba73be4a617,新城区
352,166,376,包头轻工职业技术学院,4115012671,内蒙古自治区,包头市,专科,nan,包头轻工职业技术学院,109.954341,40.641924,e102414e78f813502dfaa74d,青山区
353,167,377,内蒙古电子信息职业技术学院,4115012673,内蒙古自治区,呼和浩特市,专科,nan,内蒙古电子信息职业技术学院,111.8569,40.903691,e3c36f147fdf30f0e40738ce,赛罕区
354,167,377,内蒙古电子信息职业技术学院,4115012673,内蒙古自治区,呼和浩特市,专科,nan,内蒙古电子信息职业技术学院-电子学院,111.853559,40.905055,06a3f0e113104f89b6147ff9,赛罕区
355,168,378,内蒙古机电职业技术学院,4115012674,内蒙古自治区,呼和浩特市,专科,nan,内蒙古机电职业技术学院,111.853126,40.911173,0dc3d82d24c9c51175e5b642,赛罕区
356,168,378,内蒙古机电职业技术学院,4115012674,内蒙古自治区,呼和浩特市,专科,nan,内蒙古机电职业技术学院,111.850633,40.908771,60b1708fe3b0b03185420ef7,赛罕区
357,168,378,内蒙古机电职业技术学院,4115012674,内蒙古自治区,呼和浩特市,专科,nan,内蒙古机电职业技术学院,111.850653,40.908886,b8abab14f1f85fb7c26c1493,赛罕区
358,169,379,内蒙古化工职业学院,4115012675,内蒙古自治区,呼和浩特市,专科,nan,内蒙古化工职业学院,111.858743,40.913189,41572e00154246c9b45f1e3c,新城区
359,169,379,内蒙古化工职业学院,4115012675,内蒙古自治区,呼和浩特市,专科,nan,内蒙古化工职业学院(北区),111.725846,40.83186,a923da6d1cb39e4e4e776ef9,赛罕区
360,171,381,锡林郭勒职业学院,4115012677,内蒙古自治区,锡林郭勒盟,专科,nan,锡林郭勒职业学院,116.033895,43.940908,228cfbb6b3f7d0541d1d1191,锡林浩特市
361,171,381,锡林郭勒职业学院,4115012677,内蒙古自治区,锡林郭勒盟,专科,nan,锡林郭勒职业学院(多伦分院),116.51813,42.21263,597a2ae65b310cbe88b9880e,多伦县
362,171,381,锡林郭勒职业学院,4115012677,内蒙古自治区,锡林郭勒盟,专科,nan,锡林郭勒职业学院(西北1门),116.034086,43.938471,bb313ff00b46107245e27478,锡林浩特市
363,171,381,锡林郭勒职业学院,4115012677,内蒙古自治区,锡林郭勒盟,专科,nan,锡林郭勒职业学院体育学院,116.034094,43.93482,b79099fd38b10251b5147ffe,锡林浩特市
364,171,381,锡林郭勒职业学院,4115012677,内蒙古自治区,锡林郭勒盟,专科,nan,锡林郭勒职业学院继续教育学院,116.038208,43.935715,bc1e3678a86614fdb75f1e2e,锡林浩特市
365,172,382,内蒙古警察职业学院,4115012797,内蒙古自治区,呼和浩特市,专科,nan,内蒙古警察职业学院,111.701494,40.878097,bc82984985d5d807a3acc4b2,新城区
366,172,382,内蒙古警察职业学院,4115012797,内蒙古自治区,呼和浩特市,专科,nan,内蒙古警察职业学院,111.817297,40.580086,e1b0a52326f291c1adee7a66,和林格尔县
367,172,382,内蒙古警察职业学院,4115012797,内蒙古自治区,呼和浩特市,专科,nan,内蒙古警察职业学院,111.817096,40.580152,37a90e8a4b9077eff11937bf,和林格尔县
368,172,382,内蒙古警察职业学院,4115012797,内蒙古自治区,呼和浩特市,专科,nan,内蒙古警察职业学院,111.816896,40.580218,e86c72720722e55fbc484251,和林格尔县
369,173,383,内蒙古体育职业学院,4115012894,内蒙古自治区,呼和浩特市,专科,nan,内蒙古体育职业学院,111.680546,40.864971,08fc93dff46023919b68b43d,新城区
370,173,383,内蒙古体育职业学院,4115012894,内蒙古自治区,呼和浩特市,专科,nan,内蒙古体育职业学院-家属院,111.680257,40.863817,9bf76a533d96d01b73210bb6,新城区
371,174,384,乌兰察布职业学院,4115013699,内蒙古自治区,乌兰察布市,专科,nan,乌兰察布职业学院,113.185269,40.981298,f0dbc45fbf776edfac080fba,察哈尔右翼前旗
372,175,385,通辽职业学院,4115013740,内蒙古自治区,通辽市,专科,nan,通辽职业学院,122.257978,43.687534,8fa14fc3d7caf56ef7eafcd0,科尔沁区
373,175,385,通辽职业学院,4115013740,内蒙古自治区,通辽市,专科,nan,通辽职业学院(信息技术楼),122.25832,43.688526,eb37368c1775fe3f4e5547a5,科尔沁区
374,176,386,科尔沁艺术职业学院,4115013741,内蒙古自治区,通辽市,专科,nan,科尔沁艺术职业学院,122.266064,43.687903,a1418eb4bb0ec502ebe5822d,科尔沁区
375,177,387,内蒙古交通职业技术学院,4115013824,内蒙古自治区,赤峰市,专科,nan,内蒙古交通职业技术学院,118.898637,42.278204,33441a58887ac89ac9fa5fd0,松山区
376,177,387,内蒙古交通职业技术学院,4115013824,内蒙古自治区,赤峰市,专科,nan,内蒙古交通职业技术学院(北区),118.976477,42.293346,b184fc157eefeac057bfff1b,红山区
377,178,388,包头钢铁职业技术学院,4115013864,内蒙古自治区,包头市,专科,nan,包头钢铁职业技术学院,109.840921,40.630663,9aa5f22f1dc552c85b109333,昆都仑区
378,178,388,包头钢铁职业技术学院,4115013864,内蒙古自治区,包头市,专科,nan,包头钢铁职业技术学院,109.82513,40.661638,b33a2919161f2c39b11e36eb,昆都仑区
379,179,389,乌海职业技术学院,4115013915,内蒙古自治区,乌海市,专科,nan,乌海职业技术学院,106.805551,39.656421,060f5e5329f41ed7081cc7f6,海勃湾区
380,180,390,内蒙古科技职业学院,4115014048,内蒙古自治区教育厅,呼和浩特市,专科,民办,内蒙古科技职业学院,111.813355,40.86247,97d97723e242925358bbbc40,赛罕区
381,181,391,内蒙古北方职业技术学院,4115014049,内蒙古自治区教育厅,呼和浩特市,专科,民办,内蒙古北方职业技术学院,111.849057,40.903717,1bf85b258dc8f2a4a1a93416,赛罕区
382,183,393,内蒙古经贸外语职业学院,4115014051,内蒙古自治区教育厅,呼和浩特市,专科,民办,内蒙古经贸外语职业学院,111.701074,40.901194,04bdf4a35d028d32354aae31,新城区
383,184,394,包头铁道职业技术学院,4115014187,内蒙古自治区,包头市,专科,nan,包头铁道职业技术学院,110.008864,40.660823,61549c39b1370e5ddc1e52e9,九原区
384,185,395,乌兰察布医学高等专科学校,4115014219,内蒙古自治区,乌兰察布市,专科,nan,乌兰察布医学高等专科学校,113.175088,40.986693,42519e6dd516671a6268584f,察哈尔右翼前旗
385,186,396,鄂尔多斯职业学院,4115014248,内蒙古自治区,鄂尔多斯市,专科,nan,鄂尔多斯职业学院,109.830261,39.622539,fc1d78a902018e4bb6147fbf,康巴什区
386,189,399,满洲里俄语职业学院,4115014285,内蒙古自治区,呼伦贝尔市,专科,nan,满洲里俄语职业学院,117.421975,49.61475,3bfe0145f202736f73455b41,满洲里市
387,190,400,内蒙古能源职业学院,4115014337,内蒙古自治区教育厅,呼和浩特市,专科,民办,内蒙古能源职业学院,111.776022,40.909672,6ac9a18239b07bc14d2fdffe,新城区
388,190,400,内蒙古能源职业学院,4115014337,内蒙古自治区教育厅,呼和浩特市,专科,民办,内蒙古能源职业学院,111.77357,40.909198,e4320bbcb6469a95fd0eb0bd,新城区
389,190,400,内蒙古能源职业学院,4115014337,内蒙古自治区教育厅,呼和浩特市,专科,民办,内蒙古能源职业学院-首创驾校,111.775376,40.908135,86fc2ac776f222eaeddfca4d,新城区
390,191,401,赤峰工业职业技术学院,4115014338,内蒙古自治区,赤峰市,专科,nan,赤峰工业职业技术学院,118.880004,42.278886,dbe40a08333c5d974d776e59,松山区
391,192,402,阿拉善职业技术学院,4115014339,内蒙古自治区,阿拉善盟,专科,nan,阿拉善职业技术学院,105.652193,38.840569,b99c458aed58692546572699,阿拉善左旗
392,192,402,阿拉善职业技术学院,4115014339,内蒙古自治区,阿拉善盟,专科,nan,阿拉善职业技术学院,106.654924,39.432291,6a369e26dd58b37ac6effbf7,阿拉善左旗
393,193,403,内蒙古美术职业学院,4115014387,内蒙古自治区教育厅,巴彦淖尔市,专科,民办,内蒙古美术职业学院,107.469339,40.724018,33c7da93e7fd559ffd0eb0ae,临河区
394,194,404,内蒙古民族幼儿师范高等专科学校,4115014463,内蒙古自治区,鄂尔多斯市,专科,nan,内蒙古民族幼儿师范高等专科学校,109.914183,39.821401,8b580a82188d080280a00c88,东胜区
395,195,405,鄂尔多斯生态环境职业学院,4115014501,内蒙古自治区,鄂尔多斯市,专科,nan,鄂尔多斯生态环境职业学院,109.834498,39.631397,5baf948483cbc00200ff2d99,康巴什区
396,196,406,扎兰屯职业学院,4115014539,内蒙古自治区,呼伦贝尔市,专科,nan,扎兰屯职业学院(吊桥校区),122.741538,48.020957,fea40d0f6eadccac08f5eb50,扎兰屯市
397,196,406,扎兰屯职业学院,4115014539,内蒙古自治区,呼伦贝尔市,专科,nan,扎兰屯职业学院(雅鲁校区),122.740353,48.017601,16b98e0d2c5ab7e32811d11d,扎兰屯市
398,196,406,扎兰屯职业学院,4115014539,内蒙古自治区,呼伦贝尔市,专科,nan,扎兰屯职业学院(明月校区),122.736942,48.023909,e28090851c0c11902bb97c67,扎兰屯市
399,197,407,赤峰应用技术职业学院,4115014699,内蒙古自治区,赤峰市,专科,nan,赤峰应用技术职业学院,118.887147,42.295955,bac0c024d5771b92db131854,松山区
400,197,407,赤峰应用技术职业学院,4115014699,内蒙古自治区,赤峰市,专科,nan,赤峰应用技术职业学院科技学院,118.885796,42.297317,faa6c26f97992c750f0e6bfe,松山区
401,198,471,朝阳师范高等专科学校,4121010171,辽宁省,朝阳市,专科,nan,朝阳师范高等专科学校,120.436012,41.536083,48287eabb823ee2f465726cf,双塔区
402,199,472,抚顺师范高等专科学校,4121010179,辽宁省,抚顺市,专科,nan,抚顺师范高等专科学校(南门),123.703016,41.788006,cece41a2e09e6604744ff1e2,望花区
403,199,472,抚顺师范高等专科学校,4121010179,辽宁省,抚顺市,专科,nan,抚顺师范高等专科学校(北门),123.699923,41.794187,c3200f1bfbb94d105cbe8682,望花区
404,200,473,锦州师范高等专科学校,4121010180,辽宁省,锦州市,专科,nan,锦州师范高等专科学校西区,121.149928,41.147472,85def3695908a0d1ac080ff4,凌河区
405,200,473,锦州师范高等专科学校,4121010180,辽宁省,锦州市,专科,nan,锦州师范高等专科学校(东区),121.182332,41.120612,5cede52a7a64368539221ca2,凌河区
406,201,474,营口职业技术学院,4121010181,辽宁省,营口市,专科,nan,营口职业技术学院,122.246854,40.609507,8bc9588155a27f27f21937be,西市区
407,201,474,营口职业技术学院,4121010181,辽宁省,营口市,专科,nan,营口职业技术学院(东校区),122.258252,40.65961,27db9008b800e197077ce89e,站前区
408,202,475,铁岭师范高等专科学校,4121010182,辽宁省,铁岭市,专科,nan,铁岭师范高等专科学校,123.753066,42.256827,dc0f0adc7ea07d5cf8221359,铁岭县
409,202,475,铁岭师范高等专科学校,4121010182,辽宁省,铁岭市,专科,nan,铁岭师范高等专科学校-艺体学院,123.753154,42.255461,e0f38206497bb9784054d73c,铁岭县
410,203,476,大连职业技术学院,4121010845,辽宁省,大连市,专科,nan,大连职业技术学院,121.496529,39.027603,083a55faccb42e79246e9821,甘井子区
411,203,476,大连职业技术学院,4121010845,辽宁省,大连市,专科,nan,大连职业技术学院(南关岭校区),121.608774,39.028567,78bd50f79f86665b31870a20,甘井子区
412,204,477,辽宁农业职业技术学院,4121010957,辽宁省,营口市,专科,nan,辽宁农业职业技术学院,122.158503,40.19013,73f75d03ad77e21b0b1cc778,鲅鱼圈区
413,204,477,辽宁农业职业技术学院,4121010957,辽宁省,营口市,专科,nan,辽宁农业职业技术学院(东),122.168781,40.192766,1d79fd8ebe6c2265bda240ac,鲅鱼圈区
414,205,478,抚顺职业技术学院,4121011037,辽宁省,抚顺市,专科,nan,抚顺职业技术学院,123.70071,41.791132,1446f528e6bec66d5f0d02a7,望花区
415,205,478,抚顺职业技术学院,4121011037,辽宁省,抚顺市,专科,nan,抚顺职业技术学院,123.702885,41.79316,3f1b0f678d3edae22afc484d,望花区
416,205,478,抚顺职业技术学院,4121011037,辽宁省,抚顺市,专科,nan,抚顺职业技术学院,123.702662,41.793317,698cbe19748a431596f08cfd,望花区
417,206,479,辽阳职业技术学院,4121011249,辽宁省,辽阳市,专科,nan,辽阳职业技术学院成教分院,123.170522,41.259984,525dcdc94b736a0a4054d728,白塔区
418,206,479,辽阳职业技术学院,4121011249,辽宁省,辽阳市,专科,nan,辽阳职业技术学院5号楼教学,123.167712,41.296382,83bce728e4e3a2d488db73ae,太子河区
419,207,480,阜新高等专科学校,4121011250,辽宁省,阜新市,专科,nan,阜新高等专科学校,121.638618,42.003262,3810c879b926878a9d09f7b9,海州区
420,207,480,阜新高等专科学校,4121011250,辽宁省,阜新市,专科,nan,阜新高等专科学校(北校区),121.642112,42.007597,9d1e1a87b2e148f8c356ac79,海州区
421,208,481,辽宁省交通高等专科学校,4121011500,辽宁省,沈阳市,专科,nan,辽宁省交通高等专科学校,123.517898,41.942296,01aeb8dfdd32918e0c0a7029,沈北新区
422,210,483,盘锦职业技术学院,4121012063,辽宁省,盘锦市,专科,nan,盘锦职业技术学院,122.112493,40.734399,2e30cc949abe4e8838e4a604,大洼区
423,210,483,盘锦职业技术学院,4121012063,辽宁省,盘锦市,专科,nan,盘锦职业技术学院(旅游管理系),122.112237,40.73271,ccac97b1eb43a153c42ba1a9,大洼区
424,213,486,辽宁职业学院,4121012592,辽宁省,铁岭市,专科,nan,辽宁职业学院,123.91016,42.311524,75d0881a17a6b0303a04b15f,银州区
425,213,486,辽宁职业学院,4121012592,辽宁省,铁岭市,专科,nan,辽宁职业学院,123.895695,42.311487,19baa1469d8080052102621e,银州区
426,213,486,辽宁职业学院,4121012592,辽宁省,铁岭市,专科,nan,辽宁职业学院,123.895667,42.311487,0452553cece4147da8f0cd34,银州区
427,213,486,辽宁职业学院,4121012592,辽宁省,铁岭市,专科,nan,辽宁职业学院,123.895688,42.311487,fbb5486f74dccce6774ff11a,银州区
428,214,487,辽宁生态工程职业学院,4121012593,辽宁省,沈阳市,专科,nan,辽宁生态工程职业学院(南校区),123.330533,41.665097,a82b2e3a9c75ae21f4e73bfe,苏家屯区
429,214,487,辽宁生态工程职业学院,4121012593,辽宁省,沈阳市,专科,nan,辽宁生态工程职业学院(北校区),123.525508,41.946902,46de967d784c27a1f6c59cf6,沈北新区
430,214,487,辽宁生态工程职业学院,4121012593,辽宁省,沈阳市,专科,nan,辽宁生态工程职业学院信息工程学院,123.329708,41.663997,533d3f7924ebfd0d6140a92f,苏家屯区
431,215,488,沈阳职业技术学院,4121012594,辽宁省,沈阳市,专科,nan,沈阳职业技术学院,123.506204,41.876893,dad739514f9049344251c0fe,大东区
432,215,488,沈阳职业技术学院,4121012594,辽宁省,沈阳市,专科,nan,沈阳职业技术学院,123.498858,41.876465,eb5a999bc9f1397821f01757,大东区
433,215,488,沈阳职业技术学院,4121012594,辽宁省,沈阳市,专科,nan,沈阳职业技术学院总院-软件学院,123.511161,41.875158,068ac13f18f548764251c06e,大东区
434,215,488,沈阳职业技术学院,4121012594,辽宁省,沈阳市,专科,nan,沈阳职业技术学院(汽车分院),123.487861,41.769924,7c7669a98821d207e6e9653e,沈河区
435,215,488,沈阳职业技术学院,4121012594,辽宁省,沈阳市,专科,nan,沈阳职业技术学院总院-城市轨道交通学院,123.506195,41.876833,2c4f0fd7dab5b85c5e0d02cd,大东区
436,217,490,辽宁金融职业学院,4121012895,辽宁省,沈阳市,专科,nan,辽宁金融职业学院,123.524822,41.944486,e3a7fd13e03de75228b97cd1,沈北新区
437,217,490,辽宁金融职业学院,4121012895,辽宁省,沈阳市,专科,nan,辽宁金融职业学院,123.528396,41.945442,8ab57fc3d9ee326a0aa8d442,沈北新区
438,218,491,辽宁轨道交通职业学院,4121012896,辽宁省,沈阳市,专科,nan,辽宁轨道交通职业学院,123.40613,41.834295,cc09bf9aaf89180525e0a058,皇姑区
439,219,492,辽宁广告职业学院,4121012897,辽宁省教育厅,沈阳市,专科,民办,辽宁广告职业学院,123.356593,41.92434,78bd50f79c99675b31870ac1,于洪区
440,220,493,辽宁机电职业技术学院,4121012898,辽宁省,丹东市,专科,nan,辽宁机电职业技术学院(黄海学院校区),124.349269,40.04063,880d212c7d357b09932ca3f5,振兴区
441,221,494,辽宁经济职业技术学院,4121012899,辽宁省,沈阳市,专科,nan,辽宁经济职业技术学院,123.498366,41.942433,64ff3be1312eedbb90114cd1,沈北新区
442,222,495,辽宁石化职业技术学院,4121012900,辽宁省,锦州市,专科,nan,辽宁石化职业技术学院,121.1288,41.141571,71cd5d1ed8d3d6876268588c,古塔区
443,222,495,辽宁石化职业技术学院,4121012900,辽宁省,锦州市,专科,nan,辽宁石化职业技术学院(南校区),121.126024,41.136993,47fec552365a3056ab0dd873,古塔区
444,227,500,大连枫叶职业技术学院,4121013961,辽宁省教育厅,大连市,专科,民办,大连枫叶职业技术学院,121.313683,38.966932,26a054db7c48fb90c26c1401,甘井子区
445,229,502,辽河石油职业技术学院,4121014077,辽宁省,盘锦市,专科,nan,辽河石油职业技术学院,121.815561,41.35273,5508504db84b65b6c7f02547,双台子区
446,229,502,辽河石油职业技术学院,4121014077,辽宁省,盘锦市,专科,nan,辽河石油职业技术学院党校校区,122.070071,41.118766,a395c1528d9d88dba2d2305f,兴隆台区
447,231,504,辽宁铁道职业技术学院,4121014188,辽宁省,锦州市,专科,nan,辽宁铁道职业技术学院,121.156479,41.150316,2ad32cc322fc46f29c95de8b,凌河区
448,231,504,辽宁铁道职业技术学院,4121014188,辽宁省,锦州市,专科,nan,辽宁铁道职业技术学院,121.154417,41.148809,008d438604e5b0e1ae080f28,凌河区
449,231,504,辽宁铁道职业技术学院,4121014188,辽宁省,锦州市,专科,nan,辽宁铁道职业技术学院,121.154521,41.148792,c8613aa515d8fb4672210ba5,凌河区
450,231,504,辽宁铁道职业技术学院,4121014188,辽宁省,锦州市,专科,nan,辽宁铁道职业技术学院,121.154339,41.148821,b3088eeeb9fb553a2fb9080d,凌河区
451,232,505,辽宁建筑职业学院,4121014189,辽宁省,辽阳市,专科,nan,辽宁建筑职业学院(北校区),123.171885,41.261515,e11601b65c0ab848f7eafc8a,白塔区
452,232,505,辽宁建筑职业学院,4121014189,辽宁省,辽阳市,专科,nan,辽宁建筑职业学院(南校区),123.165632,41.253137,45b439f372d64995a1d230ef,白塔区
453,234,507,大连装备制造职业技术学院,4121014227,辽宁省教育厅,大连市,专科,民办,大连装备制造职业技术学院,121.712478,39.208188,8a3295ab3568661ff7231003,金州区
454,236,509,辽宁现代服务职业技术学院,4121014240,辽宁省,沈阳市,专科,nan,辽宁现代服务职业技术学院,123.597412,41.93743,50f7d146259b46b972210b63,沈北新区
455,239,512,辽宁城市建设职业技术学院,4121014288,辽宁省,沈阳市,专科,nan,辽宁城市建设职业技术学院,123.498365,41.951896,275d63cd869da40e16a19015,沈北新区
456,244,517,辽宁民族师范高等专科学校,4121014464,辽宁省,沈阳市,专科,nan,辽宁民族师范高等专科学校,123.457026,41.838304,b4e2dbf33adff78f9de3214f,皇姑区
457,245,518,辽宁轻工职业学院,4121014473,辽宁省,大连市,专科,nan,辽宁轻工职业学院,121.747865,39.083375,96b672aa94d38c75ce04ef20,金州区
458,246,519,辽宁特殊教育师范高等专科学校,4121014526,辽宁省,沈阳市,专科,nan,辽宁特殊教育师范高等专科学校,123.636918,41.69357,487b0c428df718560782c2e7,浑南区
459,247,520,辽宁师范高等专科学校,4121014662,辽宁省,沈阳市,专科,nan,辽宁师范高等专科学校,123.417575,41.68919,c604666a52f151d654bfff2c,浑南区
460,248,521,鞍山职业技术学院,4121014700,辽宁省,鞍山市,专科,nan,鞍山职业技术学院,122.925362,41.15167,8c716b28bdbdc367c91b9585,铁西区
461,250,560,辽源职业技术学院,4122010847,吉林省,辽源市,专科,nan,辽源职业技术学院,125.135759,42.855258,0ed20a1505dc569756bfffb0,龙山区
462,251,561,四平职业大学,4122011044,吉林省,四平市,专科,nan,四平职业大学,124.438102,43.097427,c369b02d51bc608ea8f729af,铁东区
463,251,561,四平职业大学,4122011044,吉林省,四平市,专科,nan,四平职业大学(海丰校区),124.344912,43.145814,d7a8173e6b062c146849f3f3,铁西区
464,251,561,四平职业大学,4122011044,吉林省,四平市,专科,nan,四平职业大学,124.434929,43.098221,d1546c50c02bd487102935d0,铁东区
465,251,561,四平职业大学,4122011044,吉林省,四平市,专科,nan,四平职业大学,124.435083,43.097972,a67b651481ac09c2e5e96589,铁东区
466,251,561,四平职业大学,4122011044,吉林省,四平市,专科,nan,四平职业大学,124.434775,43.098471,c7b87ccbd81e2d83441a3204,铁东区
467,251,561,四平职业大学,4122011044,吉林省,四平市,专科,nan,四平职业大学医药学院,124.344579,43.144744,71e3459ff03a7c66eedfca6c,铁西区
468,253,563,长春金融高等专科学校,4122011440,吉林省,长春市,专科,nan,长春金融高等专科学校(莲花山校区),125.56347,43.907086,4981607421e0225db21e362b,二道区
469,257,567,吉林司法警官职业学院,4122012901,吉林省,长春市,专科,nan,吉林司法警官职业学院,125.184701,44.078728,4f32eea5cc897376d2f49e3b,宽城区
470,264,574,松原职业技术学院,4122013917,吉林省,松原市,专科,nan,松原职业技术学院,124.866426,45.179198,8eb48fa14124b9dbf32d83f5,宁江区
471,264,574,松原职业技术学院,4122013917,吉林省,松原市,专科,nan,松原职业技术学院,124.862598,45.177288,2b75036cf2911e2adeee8bac,宁江区
472,264,574,松原职业技术学院,4122013917,吉林省,松原市,专科,nan,松原职业技术学院(北校区),124.813722,45.211479,2a7a25ec379f21636c3e1b7d,宁江区
473,265,575,吉林铁道职业技术学院,4122014052,吉林省,吉林市,专科,nan,吉林铁道职业技术学院,126.556168,43.724838,32a7781ab7b2b4903586f4e5,永吉县
474,266,576,白城职业技术学院,4122014107,吉林省,白城市,专科,nan,白城职业技术学院,122.810951,45.64815,cf8fc8828d6634af9e9d6898,洮北区
475,267,577,长白山职业技术学院,4122014190,吉林省,白山市,专科,nan,长白山职业技术学院师范学院,126.406351,41.944534,ec2bd6033e78e767f5b9160e,浑江区
476,270,580,吉林城市职业技术学院,4122014426,吉林省教育厅,长春市,专科,民办,吉林城市职业技术学院,125.274512,44.015147,3c388f54fe000d69bd4842d7,宽城区
477,274,584,长春早期教育职业学院,4122014701,吉林省教育厅,长春市,专科,民办,长春早期教育职业学院,125.015682,44.014092,ad43cf0081ea1b8c6c476043,农安县
478,278,627,齐齐哈尔高等师范专科学校,4123010238,黑龙江省,齐齐哈尔市,专科,nan,齐齐哈尔高等师范专科学校,123.980191,47.320699,803708f120d89704008972b2,铁锋区
479,279,628,伊春职业学院,4123010872,黑龙江省,伊春市,专科,nan,伊春职业学院-嘉荫驾校,128.880588,47.723779,6961746f88b95e4cb7265576,伊美区
480,282,631,黑龙江建筑职业技术学院,4123012053,黑龙江省,哈尔滨市,专科,nan,黑龙江建筑职业技术学院,126.515105,45.878296,b3ccfe263ed092b04151c0b6,呼兰区
481,283,632,黑龙江艺术职业学院,4123012490,黑龙江省,哈尔滨市,专科,nan,黑龙江艺术职业学院,126.737552,45.733413,9b5c01062e868918d8d89129,香坊区
482,285,634,黑龙江林业职业技术学院,4123012724,黑龙江省,牡丹江市,专科,nan,黑龙江林业职业技术学院,129.573317,44.595274,e13d24d925832df499005004,爱民区
483,285,634,黑龙江林业职业技术学院,4123012724,黑龙江省,牡丹江市,专科,nan,黑龙江林业职业技术学院(南校区),129.5786,44.589878,17192e0bcf48d002fb2d61e9,爱民区
484,285,634,黑龙江林业职业技术学院,4123012724,黑龙江省,牡丹江市,专科,nan,黑龙江林业职业技术学院(穆棱分院),130.468902,44.690936,16a0544496106a3f770269a3,穆棱市
485,285,634,黑龙江林业职业技术学院,4123012724,黑龙江省,牡丹江市,专科,nan,黑龙江林业职业技术学院经济管理学院,129.573213,44.59519,e0f9e1469df97d91e81e9715,爱民区
486,290,639,鹤岗师范高等专科学校,4123012905,黑龙江省,鹤岗市,专科,nan,鹤岗师范高等专科学校,130.508872,47.406108,64ff3be11457c2bb90114c2e,东山区
487,292,641,哈尔滨铁道职业技术学院,4123012907,黑龙江省,哈尔滨市,专科,nan,哈尔滨铁道职业技术学院,126.644899,45.584297,14076deed030fef403294fa8,平房区
488,296,645,哈尔滨传媒职业学院,4123013302,黑龙江省教育厅,哈尔滨市,专科,民办,哈尔滨传媒职业学院,126.523845,45.58562,6e060bc5774dce4542d63ecb,南岗区
489,296,645,哈尔滨传媒职业学院,4123013302,黑龙江省教育厅,哈尔滨市,专科,民办,哈尔滨传媒职业学院,126.524813,45.584574,222b7775337ae41aed74f8de,南岗区
490,296,645,哈尔滨传媒职业学院,4123013302,黑龙江省教育厅,哈尔滨市,专科,民办,哈尔滨传媒职业学院,126.524813,45.584574,7b47ba53ca00102bc4f50d9b,南岗区
491,297,646,黑龙江生物科技职业学院,4123013447,黑龙江省,哈尔滨市,专科,nan,黑龙江生物科技职业学院,126.534841,45.873999,adfb719dc9410041f32d8334,呼兰区
492,299,648,黑龙江公安警官职业学院,4123013449,黑龙江省,哈尔滨市,专科,nan,黑龙江公安警官职业学院,126.545715,45.87403,2a7a25ec16bc00636d3e1ba0,呼兰区
493,300,649,哈尔滨城市职业学院,4123013451,黑龙江省教育厅,哈尔滨市,专科,民办,哈尔滨城市职业学院,126.807312,45.645454,83b7023e3694847e58109397,阿城区
494,301,650,黑龙江农垦科技职业学院,4123013453,黑龙江省,哈尔滨市,专科,nan,黑龙江农垦科技职业学院(北门),127.198375,45.757093,648d299db905c757ad31e544,宾县
495,302,651,黑龙江旅游职业技术学院,4123013729,黑龙江省,哈尔滨市,专科,nan,黑龙江旅游职业技术学院,126.625954,45.673299,4ea3f2f113ceceaaafcb66af,南岗区
496,302,651,黑龙江旅游职业技术学院,4123013729,黑龙江省,哈尔滨市,专科,nan,黑龙江旅游职业技术学院(太阳岛校区),126.613152,45.798204,ff142ce94d4bd5ba17c8f6f9,松北区
497,304,653,黑龙江生态工程职业学院,4123013731,黑龙江省,哈尔滨市,专科,nan,黑龙江生态工程职业学院,126.508097,45.883279,eef2d5286ab397da3be4a656,呼兰区
498,307,656,黑龙江民族职业学院,4123013935,黑龙江省,哈尔滨市,专科,nan,黑龙江民族职业学院,126.653854,45.583092,e817f9a1ebdbefd5b42655be,平房区
499,308,657,大庆医学高等专科学校,4123014017,黑龙江省,大庆市,专科,nan,大庆医学高等专科学校,125.055655,46.607892,dbf4d6ee313c5b2a6ea3cc88,萨尔图区
500,309,658,黑龙江交通职业技术学院,4123014053,黑龙江省,哈尔滨市,专科,nan,黑龙江交通职业技术学院(哈尔滨校区),126.527603,45.878008,41572e00419d1ab4b55f1ea0,呼兰区
501,310,659,哈尔滨应用职业技术学院,4123014055,黑龙江省教育厅,哈尔滨市,专科,民办,哈尔滨应用职业技术学院,126.427801,45.655265,cd9d05dd096cecb684420ead,道里区
502,312,661,哈尔滨科学技术职业学院,4123014108,黑龙江省,哈尔滨市,专科,nan,哈尔滨科学技术职业学院,126.963895,45.548354,925c550fd4b1bbcf5a3ac854,阿城区
503,312,661,哈尔滨科学技术职业学院,4123014108,黑龙江省,哈尔滨市,专科,nan,哈尔滨科学技术职业学院(阿城区),126.645728,45.77296,ebcf4ca41e16170288b98855,道外区
504,312,661,哈尔滨科学技术职业学院,4123014108,黑龙江省,哈尔滨市,专科,nan,哈尔滨科学技术职业学院-学生宿舍(二舍),126.963033,45.548504,3699e59efebd0d5420f017b9,阿城区
505,313,662,佳木斯职业学院,4123014178,黑龙江省,佳木斯市,专科,nan,佳木斯职业学院,130.329872,46.797352,a5768438dec21cb729fc48eb,郊区
506,314,663,黑龙江护理高等专科学校,4123014272,黑龙江省,哈尔滨市,专科,nan,黑龙江护理高等专科学校,126.623128,45.694526,9a6a87ed4ded62f888db7336,南岗区
507,314,663,黑龙江护理高等专科学校,4123014272,黑龙江省,哈尔滨市,专科,nan,黑龙江护理高等专科学校(江北校区),126.49507,45.893801,64304a41e7933b21740269af,松北区
508,314,663,黑龙江护理高等专科学校,4123014272,黑龙江省,哈尔滨市,专科,nan,黑龙江护理高等专科学校(阿城校区),126.969686,45.507895,12c1eae9d7d1d287c3364490,阿城区
509,315,664,齐齐哈尔理工职业学院,4123014400,黑龙江省教育厅,齐齐哈尔市,专科,民办,齐齐哈尔理工职业学院,123.612137,47.22183,41ed4eddce2a26711ef74d4b,富拉尔基区
510,315,664,齐齐哈尔理工职业学院,4123014400,黑龙江省教育厅,齐齐哈尔市,专科,民办,齐齐哈尔理工职业学院-广宇驾校,123.610689,47.224969,f7877b6c64e03fd045e274a2,富拉尔基区
511,316,665,哈尔滨幼儿师范高等专科学校,4123014425,黑龙江省,哈尔滨市,专科,nan,哈尔滨幼儿师范高等专科学校,126.779023,45.73155,6671cdbb06eb673f33f71d7a,香坊区
512,317,666,黑龙江冰雪体育职业学院,4123014540,黑龙江省,哈尔滨市,专科,nan,黑龙江冰雪体育职业学院,126.695977,45.865174,85d369cc08aeddd72cb908da,松北区
513,318,667,哈尔滨北方航空职业技术学院,4123014633,黑龙江省教育厅,哈尔滨市,专科,民办,哈尔滨北方航空职业技术学院,127.035223,45.558254,51a6ca4050f5d560373a710e,阿城区
514,318,667,哈尔滨北方航空职业技术学院,4123014633,黑龙江省教育厅,哈尔滨市,专科,民办,哈尔滨北方航空职业技术学院,126.507485,45.702029,bc555113e33d1e5d343a7111,道里区
515,318,667,哈尔滨北方航空职业技术学院,4123014633,黑龙江省教育厅,哈尔滨市,专科,民办,哈尔滨北方航空职业技术学院继续教育学院,126.605982,45.747238,722b06772f3111782d4733af,道里区
516,319,708,上海旅游高等专科学校,4131010275,上海市,上海市,专科,nan,上海旅游高等专科学校,121.518798,30.83894,8eb48fa1c55a25a4f32d830a,奉贤区
517,320,709,上海东海职业技术学院,4131010851,上海市教委,上海市,专科,民办,上海东海职业技术学院,121.463708,31.036094,53349ee33d8e6912230262aa,闵行区
518,321,710,上海工商职业技术学院,4131010852,上海市教委,上海市,专科,民办,上海工商职业技术学院,121.185744,31.362358,864ffc86799e09e71d1d117a,嘉定区
519,321,710,上海工商职业技术学院,4131010852,上海市教委,上海市,专科,民办,上海工商职业技术学院(青浦校区),121.227548,31.254778,d24e48eb347f63b5aeee7ab9,青浦区
520,322,711,上海出版印刷高等专科学校,4131011733,上海市,上海市,专科,nan,上海出版印刷高等专科学校(水丰路校区),121.549229,31.289409,a3e8341c6f04a0eb4afd3fc1,杨浦区
521,322,711,上海出版印刷高等专科学校,4131011733,上海市,上海市,专科,nan,上海出版印刷高等专科学校(营口路校区),121.540331,31.295303,7abfd4524c56fd4416c905c9,杨浦区
522,322,711,上海出版印刷高等专科学校,4131011733,上海市,上海市,专科,nan,上海出版印刷高等专科学校(国顺东路校区),121.547538,31.309616,9ef2b37e4da2316de81e97dd,杨浦区
523,323,712,上海行健职业学院,4131012493,上海市,上海市,专科,nan,上海行健职业学院(原平路分校),121.438036,31.286535,ca11e84d40cd6758e215f999,静安区
524,323,712,上海行健职业学院,4131012493,上海市,上海市,专科,nan,上海行健职业学院-西区,121.43654,31.285385,4ea3f2f17e0e19abaecb66ef,静安区
525,324,713,上海城建职业学院,4131012495,上海市,上海市,专科,nan,上海城建职业学院(奉贤校区),121.421378,30.912343,a553478eed3d1c637369d3d0,奉贤区
526,324,713,上海城建职业学院,4131012495,上海市,上海市,专科,nan,上海城建职业学院(宝山校区),121.473073,31.412144,1b560a4729abf90eab175a23,宝山区
527,324,713,上海城建职业学院,4131012495,上海市,上海市,专科,nan,上海城建职业学院(杨浦校区),121.560509,31.332832,8f4dd6346a514d49f8f0cb12,杨浦区
528,324,713,上海城建职业学院,4131012495,上海市,上海市,专科,nan,上海城建职业学院(静安校区),121.487799,31.253189,04178e8e915a1316ce04efb2,静安区
529,324,713,上海城建职业学院,4131012495,上海市,上海市,专科,nan,上海城建职业学院,121.46768,31.068325,09e543eea088381360180945,闵行区
530,324,713,上海城建职业学院,4131012495,上海市,上海市,专科,nan,上海城建职业学院(国科路校区),121.524633,31.292098,44ad18efa891403c5abbbc8c,杨浦区
531,325,714,上海交通职业技术学院,4131012497,上海市,上海市,专科,nan,上海交通职业技术学院(浦东校区),121.686591,31.073403,15c44abc262c12027c29bd78,浦东新区
532,325,714,上海交通职业技术学院,4131012497,上海市,上海市,专科,nan,上海交通职业技术学院,121.431097,31.198343,87a674fbdc5a6b52ad045708,徐汇区
533,325,714,上海交通职业技术学院,4131012497,上海市,上海市,专科,nan,上海交通职业技术学院(嘉定校区),121.239983,31.489644,0efd26bb8de07d6441d63ed6,嘉定区
534,325,714,上海交通职业技术学院,4131012497,上海市,上海市,专科,nan,上海交通职业技术学院宝山校区西区,121.447723,31.3479,66516cafce013f1ea2d23004,宝山区
535,326,715,上海海事职业技术学院,4131012498,上海市,上海市,专科,nan,上海海事职业技术学院,121.534987,31.244897,2550c6d73fb2432de607387c,浦东新区
536,326,715,上海海事职业技术学院,4131012498,上海市,上海市,专科,nan,上海海事职业技术学院(杨浦校区),121.532708,31.330443,55a9b4cd5ce28ad8f92213a3,杨浦区
537,326,715,上海海事职业技术学院,4131012498,上海市,上海市,专科,nan,上海海事职业技术学院(宝山校区),121.494713,31.397697,550fd5f9bb77a778931fc96b,宝山区
538,326,715,上海海事职业技术学院,4131012498,上海市,上海市,专科,nan,上海海事职业技术学院(松江校区),121.228839,31.01872,abcd3c27d8f063dccae33c59,松江区
539,327,716,上海电子信息职业技术学院,4131012499,上海市,上海市,专科,nan,上海电子信息职业技术学院(奉贤校区),121.702789,30.931226,5c2dc21df8f7fb7a6ec02c89,奉贤区
540,327,716,上海电子信息职业技术学院,4131012499,上海市,上海市,专科,nan,上海电子信息职业技术学院(闵行校区),121.43054,31.034452,b730158c82d671446849f37a,闵行区
541,327,716,上海电子信息职业技术学院,4131012499,上海市,上海市,专科,nan,上海电子信息职业技术学院(徐汇校区),121.465451,31.194542,203787f73e6b78c52806ce2b,徐汇区
542,327,716,上海电子信息职业技术学院,4131012499,上海市,上海市,专科,nan,上海电子信息职业技术学院生活园区,121.698358,30.92897,8eb48fa1ddb33dd8f32d836f,奉贤区
543,327,716,上海电子信息职业技术学院,4131012499,上海市,上海市,专科,nan,上海电子信息职业技术学院-动画学院,121.701083,30.932425,7286d15b5de5f0c02b3a9ffc,奉贤区
544,328,717,上海震旦职业学院,4131012583,上海市教委,上海市,专科,民办,上海震旦职业学院,121.362517,31.425121,0523a14131d18f1cb23c817f,宝山区
545,328,717,上海震旦职业学院,4131012583,上海市教委,上海市,专科,民办,上海震旦职业学院(南校区),121.366039,31.41824,95dfa9aeef4a74d5c72ba1ce,宝山区
546,328,717,上海震旦职业学院,4131012583,上海市教委,上海市,专科,民办,上海震旦职业学院继续教育学院,121.362009,31.425838,57e962350ed16bcf59bbbc62,宝山区
547,329,718,上海民远职业技术学院,4131012584,上海市教委,上海市,专科,民办,上海民远职业技术学院(南门),121.665797,31.204287,f4171d5f71c3536a32870a3b,浦东新区
548,329,718,上海民远职业技术学院,4131012584,上海市教委,上海市,专科,民办,上海民远职业技术学院(北区),121.667329,31.205598,b533ea4a3cffbf404e6d46ae,浦东新区
549,330,719,上海欧华职业技术学院,4131012585,上海市教委,上海市,专科,民办,上海欧华职业技术学院(西北门),121.703551,30.879324,68eb01f1097eaf21e8e582ef,奉贤区
550,331,720,上海思博职业技术学院,4131012586,上海市教委,上海市,专科,民办,上海思博职业技术学院,121.78711,31.043761,b292b3aabe7e7b57bf4842bc,浦东新区
551,331,720,上海思博职业技术学院,4131012586,上海市教委,上海市,专科,民办,上海思博职业技术学院护理学院,121.787464,31.04638,1b57d26a183ae344bd4842c1,浦东新区
552,332,721,上海工艺美术职业学院,4131012588,上海市,上海市,专科,nan,上海工艺美术职业学院,121.25867,31.413834,2b1bfe89d3687fc92806ce04,嘉定区
553,332,721,上海工艺美术职业学院,4131012588,上海市,上海市,专科,nan,上海工艺美术职业学院,121.442666,31.192696,0cb1d16ba21a00135d17c334,徐汇区
554,332,721,上海工艺美术职业学院,4131012588,上海市,上海市,专科,nan,上海工艺美术职业学院(宁波路校区),121.484999,31.243237,6c9a00ecfe7346a196f08c16,黄浦区
555,332,721,上海工艺美术职业学院,4131012588,上海市,上海市,专科,nan,上海工艺美术职业学院女生宿舍(F楼),121.257589,31.412909,c1cd5d5a1ebaafac3586f49b,嘉定区
556,333,722,上海济光职业技术学院,4131012798,上海市教委,上海市,专科,民办,上海济光职业技术学院,121.441473,31.370663,406c41a06a2fa164843304d9,宝山区
557,333,722,上海济光职业技术学院,4131012798,上海市教委,上海市,专科,民办,上海济光职业技术学院(杨浦校区),121.506482,31.306783,c3340ae69eda923f4bcc4a49,杨浦区
558,334,723,上海工商外国语职业学院,4131012800,上海市教委,上海市,专科,民办,上海工商外国语职业学院,121.787733,31.050963,516aa5be3d5dc7a9f4eafc51,浦东新区
559,334,723,上海工商外国语职业学院,4131012800,上海市教委,上海市,专科,民办,上海工商外国语职业学院(中校区),121.787751,31.053839,43de9a442ee55bdb03ff2dfa,浦东新区
560,335,724,上海科学技术职业学院,4131012801,上海市,上海市,专科,nan,上海科学技术职业学院,121.264624,31.392408,a8fc7828ca59bfc6d8d891d7,嘉定区
561,335,724,上海科学技术职业学院,4131012801,上海市,上海市,专科,nan,上海科学技术职业学院上海开放大学嘉定分校,121.2635,31.391741,12ba6a8d15591f789f09f71a,嘉定区
562,336,725,上海农林职业技术学院,4131012912,上海市,上海市,专科,nan,上海农林职业技术学院,121.225792,31.016352,49d959385f0a6442c61e51f3,松江区
563,336,725,上海农林职业技术学院,4131012912,上海市,上海市,专科,nan,上海农林职业技术学院(金山分院),121.178275,30.901445,435d7aeaa1c2f2365abbbc69,金山区
564,336,725,上海农林职业技术学院,4131012912,上海市,上海市,专科,nan,上海农林职业技术学院实训基地(星疆路),121.615329,30.87231,9e9e660fa0746e1f0a5cb3f4,奉贤区
565,336,725,上海农林职业技术学院,4131012912,上海市,上海市,专科,nan,上海农林职业技术学院实训基地(水产公路),121.134908,30.93963,caa446b41a635f06b04c4939,松江区
566,337,726,上海邦德职业技术学院,4131012913,上海市教委,上海市,专科,民办,上海邦德职业技术学院,121.408506,31.328958,b292b3aabd3c7a57be484242,宝山区
567,337,726,上海邦德职业技术学院,4131012913,上海市教委,上海市,专科,民办,上海邦德职业技术学院-国际交流与外国语学院,121.408233,31.329167,2a64355f79b44622740269d9,宝山区
568,337,726,上海邦德职业技术学院,4131012913,上海市教委,上海市,专科,民办,上海邦德职业技术学院-应用技术学院,121.408009,31.328294,d0b849b084a38cd10a1cc753,宝山区
569,338,727,上海电影艺术职业学院,4131013747,上海市教委,上海市,专科,民办,上海电影艺术职业学院,121.591568,31.19784,4fc3161ab4e20ba83b13fdb0,浦东新区
570,340,729,上海工会管理职业学院,4131014023,上海市,上海市,专科,nan,上海工会管理职业学院,121.525455,31.266523,875e0c56e5aa0292cac3dbe2,杨浦区
571,340,729,上海工会管理职业学院,4131014023,上海市,上海市,专科,nan,上海工会管理职业学院,121.421378,30.912343,a553478eed3d1c637369d3d0,奉贤区
572,340,729,上海工会管理职业学院,4131014023,上海市,上海市,专科,nan,上海工会管理职业学院,121.501834,31.291856,aa12d6e749474b7a1d1d1108,虹口区
573,340,729,上海工会管理职业学院,4131014023,上海市,上海市,专科,nan,上海工会管理职业学院(浦东分院),121.756084,31.054908,b7dcd0f5d7de69f70b69d9ff,浦东新区
574,340,729,上海工会管理职业学院,4131014023,上海市,上海市,专科,nan,上海工会管理职业学院(南门),121.421732,30.909685,c26cbe4dbd2d1cafc336442f,奉贤区
575,341,730,上海民航职业技术学院,4131014394,交通运输部（中国民用航空局）,上海市,专科,nan,上海民航职业技术学院,121.462475,31.177613,65af8b9ef7d5e4f61329358c,徐汇区
576,341,730,上海民航职业技术学院,4131014394,交通运输部（中国民用航空局）,上海市,专科,nan,上海民航职业技术学院(浦东校区),121.793188,31.057643,4c1d4094161e6f6b88fc06bd,浦东新区
577,341,730,上海民航职业技术学院,4131014394,交通运输部（中国民用航空局）,上海市,专科,nan,上海民航职业技术学院(浦东校区)生活园区,121.791778,31.056641,0457a361985cfa1bb34c4971,浦东新区
578,343,810,盐城幼儿师范高等专科学校,3632000466,江苏省,盐城市,专科,nan,盐城幼儿师范高等专科学校(北校区),120.17344,33.323518,0aae9467d95a587043afe6eb,盐都区
579,343,810,盐城幼儿师范高等专科学校,3632000466,江苏省,盐城市,专科,nan,盐城幼儿师范高等专科学校(南校区),120.18274,33.313498,c923fc87448d1df58505bf98,盐都区
580,343,810,盐城幼儿师范高等专科学校,3632000466,江苏省,盐城市,专科,nan,盐城幼儿师范高等专科学校(南校区),120.186828,33.315259,1e10dc8f12c0a9464bcc4a36,盐都区
581,344,811,苏州幼儿师范高等专科学校,3632000583,江苏省,苏州市,专科,nan,苏州幼儿师范高等专科学校,120.676137,31.387279,a718517c4d7fd764471a3202,相城区
582,345,812,明达职业技术学院,4132010826,江苏省教育厅,盐城市,专科,民办,明达职业技术学院,120.344741,33.79193,593850fb793fca5ddf1e5220,射阳县
583,345,812,明达职业技术学院,4132010826,江苏省教育厅,盐城市,专科,民办,明达职业技术学院锐捷网络学院,120.344135,33.792928,da324e31a90b3ca7d7851f77,射阳县
584,346,813,无锡职业技术学院,4132010848,江苏省,无锡市,专科,nan,无锡职业技术学院(高浪路),120.278627,31.502251,0e0986c69add7ca524e0a069,滨湖区
585,346,813,无锡职业技术学院,4132010848,江苏省,无锡市,专科,nan,无锡职业技术学院(中桥校区),120.301201,31.546064,7d2c0ee1d40fd3865fbe86f0,梁溪区
586,346,813,无锡职业技术学院,4132010848,江苏省,无锡市,专科,nan,无锡职业技术学院控制技术学院(太湖校区),120.279345,31.499818,d18360e7e833debbf02d834d,滨湖区
587,347,814,江苏建筑职业技术学院,4132010849,江苏省,徐州市,专科,nan,江苏建筑职业技术学院,117.182764,34.209231,dffd631c2dacdebc38221ce5,泉山区
588,347,814,江苏建筑职业技术学院,4132010849,江苏省,徐州市,专科,nan,江苏建筑职业技术学院(邳州校区),118.033327,34.352908,3347b48f34d6180b9703194e,邳州市
589,347,814,江苏建筑职业技术学院,4132010849,江苏省,徐州市,专科,nan,江苏建筑职业技术学院(市区教学部),117.197845,34.256179,4d477a2dda293919a7c756fc,云龙区
590,347,814,江苏建筑职业技术学院,4132010849,江苏省,徐州市,专科,nan,江苏建筑职业技术学院家属区,117.188382,34.210392,470eb06c479db3cd17c8f689,铜山区
591,348,815,江苏工程职业技术学院,4132010958,江苏省,南通市,专科,nan,江苏工程职业技术学院,120.894238,32.012926,162005448bf39642250bd070,崇川区
592,348,815,江苏工程职业技术学院,4132010958,江苏省,南通市,专科,nan,江苏工程职业技术学院(海门校区),121.472282,32.119337,a502d89238aaf0a8725e8096,海门区
593,349,816,苏州工艺美术职业技术学院,4132010960,江苏省,苏州市,专科,nan,苏州工艺美术职业技术学院,120.592312,31.236873,f4a33da9fcad26093010af46,吴中区
594,349,816,苏州工艺美术职业技术学院,4132010960,江苏省,苏州市,专科,nan,苏州工艺美术职业技术学院-B区,120.591185,31.237381,2a4908f4240bf0c65fbe86dc,虎丘区
595,350,817,连云港职业技术学院,4132011050,江苏省,连云港市,专科,nan,连云港职业技术学院,119.248642,34.668765,0b003083bbb423e9fd0eb0fb,海州区
596,352,819,南通职业大学,4132011052,江苏省,南通市,专科,nan,南通职业大学(海门分校),121.172984,31.834014,a03d8ad3f82304e184330417,海门区
597,352,819,南通职业大学,4132011052,江苏省,南通市,专科,nan,南通职业大学-海门学院,121.173078,31.833661,c1fef2916b3c459fe812e49a,海门区
598,352,819,南通职业大学,4132011052,江苏省,南通市,专科,nan,南通职业大学-南区,120.900187,32.013243,7157d63be25627a9fb2d6145,崇川区
599,354,821,沙洲职业工学院,4132011288,江苏省,苏州市,专科,nan,沙洲职业工学院,120.594373,31.909881,6e665bd9475289a0f942b2e4,张家港市
600,355,822,扬州市职业大学,4132011462,江苏省,扬州市,专科,nan,扬州市职业大学(广播电视大学后勤服务有限公司),119.386574,32.402063,3502373162a6ac7c213bf244,邗江区
601,355,822,扬州市职业大学,4132011462,江苏省,扬州市,专科,nan,扬州市职业大学-力行楼A区,119.383974,32.402644,740e2482b8b933c9adcb661e,邗江区
602,355,822,扬州市职业大学,4132011462,江苏省,扬州市,专科,nan,扬州市职业大学-知行楼C区,119.389024,32.400652,0902816ec7b9f782bd4842ff,邗江区
603,355,822,扬州市职业大学,4132011462,江苏省,扬州市,专科,nan,扬州市职业大学梅岭校区,119.448272,32.410862,e0049963616121c205026fe2,邗江区
604,355,822,扬州市职业大学,4132011462,江苏省,扬州市,专科,nan,扬州市职业大学师范学院,119.442634,32.783685,0835cc27bf2df103eee4a502,高邮市
605,355,822,扬州市职业大学,4132011462,江苏省,扬州市,专科,nan,扬州市职业大学(映月湖学术报告厅),119.386235,32.402544,938cf7b1adddd628c07da257,邗江区
606,356,823,连云港师范高等专科学校,4132011585,江苏省,连云港市,专科,nan,连云港师范高等专科学校,119.234616,34.652324,e3e2cd9d2304589dc7f50dc6,海州区
607,356,823,连云港师范高等专科学校,4132011585,江苏省,连云港市,专科,nan,连云港师范高等专科学校文学院,119.239263,34.650219,727eb7c6934d069dbadf8ffd,海州区
608,356,823,连云港师范高等专科学校,4132011585,江苏省,连云港市,专科,nan,连云港师范高等专科学校数学与信息工程学院,119.239136,34.65021,9647987dfb92a654b020a802,海州区
609,357,824,江苏经贸职业技术学院,4132012047,江苏省,南京市,专科,nan,江苏经贸职业技术学院(江宁校区),118.891435,31.937283,50fb64ff430ab720e9f853f0,江宁区
610,357,824,江苏经贸职业技术学院,4132012047,江苏省,南京市,专科,nan,江苏经贸职业技术学院(光华校区),118.832132,32.023406,1e5aa8af75664083e5e96599,秦淮区
611,357,824,江苏经贸职业技术学院,4132012047,江苏省,南京市,专科,nan,江苏经贸职业技术学院-兰馨苑(江宁校区),118.889818,31.940688,f2a91f490f5faa7fb8df8fa0,江宁区
612,357,824,江苏经贸职业技术学院,4132012047,江苏省,南京市,专科,nan,江苏经贸职业技术学院-博雅楼(江宁校区),118.890227,31.937615,8d3ba5690c50b5a158f6bea5,江宁区
613,357,824,江苏经贸职业技术学院,4132012047,江苏省,南京市,专科,nan,江苏经贸职业技术学院-敏行楼(江宁校区),118.891841,31.937192,adab33da64708632283a9f41,江宁区
614,357,824,江苏经贸职业技术学院,4132012047,江苏省,南京市,专科,nan,江苏经贸职业技术学院-紫微苑(江宁校区),118.894887,31.936422,1f91f62cf1d42a5fb54f544f,江宁区
615,357,824,江苏经贸职业技术学院,4132012047,江苏省,南京市,专科,nan,江苏经贸职业技术学院-松竹苑(江宁校区),118.888848,31.937928,a57eff6857e94210d72ce28d,江宁区
616,358,825,九州职业技术学院,4132012054,江苏省教育厅,徐州市,专科,民办,九州职业技术学院,117.167349,34.189883,c7fb04bd51717b16fa0cadcc,铜山区
617,359,826,硅湖职业技术学院,4132012078,江苏省教育厅,苏州市,专科,民办,硅湖职业技术学院,121.146456,31.29098,72986da367b867a71ce999e3,昆山市
618,359,826,硅湖职业技术学院,4132012078,江苏省教育厅,苏州市,专科,民办,硅湖职业技术学院(南门),121.14624,31.288228,9ec78f7a06875028f219377a,昆山市
619,360,827,泰州职业技术学院,4132012106,江苏省,泰州市,专科,nan,泰州职业技术学院,119.900585,32.380772,069f3ce8753a98246dc02c79,海陵区
620,360,827,泰州职业技术学院,4132012106,江苏省,泰州市,专科,nan,泰州职业技术学院(新校区)医学技术学院,119.897368,32.380485,90e07aeaa3a6306f4002459d,海陵区
621,360,827,泰州职业技术学院,4132012106,江苏省,泰州市,专科,nan,泰州职业技术学院药学院,119.897478,32.379646,40f02c3faf323a7ef2193788,高港区
622,360,827,泰州职业技术学院,4132012106,江苏省,泰州市,专科,nan,泰州职业技术学院-信息技术学院,119.901508,32.379221,da94b5ca22b91f214e554787,高港区
623,360,827,泰州职业技术学院,4132012106,江苏省,泰州市,专科,nan,泰州职业技术学院西区,119.895846,32.38191,25ce27c994d84ada7bdbd282,海陵区
624,360,827,泰州职业技术学院,4132012106,江苏省,泰州市,专科,nan,泰州职业技术学院-艺术院,119.899226,32.381066,00d1e46820d6f7806c3e1be4,海陵区
625,361,828,常州信息职业技术学院,4132012317,江苏省,常州市,专科,nan,常州信息职业技术学院,119.96101,31.683938,0295e072f5fcabf9130daa7a,武进区
626,361,828,常州信息职业技术学院,4132012317,江苏省,常州市,专科,nan,常州信息职业技术学院-电子工程学院,119.960532,31.683998,77dc02b23263f2b80a1cc75c,武进区
627,361,828,常州信息职业技术学院,4132012317,江苏省,常州市,专科,nan,常州信息职业技术学院-经贸管理学院,119.96036,31.684569,39eed370086b7fda0f0e6b6b,武进区
628,362,829,江苏联合职业技术学院,4132012678,江苏省,南京市,专科,nan,江苏联合职业技术学院,118.779348,32.064444,983d3f1eba991f31b54f54de,鼓楼区
629,362,829,江苏联合职业技术学院,4132012678,江苏省,南京市,专科,nan,江苏联合职业技术学院(江宁分院),118.905384,31.937874,8b24c35c72d8cb999a005000,江宁区
630,362,829,江苏联合职业技术学院,4132012678,江苏省,南京市,专科,nan,江苏联合职业技术学院(金陵分院),118.869076,32.027843,2942c89da1509dda882fb59a,秦淮区
631,362,829,江苏联合职业技术学院,4132012678,江苏省,南京市,专科,nan,江苏联合职业技术学院分院,118.922732,32.127614,1759bbf4afdd63d9d2f49e50,栖霞区
632,362,829,江苏联合职业技术学院,4132012678,江苏省,南京市,专科,nan,江苏联合职业技术学院南京分院,118.748295,32.015502,e57caca9a7028aae8bdb73d7,建邺区
633,362,829,江苏联合职业技术学院,4132012678,江苏省,南京市,专科,nan,江苏联合职业技术学院(南京财经分院),118.785948,32.050752,0ca703e135d207025b10934a,鼓楼区
634,363,830,江苏海事职业技术学院,4132012679,江苏省,南京市,专科,nan,江苏海事职业技术学院(江宁校区),118.913687,31.924348,2ea792ee7313647f940319a6,江宁区
635,363,830,江苏海事职业技术学院,4132012679,江苏省,南京市,专科,nan,江苏海事职业技术学院(板桥校区),118.655445,31.95694,4d6ab82ab1c317029122e0b4,雨花台区
636,363,830,江苏海事职业技术学院,4132012679,江苏省,南京市,专科,nan,江苏海事职业技术学院航海技术学院,118.911977,31.92306,71a22b590a16419e725e80f0,江宁区
637,365,832,无锡科技职业学院,4132012681,江苏省,无锡市,专科,nan,无锡科技职业学院,120.396068,31.52616,7388dffd0e26b1ebd2ff23aa,新吴区
638,365,832,无锡科技职业学院,4132012681,江苏省,无锡市,专科,nan,无锡科技职业学院-软件与服务外包学院,120.397525,31.52744,74b3f29ef35a2cc8a8059da2,新吴区
639,365,832,无锡科技职业学院,4132012681,江苏省,无锡市,专科,nan,无锡科技职业学院-外语与公共教育学院,120.397518,31.526566,856779ded2d4d7ec990050be,新吴区
640,365,832,无锡科技职业学院,4132012681,江苏省,无锡市,专科,nan,无锡科技职业学院人工智能学院,120.397166,31.526973,77e97c0f980251d39fec2b37,新吴区
641,365,832,无锡科技职业学院,4132012681,江苏省,无锡市,专科,nan,无锡科技职业学院-新吴区社区学院,120.396989,31.52483,d8f2b3177f1e3435cd04ef56,新吴区
642,366,833,江苏医药职业学院,4132012682,江苏省,盐城市,专科,nan,江苏医药职业学院,120.17829,33.330994,b766cd1204fea3fb0b69d95b,盐都区
643,366,833,江苏医药职业学院,4132012682,江苏省,盐城市,专科,nan,江苏医药职业学院-盐城卫校南校区,120.177593,33.332291,fc0a744d75de7cb92afc486d,盐都区
644,366,833,江苏医药职业学院,4132012682,江苏省,盐城市,专科,nan,江苏医药职业学院医药生物技术研究院,120.177826,33.329821,088b689eaa9d6b02fd0eb08b,盐都区
645,366,833,江苏医药职业学院,4132012682,江苏省,盐城市,专科,nan,江苏医药职业学院-康复医学院,120.170477,33.32732,bf7be5c743186d2e00ff2d66,盐都区
646,367,834,扬州环境资源职业技术学院,4132012683,江苏省,扬州市,专科,nan,扬州环境资源职业技术学院(梅岭校区),119.448272,32.410862,e0049963616121c205026fe2,邗江区
647,368,835,南通科技职业学院,4132012684,江苏省,南通市,专科,nan,南通科技职业学院,120.89843,32.009602,04821efb2fded84baeb22a43,崇川区
648,368,835,南通科技职业学院,4132012684,江苏省,南通市,专科,nan,南通科技职业学院(薛窑基地),120.638451,32.139158,a0304df47ec7d65af03cba5a,如皋市
649,369,836,苏州经贸职业技术学院,4132012685,江苏省,苏州市,专科,nan,苏州经贸职业技术学院,120.573288,31.258533,8e2f746c655b7b62dbeceda0,虎丘区
650,369,836,苏州经贸职业技术学院,4132012685,江苏省,苏州市,专科,nan,苏州经贸职业技术学院国际学院,120.573622,31.258453,0fb26b57236ab506077ce8a0,虎丘区
651,370,837,苏州工业职业技术学院,4132012686,江苏省,苏州市,专科,nan,苏州工业职业技术学院,120.596833,31.225668,04e8faa419d54cebab175afc,吴中区
652,370,837,苏州工业职业技术学院,4132012686,江苏省,苏州市,专科,nan,苏州工业职业技术学院-南区,120.595247,31.223786,2677d71741d154f47adbd2fc,吴中区
653,371,838,苏州托普信息职业技术学院,4132012687,江苏省教育厅,苏州市,专科,民办,苏州托普信息职业技术学院(东南门),120.854858,31.469112,e1b4649f963bc78cbbbd6387,昆山市
654,372,839,苏州卫生职业技术学院,4132012688,江苏省,苏州市,专科,nan,苏州卫生职业技术学院(石湖校区),120.591798,31.267099,53cebd50f7b781612a02e141,虎丘区
655,372,839,苏州卫生职业技术学院,4132012688,江苏省,苏州市,专科,nan,苏州卫生职业技术学院(书院巷校区),120.628577,31.304713,99d9e193c6e82746fe0eb078,姑苏区
656,372,839,苏州卫生职业技术学院,4132012688,江苏省,苏州市,专科,nan,苏州卫生职业技术学院(药学院),120.58645,31.267205,56e88cba6fd5a765a4c7567f,虎丘区
657,372,839,苏州卫生职业技术学院,4132012688,江苏省,苏州市,专科,nan,苏州卫生职业技术学院(木渎校区),120.521398,31.2629,5997650d1ea50f2f2cb9089d,吴中区
658,372,839,苏州卫生职业技术学院,4132012688,江苏省,苏州市,专科,nan,苏州卫生职业技术学院(学府校区),120.584536,31.265185,7b3b1a9b32f50c4845e27470,虎丘区
659,373,840,无锡商业职业技术学院,4132012702,江苏省,无锡市,专科,nan,无锡商业职业技术学院(九龙校区),120.179885,31.567127,fa01e937de55c44a774ff13d,滨湖区
660,373,840,无锡商业职业技术学院,4132012702,江苏省,无锡市,专科,nan,无锡商业职业技术学院(姚湾校区),120.188119,31.555322,d1469ee798407f62853304a8,滨湖区
661,373,840,无锡商业职业技术学院,4132012702,江苏省,无锡市,专科,nan,无锡商业职业技术学院-会计金融学院(九龙校区),120.180485,31.570326,70371a41d0dca340d0ff2309,惠山区
662,373,840,无锡商业职业技术学院,4132012702,江苏省,无锡市,专科,nan,无锡商业职业技术学院汽车技术学院,120.175419,31.568254,9cb02e83673875bbbe48425f,滨湖区
663,373,840,无锡商业职业技术学院,4132012702,江苏省,无锡市,专科,nan,无锡商业职业技术学院(南门),120.293877,31.57994,f76b664749b1d5adf03cba83,梁溪区
664,374,841,江苏航运职业技术学院,4132012703,江苏省,南通市,专科,nan,江苏航运职业技术学院,120.969167,31.922481,19758fb6b20142ef07fef53b,崇川区
665,375,842,南京交通职业技术学院,4132012804,江苏省,南京市,专科,nan,南京交通职业技术学院,118.918469,31.918547,50fb64ff1b88cf5de9f8537b,江宁区
666,376,843,江苏电子信息职业学院,4132012805,江苏省,淮安市,专科,nan,江苏电子信息职业学院,119.054086,33.558009,16b6f581f5d918c09e9d680d,清江浦区
667,377,844,江苏农牧科技职业学院,4132012806,江苏省,泰州市,专科,nan,江苏农牧科技职业学院,119.94864,32.462905,43e0173471e6f8b08bfc066e,海陵区
668,377,844,江苏农牧科技职业学院,4132012806,江苏省,泰州市,专科,nan,江苏农牧科技职业学院(迎宾路校区),119.948092,32.496429,9ed943853dd5dbf20f0a7051,海陵区
669,377,844,江苏农牧科技职业学院,4132012806,江苏省,泰州市,专科,nan,江苏农牧科技职业学院迎宾路校区宠物科技学院,119.947937,32.495265,ab3267a6d1b79473601c6757,海陵区
670,378,845,常州纺织服装职业技术学院,4132012807,江苏省,常州市,专科,nan,常州纺织服装职业技术学院,119.946147,31.689912,5b25f4465f234194112935a0,武进区
671,379,846,苏州农业职业技术学院,4132012808,江苏省,苏州市,专科,nan,苏州农业职业技术学院,120.588194,31.320135,b5f4c60805075c0d2ee67bc1,姑苏区
672,379,846,苏州农业职业技术学院,4132012808,江苏省,苏州市,专科,nan,苏州农业职业技术学院(东山分校区),120.410171,31.059253,25db40b787a28c339e9d6822,吴中区
673,379,846,苏州农业职业技术学院,4132012808,江苏省,苏州市,专科,nan,苏州农业职业技术学院(相城培训中心),120.611478,31.430788,b52d2dda04cb99a9725e8082,相城区
674,379,846,苏州农业职业技术学院,4132012808,江苏省,苏州市,专科,nan,苏州农业职业技术学院-苏农驾校,120.588047,31.321927,3a5ea4ecb1cf863bd0ff2375,姑苏区
675,380,847,苏州工业园区职业技术学院,4132012809,江苏省,苏州市,专科,nan,苏州工业园区职业技术学院,120.761705,31.264902,4b6ec9dc346bb195a1d2301d,苏州工业园区
676,381,848,太湖创意职业技术学院,4132012918,江苏省教育厅,无锡市,专科,民办,太湖创意职业技术学院(东南门),120.231254,31.570356,77c43de99e1f8c6a2d473325,滨湖区
677,382,849,炎黄职业技术学院,4132012919,江苏省教育厅,淮安市,专科,民办,炎黄职业技术学院,119.308566,33.791416,d6ee872412167ee0a8f0cd60,涟水县
678,383,850,南京科技职业学院,4132012920,江苏省,南京市,专科,nan,南京科技职业学院,118.755557,32.239979,d55d3954085464b3bda24042,六合区
679,384,851,正德职业技术学院,4132012921,江苏省教育厅,南京市,专科,民办,正德职业技术学院,118.790004,31.947136,31f9101b35723eb926e0a07b,江宁区
680,385,852,钟山职业技术学院,4132012922,江苏省教育厅,南京市,专科,民办,钟山职业技术学院,118.896004,32.050734,b0313d5961efb921e60738c3,栖霞区
681,385,852,钟山职业技术学院,4132012922,江苏省教育厅,南京市,专科,民办,钟山职业技术学院一号教学楼(南门),118.896443,32.04882,45364f41de03c1f729fc48d2,栖霞区
682,385,852,钟山职业技术学院,4132012922,江苏省教育厅,南京市,专科,民办,钟山职业技术学院-工业与信息化学院,118.896198,32.048355,e81cc00a3ea3cedc1e1d1198,栖霞区
683,386,853,无锡南洋职业技术学院,4132012923,江苏省教育厅,无锡市,专科,民办,无锡南洋职业技术学院-南苑校区,120.252266,31.497405,40d786ad7813d3c06240a905,滨湖区
684,386,853,无锡南洋职业技术学院,4132012923,江苏省教育厅,无锡市,专科,民办,无锡南洋职业技术学院西区,120.251851,31.500955,c81a9516f713eb7630169bd0,滨湖区
685,386,853,无锡南洋职业技术学院,4132012923,江苏省教育厅,无锡市,专科,民办,无锡南洋职业技术学院商学院,120.251893,31.501242,0e1632b7e5cbb78e077ce885,滨湖区
686,387,854,江南影视艺术职业学院,4132013017,江苏省教育厅,无锡市,专科,民办,江南影视艺术职业学院,120.182316,31.574378,197a4c3c44ce3ade9122e003,惠山区
687,388,855,金肯职业技术学院,4132013100,江苏省教育厅,南京市,专科,民办,金肯职业技术学院,118.88766,31.690769,850815e146bb05e543e192fa,江宁区
688,388,855,金肯职业技术学院,4132013100,江苏省教育厅,南京市,专科,民办,金肯职业技术学院(西校区),118.88411,31.694826,f438f6fa92affdd8d3ff23a6,江宁区
689,388,855,金肯职业技术学院,4132013100,江苏省教育厅,南京市,专科,民办,金肯职业技术学院,118.885627,31.692029,d524dc58a7bd3101fa42b218,江宁区
690,388,855,金肯职业技术学院,4132013100,江苏省教育厅,南京市,专科,民办,金肯职业技术学院南校区(东门),118.888955,31.691332,92b806d2f095abfe79b55c78,江宁区
691,389,856,常州工业职业技术学院,4132013101,江苏省,常州市,专科,nan,常州工业职业技术学院,119.946004,31.68445,9f6a73be4a6ef1bc4002455f,武进区
692,390,857,常州工程职业技术学院,4132013102,江苏省,常州市,专科,nan,常州工程职业技术学院,119.95297,31.689954,a12baa40db78f756e856faed,武进区
693,391,858,江苏农林职业技术学院,4132013103,江苏省,镇江市,专科,nan,江苏农林职业技术学院,119.178279,31.964258,2a7a25ec0d0d27636c3e1bf3,句容市
694,391,858,江苏农林职业技术学院,4132013103,江苏省,镇江市,专科,nan,江苏农林职业技术学院风景园林学院,119.277869,31.937039,f5bc41ec028a2af696f08c06,句容市
695,391,858,江苏农林职业技术学院,4132013103,江苏省,镇江市,专科,nan,江苏农林职业技术学院北院,119.178761,31.968123,be3be478e103b3734f6d46ce,句容市
696,391,858,江苏农林职业技术学院,4132013103,江苏省,镇江市,专科,nan,江苏农林职业技术学院教职工住宅区,119.177678,31.963102,50cd6db5be3f7b643913fd41,句容市
697,392,859,江苏食品药品职业技术学院,4132013104,江苏省,淮安市,专科,nan,江苏食品药品职业技术学院,119.052521,33.551613,925c550f4958d0b25a3ac803,清江浦区
698,392,859,江苏食品药品职业技术学院,4132013104,江苏省,淮安市,专科,nan,江苏食品药品职业技术学院洪泽湖产业学院,118.787256,33.131516,58e4014963d188e0593ac84b,洪泽区
699,393,860,建东职业技术学院,4132013105,江苏省教育厅,常州市,专科,民办,建东职业技术学院,119.985998,31.87348,da35d50925859d848bfc067d,新北区
700,394,861,南京铁道职业技术学院,4132013106,江苏省,南京市,专科,nan,南京铁道职业技术学院(浦口校区),118.705716,32.107955,babe236f19c5571c2fb908f7,浦口区
701,394,861,南京铁道职业技术学院,4132013106,江苏省,南京市,专科,nan,南京铁道职业技术学院(建宁路校区),118.772846,32.098464,ed9c2d009a140682ee74f825,鼓楼区
702,394,861,南京铁道职业技术学院,4132013106,江苏省,南京市,专科,nan,南京铁道职业技术学院继续教育学院,118.773532,32.098837,f33057a211ab24865d17c372,鼓楼区
703,395,862,徐州工业职业技术学院,4132013107,江苏省,徐州市,专科,nan,徐州工业职业技术学院(九里校区),117.150151,34.305683,20d71dbac3b8754679b55c7c,鼓楼区
704,395,862,徐州工业职业技术学院,4132013107,江苏省,徐州市,专科,nan,徐州工业职业技术学院(黄河校区),117.165816,34.28391,3c99d2d1c625cc418605bfbc,鼓楼区
705,395,862,徐州工业职业技术学院,4132013107,江苏省,徐州市,专科,nan,徐州工业职业技术学院继续教育学院(九三校区),117.172397,34.283468,0270391776908a84ab059d67,鼓楼区
706,395,862,徐州工业职业技术学院,4132013107,江苏省,徐州市,专科,nan,徐州工业职业技术学院新沂学院,118.345921,34.353732,dd9f520894657a2139221c97,新沂市
707,396,863,江苏信息职业技术学院,4132013108,江苏省,无锡市,专科,nan,江苏信息职业技术学院,120.175267,31.575608,e93761f68a557a0c223bf23d,惠山区
708,396,863,江苏信息职业技术学院,4132013108,江苏省,无锡市,专科,nan,江苏信息职业技术学院机电工程学院(东门),120.17824,31.573238,bef48d10a0f63e0272455bcb,惠山区
709,397,864,宿迁职业技术学院,4132013110,江苏省,宿迁市,专科,nan,宿迁职业技术学院,118.29623,34.026782,b40e5605180986999968b416,宿豫区
710,398,865,南京信息职业技术学院,4132013112,江苏省,南京市,专科,nan,南京信息职业技术学院,118.948207,32.134965,6e2f779398c30cb3adb22a85,栖霞区
711,398,865,南京信息职业技术学院,4132013112,江苏省,南京市,专科,nan,南京信息职业技术学院-中认新能源技术学院,118.947005,32.133353,b8a184b3dacb082972210b97,栖霞区
712,398,865,南京信息职业技术学院,4132013112,江苏省,南京市,专科,nan,南京信息职业技术学院-电子信息学院,118.947353,32.132962,9123e836c712c7c11f38941d,栖霞区
713,398,865,南京信息职业技术学院,4132013112,江苏省,南京市,专科,nan,南京信息职业技术学院-通信学院,118.947244,32.131557,ca1124177c8087422dfaa746,栖霞区
714,398,865,南京信息职业技术学院,4132013112,江苏省,南京市,专科,nan,南京信息职业技术学院家属区,118.759326,32.074578,795e72805b242ff8d0ff2366,鼓楼区
715,398,865,南京信息职业技术学院,4132013112,江苏省,南京市,专科,nan,南京信息职业技术学院-信息服务学院,118.946704,32.133968,c330a4ba0dbd0b3faf080f50,栖霞区
716,400,867,常州机电职业技术学院,4132013114,江苏省,常州市,专科,nan,常州机电职业技术学院,119.953637,31.683912,0a15c7ec6cd841fced74f8ed,武进区
717,401,868,江阴职业技术学院,4132013137,江苏省,无锡市,专科,nan,江阴职业技术学院,120.252103,31.879355,c61bd305356ec968c27da273,江阴市
718,401,868,江阴职业技术学院,4132013137,江苏省,无锡市,专科,nan,江阴职业技术学院成人教育学院,120.283236,31.927447,d5464cf89a3db857fda7786d,江阴市
719,402,869,无锡城市职业技术学院,4132013748,江苏省,无锡市,专科,nan,无锡城市职业技术学院,120.19095,31.589515,ab0e1a4505d8430dd23ce3de,惠山区
720,402,869,无锡城市职业技术学院,4132013748,江苏省,无锡市,专科,nan,无锡城市职业技术学院(南校区),120.194586,31.584732,8e03e166e63348575e0d0270,惠山区
721,402,869,无锡城市职业技术学院,4132013748,江苏省,无锡市,专科,nan,无锡城市职业技术学院(西北门),120.188993,31.591669,ee8ef8c65c87e9b101897285,惠山区
722,402,869,无锡城市职业技术学院,4132013748,江苏省,无锡市,专科,nan,无锡城市职业技术学院传媒与艺术设计学院,120.188902,31.589973,028b602d33a7d682e50738c4,惠山区
723,403,870,无锡工艺职业技术学院,4132013749,江苏省,无锡市,专科,nan,无锡工艺职业技术学院,119.840623,31.345106,c75b7326782d6243b817e74e,宜兴市
724,406,873,盐城工业职业技术学院,4132013752,江苏省,盐城市,专科,nan,盐城工业职业技术学院,120.181359,33.327149,cd9d05dd24b8cbb685420ef9,盐都区
725,406,873,盐城工业职业技术学院,4132013752,江苏省,盐城市,专科,nan,盐城工业职业技术学院,120.185002,33.325133,b182a74f7a436223601809c8,盐都区
726,406,873,盐城工业职业技术学院,4132013752,江苏省,盐城市,专科,nan,盐城工业职业技术学院经贸管理学院,120.182884,33.327091,eba91a511c76e18c0e3ddabe,盐都区
727,406,873,盐城工业职业技术学院,4132013752,江苏省,盐城市,专科,nan,盐城工业职业技术学院继续教育学院,120.180135,33.327476,7d61be5dd4a721a077026944,盐都区
728,407,874,江苏财经职业技术学院,4132013753,江苏省,淮安市,专科,nan,江苏财经职业技术学院,119.066645,33.557247,550fd5f9a7af4b79931fc903,清江浦区
729,408,875,扬州工业职业技术学院,4132013754,江苏省,扬州市,专科,nan,扬州工业职业技术学院,119.404582,32.342028,2856f7498b28eba554bfff6e,邗江区
730,409,876,苏州百年职业学院,4132013962,江苏省教育厅,苏州市,专科,中外合作办学,苏州百年职业学院,120.749749,31.28051,28ac08379647fddacafa5f28,苏州工业园区
731,410,877,昆山登云科技职业学院,4132013963,江苏省教育厅,苏州市,专科,民办,昆山登云科技职业学院,120.898403,31.396734,669775d08ae0c65bfd0eb0eb,昆山市
732,411,878,南京视觉艺术职业学院,4132013964,江苏省教育厅,南京市,专科,民办,南京视觉艺术职业学院,118.933388,31.75503,8e914a24b436fb41d4851ff6,溧水区
733,412,879,江苏城市职业学院,4132014000,江苏省,南京市,专科,nan,江苏城市职业学院(应天校区),118.753985,32.025975,ec4bdef871115c1a1ee99958,建邺区
734,412,879,江苏城市职业学院,4132014000,江苏省,南京市,专科,nan,江苏城市职业学院,118.744685,32.06965,bfca448f75ef8e72b45f1e87,鼓楼区
735,412,879,江苏城市职业学院,4132014000,江苏省,南京市,专科,nan,江苏城市职业学院(定淮门东校区),118.76152,32.074839,7596043477499002f8f0cb08,鼓楼区
736,413,880,南京城市职业学院,4132014001,江苏省,南京市,专科,nan,南京城市职业学院(溧水校区),119.008645,31.722402,0cf709e87cca5662a9059da3,溧水区
737,413,880,南京城市职业学院,4132014001,江苏省,南京市,专科,nan,南京城市职业学院(新街口校区),118.795204,32.045252,209fe1a953bb3ed2badf8fd4,秦淮区
738,413,880,南京城市职业学院,4132014001,江苏省,南京市,专科,nan,南京城市职业学院(浦口校区),118.719077,32.114526,a0c9a272bbbf2479fea778c3,浦口区
739,413,880,南京城市职业学院,4132014001,江苏省,南京市,专科,nan,南京城市职业学院(玄武分校),118.82858,32.057472,3c641b77147f8f5408ccddeb,玄武区
740,413,880,南京城市职业学院,4132014001,江苏省,南京市,专科,nan,南京城市职业学院,118.841294,31.958958,909757d711150a6fbb17e7af,江宁区
741,413,880,南京城市职业学院,4132014001,江苏省,南京市,专科,nan,南京城市职业学院下关校区(幕府西路校区),118.781235,32.113062,820239ae487ff8a458f6bed6,鼓楼区
742,415,882,苏州高博软件技术职业学院,4132014163,江苏省教育厅,苏州市,专科,民办,苏州高博软件技术职业学院,120.424515,31.326822,881a28e700ae2947f942b246,虎丘区
743,416,883,南京旅游职业学院,4132014180,江苏省,南京市,专科,nan,南京旅游职业学院,118.89785,31.934879,60bf6264c043214714c8f656,江宁区
744,416,883,南京旅游职业学院,4132014180,江苏省,南京市,专科,nan,南京旅游职业学院(华严岗校区),118.755239,32.081766,8aca779926899f55b45f1eb4,鼓楼区
745,418,885,苏州信息职业技术学院,4132014256,江苏省,苏州市,专科,nan,苏州信息职业技术学院,120.6397,31.140909,34f68ab06109780a8f55ecd7,吴江区
746,418,885,苏州信息职业技术学院,4132014256,江苏省,苏州市,专科,nan,苏州信息职业技术学院,120.642949,31.1407,008b8d1fb98a5fe03686f454,吴江区
747,419,886,宿迁泽达职业技术学院,4132014293,江苏省教育厅,宿迁市,专科,民办,宿迁泽达职业技术学院,118.289859,34.026099,dffd4642a86c9bb23d9a5ebe,宿豫区
748,419,886,宿迁泽达职业技术学院,4132014293,江苏省教育厅,宿迁市,专科,民办,宿迁泽达职业技术学院-甲骨文OAEC软件学院,118.291164,34.025476,2436ba636f65b42f4bcc4a6a,宿豫区
749,423,890,江苏商贸职业学院,4132014475,江苏省,南通市,专科,nan,江苏商贸职业学院,120.895329,32.058128,1bf85b2573d5e4a4a1a9340d,崇川区
750,424,891,南通师范高等专科学校,4132014493,江苏省,南通市,专科,nan,南通师范高等专科学校(新校区),120.979166,31.919287,7e61b085a0ae25d2d13ce36b,崇川区
751,424,891,南通师范高等专科学校,4132014493,江苏省,南通市,专科,nan,南通师范高等专科学校,120.880451,32.010902,f4460918d98a006ab11e36c4,崇川区
752,425,892,扬州中瑞酒店职业学院,4132014528,江苏省教育厅,扬州市,专科,民办,扬州中瑞酒店职业学院,119.362693,32.375128,38a656605c34bec48bf15d4b,邗江区
753,426,893,江苏护理职业学院,4132014541,江苏省,淮安市,专科,nan,江苏护理职业学院,119.054362,33.541581,b6c5e1852a7b5822b020a822,清江浦区
754,426,893,江苏护理职业学院,4132014541,江苏省,淮安市,专科,nan,江苏护理职业学院(黄河校区),119.021845,33.626976,c43eac364a12b853ab0dd88b,淮阴区
755,428,895,江苏城乡建设职业学院,4132014543,江苏省,常州市,专科,nan,江苏城乡建设职业学院,119.75311,31.770854,8c77fa8a3c6c316c5cd4fe9d,钟楼区
756,428,895,江苏城乡建设职业学院,4132014543,江苏省,常州市,专科,nan,江苏城乡建设职业学院(湖塘校区),119.961934,31.733296,a3ac3c3e14b1caed1329353a,武进区
757,428,895,江苏城乡建设职业学院,4132014543,江苏省,常州市,专科,nan,江苏城乡建设职业学院木梳路校区(清潭校区),119.941104,31.776722,93f614022b8939519a005023,钟楼区
758,428,895,江苏城乡建设职业学院,4132014543,江苏省,常州市,专科,nan,江苏城乡建设职业学院邹区殷村校区,119.753723,31.770743,158b79ce0bdc5ca8c61e519a,钟楼区
759,429,896,江苏航空职业技术学院,4132014568,江苏省,镇江市,专科,nan,江苏航空职业技术学院,119.725991,32.149143,87dd9fb82ce4776f40024512,京口区
760,429,896,江苏航空职业技术学院,4132014568,江苏省,镇江市,专科,nan,江苏航空职业技术学院-镇江高职院,119.7263,32.147424,dac05958f744471bafee7a2c,京口区
761,430,897,江苏安全技术职业学院,4132014589,江苏省,徐州市,专科,nan,江苏安全技术职业学院(贾汪校区),117.488022,34.429799,9293f951135270cbcf06a4e2,贾汪区
762,430,897,江苏安全技术职业学院,4132014589,江苏省,徐州市,专科,nan,江苏安全技术职业学院(云龙校区),117.256313,34.269682,c8f59194a0c59d42ca09f095,云龙区
763,430,897,江苏安全技术职业学院,4132014589,江苏省,徐州市,专科,nan,江苏安全技术职业学院,117.486998,34.431404,9f2a007c9d8217cf2cb90839,贾汪区
764,430,897,江苏安全技术职业学院,4132014589,江苏省,徐州市,专科,nan,江苏安全技术职业学院,117.486998,34.431404,364697adcb06da3a15948e80,贾汪区
765,431,898,江苏旅游职业学院,4132014604,江苏省,扬州市,专科,nan,江苏旅游职业学院(新校区),119.41674,32.30908,ae4cbd882fb0aa11441a329b,邗江区
766,431,898,江苏旅游职业学院,4132014604,江苏省,扬州市,专科,nan,江苏旅游职业学院,119.42065,32.311148,602300e5aad30fca48cc4ab4,邗江区
767,431,898,江苏旅游职业学院,4132014604,江苏省,扬州市,专科,nan,江苏旅游职业学院-旅游经济学院,119.416577,32.306305,4d6eb6d06e7f0bca364aae08,邗江区
768,431,898,江苏旅游职业学院,4132014604,江苏省,扬州市,专科,nan,江苏旅游职业学院-旅游管理学院,119.415963,32.307377,816c34ae470eb3a9e5e965ac,邗江区
769,431,898,江苏旅游职业学院,4132014604,江苏省,扬州市,专科,nan,江苏旅游职业学院-国际商务学院,119.417333,32.306051,24eac8929377788d581093e6,邗江区
770,431,898,江苏旅游职业学院,4132014604,江苏省,扬州市,专科,nan,江苏旅游职业学院烹饪学院,119.415772,32.308041,40c37d8bfdb8a9fc40e192aa,邗江区
771,432,959,宁波职业技术学院,4133010863,浙江省,宁波市,专科,nan,宁波职业技术学院(西校区),121.820961,29.902048,fff12a9ceb79eb8ea3acc4d1,北仑区
772,432,959,宁波职业技术学院,4133010863,浙江省,宁波市,专科,nan,宁波职业技术学院,121.823791,29.900961,6583b634c3498718c27da2b1,北仑区
773,432,959,宁波职业技术学院,4133010863,浙江省,宁波市,专科,nan,宁波职业技术学院东区,121.827593,29.898856,2f51267b1cf1ff8e40ab9a4c,北仑区
774,434,961,浙江交通职业技术学院,4133012036,浙江省,杭州市,专科,nan,浙江交通职业技术学院,120.09557,30.349759,69fcd6dfac80292ecb2915a3,余杭区
775,434,961,浙江交通职业技术学院,4133012036,浙江省,杭州市,专科,nan,浙江交通职业技术学院-轨道交通学院,120.091257,30.347515,42364d081ce5a4ab6849f3de,余杭区
776,435,962,金华职业技术学院,4133012061,浙江省,金华市,专科,nan,金华职业技术学院,119.642556,29.067929,1a34f4df1b3d5a9b95ca07ff,婺城区
777,435,962,金华职业技术学院,4133012061,浙江省,金华市,专科,nan,金华职业技术学院-医学院,119.641217,29.069729,e0ae6f2b643d91b79e9d6812,婺城区
778,435,962,金华职业技术学院,4133012061,浙江省,金华市,专科,nan,金华职业技术学院(金义分校),119.839893,29.218954,ea17bb99d1d71af2f7e73b43,金东区
779,435,962,金华职业技术学院,4133012061,浙江省,金华市,专科,nan,金华职业技术学院-艺术创意学院,119.642502,29.072525,107a412d6c47d23330621296,婺城区
780,436,963,宁波城市职业技术学院,4133012645,浙江省,宁波市,专科,nan,宁波城市职业技术学院,121.577728,29.814698,34059f974cbf4e5571455b65,鄞州区
781,436,963,宁波城市职业技术学院,4133012645,浙江省,宁波市,专科,nan,宁波城市职业技术学院(奉化校区),121.379955,29.70307,eccb9c48c9b35f3cf603b8f0,奉化区
782,436,963,宁波城市职业技术学院,4133012645,浙江省,宁波市,专科,nan,宁波城市职业技术学院信息学院,121.576304,29.814502,7a0d4618f5dcf110bd484292,鄞州区
783,436,963,宁波城市职业技术学院,4133012645,浙江省,宁波市,专科,nan,宁波城市职业技术学院(西北2门),121.575107,29.816279,32868fafa20e24402811d11d,鄞州区
784,438,965,浙江同济科技职业学院,4133012647,浙江省,杭州市,专科,nan,浙江同济科技职业学院,120.316027,30.248992,2e00c5dd8f1c5f1dd6851f8c,萧山区
785,439,966,浙江工商职业技术学院,4133012789,浙江省,宁波市,专科,nan,浙江工商职业技术学院,121.512311,29.869908,2410d13c2468b91c4354d7b1,海曙区
786,439,966,浙江工商职业技术学院,4133012789,浙江省,宁波市,专科,nan,浙江工商职业技术学院,121.509788,29.870453,faa6921692d597d41894c6a8,海曙区
787,439,966,浙江工商职业技术学院,4133012789,浙江省,宁波市,专科,nan,浙江工商职业技术学院-商学院,121.513313,29.869955,11ffc37f3d882b08d8131869,海曙区
788,440,967,台州职业技术学院,4133012790,浙江省,台州市,专科,nan,台州职业技术学院,121.405764,28.659357,d219bb1d2054998af50e7730,椒江区
789,440,967,台州职业技术学院,4133012790,浙江省,台州市,专科,nan,台州职业技术学院,121.409801,28.659051,69c812a4375503cb306212b0,椒江区
790,440,967,台州职业技术学院,4133012790,浙江省,台州市,专科,nan,台州职业技术学院-台州高等教育园区,121.407107,28.659093,803708f1e445d37801897230,椒江区
791,440,967,台州职业技术学院,4133012790,浙江省,台州市,专科,nan,台州职业技术学院(华海学院),121.179437,28.806228,fcb318b67d27a8d71d58005a,临海市
792,443,970,浙江建设职业技术学院,4133012862,浙江省,杭州市,专科,nan,浙江建设职业技术学院,120.305158,30.252249,cc0849a06b6e33519503198c,萧山区
793,443,970,浙江建设职业技术学院,4133012862,浙江省,杭州市,专科,nan,浙江建设职业技术学院继续教育学院,120.137643,30.286247,7833191b59bfb0b1fbdc85ae,西湖区
794,444,971,浙江艺术职业学院,4133012863,浙江省,杭州市,专科,nan,浙江艺术职业学院,120.163144,30.180824,3c0ea7c51e3b059dfbf0cbc5,滨江区
795,444,971,浙江艺术职业学院,4133012863,浙江省,杭州市,专科,nan,浙江艺术职业学院(东冠校区),120.171267,30.167663,7e4fe18df4d673fc0e3dda4c,滨江区
796,446,973,浙江商业职业技术学院,4133012865,浙江省,杭州市,专科,nan,浙江商业职业技术学院(滨江校区),120.17042,30.180812,a6695fbde033f52c057ce819,滨江区
797,446,973,浙江商业职业技术学院,4133012865,浙江省,杭州市,专科,nan,浙江商业职业技术学院(德胜校区),120.163162,30.300186,3dc9befd43edbc6bbea2401c,拱墅区
798,446,973,浙江商业职业技术学院,4133012865,浙江省,杭州市,专科,nan,浙江商业职业技术学院艺术设计学院,120.171158,30.181223,137239d938889274283a9f2b,滨江区
799,446,973,浙江商业职业技术学院,4133012865,浙江省,杭州市,专科,nan,浙江商业职业技术学院教学楼-1栋(德胜校区),120.163745,30.300507,94708e2324bc49647dc876e3,拱墅区
800,447,974,浙江经济职业技术学院,4133012866,浙江省,杭州市,专科,nan,浙江经济职业技术学院,120.385485,30.315108,141565e7d0484040b34c49f2,钱塘区
801,448,975,浙江旅游职业学院,4133012867,浙江省,杭州市,专科,nan,浙江旅游职业学院(南校区),120.308893,30.248842,c5ddcc080bb43cc7d913188c,萧山区
802,448,975,浙江旅游职业学院,4133012867,浙江省,杭州市,专科,nan,浙江旅游职业学院(千岛湖校区),119.111991,29.687376,48db9178b858d7b995f08cdc,淳安县
803,448,975,浙江旅游职业学院,4133012867,浙江省,杭州市,专科,nan,浙江旅游职业学院(北校区),120.312062,30.252452,7204791c47cdf6ad1d1d113c,萧山区
804,449,976,浙江育英职业技术学院,4133012868,浙江省教育厅,杭州市,专科,民办,浙江育英职业技术学院,120.358136,30.311075,4cf8d24e6a4f15e59cf7793c,江干区
805,453,980,杭州职业技术学院,4133012872,浙江省,杭州市,专科,nan,杭州职业技术学院,120.359645,30.327048,38e480371255e448373a713c,钱塘区
806,455,982,湖州职业技术学院,4133012875,浙江省,湖州市,专科,nan,湖州职业技术学院,120.137571,30.882815,66831210d78eaa9c725e80e7,吴兴区
807,456,983,绍兴职业技术学院,4133012876,浙江省教育厅,绍兴市,专科,民办,绍兴职业技术学院,120.56757,29.986662,915331ec6e643a4d364aae94,越城区
808,456,983,绍兴职业技术学院,4133012876,浙江省教育厅,绍兴市,专科,民办,绍兴职业技术学院,120.564303,29.989337,86e3906b5803371f6140a9c6,越城区
809,456,983,绍兴职业技术学院,4133012876,浙江省教育厅,绍兴市,专科,民办,绍兴职业技术学院,120.56466,29.989409,0d305379076045698bdb734e,越城区
810,456,983,绍兴职业技术学院,4133012876,浙江省教育厅,绍兴市,专科,民办,绍兴职业技术学院-B区,120.565175,29.988022,4ed7201c4a7d610a266e9844,越城区
811,456,983,绍兴职业技术学院,4133012876,浙江省教育厅,绍兴市,专科,民办,绍兴职业技术学院C区,120.566699,29.988648,745487847e99ec71a11de9b4,越城区
812,456,983,绍兴职业技术学院,4133012876,浙江省教育厅,绍兴市,专科,民办,绍兴职业技术学院-E区,120.567056,29.986454,d0a2a34bfcacf915354aaea9,越城区
813,459,986,浙江东方职业技术学院,4133013002,浙江省教育厅,温州市,专科,民办,浙江东方职业技术学院(滨海校区),120.806319,27.811584,b0b2f3359731429445572655,龙湾区
814,459,986,浙江东方职业技术学院,4133013002,浙江省教育厅,温州市,专科,民办,浙江东方职业技术学院(金竹校区),120.67424,27.936598,d576797a2fb4f7c635b06cb5,瓯海区
815,461,988,浙江纺织服装职业技术学院,4133013025,浙江省,宁波市,专科,nan,浙江纺织服装职业技术学院,121.631262,29.917872,c29c30cb22e8dcdaee74f852,镇海区
816,463,990,浙江长征职业技术学院,4133013027,浙江省教育厅,杭州市,专科,民办,浙江长征职业技术学院,120.025999,30.214131,5508504d2f81facac7f02512,西湖区
817,472,999,浙江汽车职业技术学院,4133014089,浙江省教育厅,台州市,专科,民办,浙江汽车职业技术学院,121.177119,28.880333,101bc61b6993feddc42ba105,临海市
818,472,999,浙江汽车职业技术学院,4133014089,浙江省教育厅,台州市,专科,民办,浙江汽车职业技术学院-生活区,121.175331,28.878782,5d257abf04d1bc46f32d8342,临海市
819,477,1004,浙江宇翔职业技术学院,4133014703,浙江省教育厅,湖州市,专科,民办,浙江宇翔职业技术学院,119.676039,30.626944,033d1917cf25d0061df74d83,安吉县
820,481,1054,安徽职业技术学院,4134010869,安徽省,合肥市,专科,nan,安徽职业技术学院,117.386038,31.934639,a5ef680fc23bbdd4b8df8faa,瑶海区
821,481,1054,安徽职业技术学院,4134010869,安徽省,合肥市,专科,nan,安徽职业技术学院南区,117.39113,31.930666,2eb2563599f88d37eddfcac1,瑶海区
822,481,1054,安徽职业技术学院,4134010869,安徽省,合肥市,专科,nan,安徽职业技术学院,117.386749,31.931384,e2cda21ec770ede1a4c7569e,瑶海区
823,481,1054,安徽职业技术学院,4134010869,安徽省,合肥市,专科,nan,安徽职业技术学院,117.385333,31.93167,330071754ea2396c2bd7ab0b,瑶海区
824,481,1054,安徽职业技术学院,4134010869,安徽省,合肥市,专科,nan,安徽职业技术学院,117.388165,31.931099,0d2dc8f4494a3170d12dd628,瑶海区
825,484,1057,淮南联合大学,4134011308,安徽省,淮南市,专科,nan,淮南联合大学,116.954717,32.618115,9296b10180bb9627a8f0cd18,田家庵区
826,484,1057,淮南联合大学,4134011308,安徽省,淮南市,专科,nan,淮南联合大学(北校区),117.016751,32.650892,fc4d38d4754ab3dcf60e77ea,田家庵区
827,484,1057,淮南联合大学,4134011308,安徽省,淮南市,专科,nan,淮南联合大学(凤台分校),116.723727,32.727073,226e5fd07712d33497031945,凤台县
828,484,1057,淮南联合大学,4134011308,安徽省,淮南市,专科,nan,淮南联合大学教学楼-东区,116.956676,32.619242,0c8b1b0869e07fc2e115f928,田家庵区
829,486,1059,安徽水利水电职业技术学院,4134012073,安徽省,合肥市,专科,nan,安徽水利水电职业技术学院,117.43332,31.83094,eb1fc8710c9e2e788c55ec89,肥东县
830,491,1064,淮南职业技术学院,4134012220,安徽省,淮南市,专科,nan,淮南职业技术学院,117.019337,32.627693,e889a744b61367b58605bfdc,田家庵区
831,491,1064,淮南职业技术学院,4134012220,安徽省,淮南市,专科,nan,淮南职业技术学院-医学系(洞山校区),117.017623,32.628938,f87cc71b2ed298002bd7abea,田家庵区
832,491,1064,淮南职业技术学院,4134012220,安徽省,淮南市,专科,nan,淮南职业技术学院-图书馆(洞山校区),117.018024,32.627944,62e3eb6a6b528af22eb17eeb,田家庵区
833,496,1069,六安职业技术学院,4134012813,安徽省,六安市,专科,nan,六安职业技术学院,116.55059,31.837742,e62b9eae1a7ef7182fb90891,金安区
834,496,1069,六安职业技术学院,4134012813,安徽省,六安市,专科,nan,六安职业技术学院,116.494462,31.742919,30edd7455c2e86485d0d0219,裕安区
835,497,1070,安徽电子信息职业技术学院,4134012814,安徽省,蚌埠市,专科,nan,安徽电子信息职业技术学院,117.430518,32.902833,07f3c8b5ea5c8e636240a932,龙子湖区
836,499,1072,安徽交通职业技术学院,4134012816,安徽省,合肥市,专科,nan,安徽交通职业技术学院(北校区),117.30536,31.83568,b3aa435d41c1810b147643b5,包河区
837,499,1072,安徽交通职业技术学院,4134012816,安徽省,合肥市,专科,nan,安徽交通职业技术学院(南区),117.303245,31.830046,3e3203b06d51ae9609a8d478,包河区
838,500,1073,安徽体育运动职业技术学院,4134012817,安徽省,合肥市,专科,nan,安徽体育运动职业技术学院,117.358661,31.776554,e2282b90d21fce7b5e0d02ac,包河区
839,500,1073,安徽体育运动职业技术学院,4134012817,安徽省,合肥市,专科,nan,安徽体育运动职业技术学院(南区),117.304447,31.861887,fd293d04e452a8e0db1318d3,包河区
840,503,1076,合肥职业技术学院,4134013058,安徽省,合肥市,专科,nan,合肥职业技术学院科硕创新创业学院,117.247996,31.808153,6c5432cf7efcbdf1dbd89119,蜀山区
841,505,1078,池州职业技术学院,4134013060,安徽省,池州市,专科,nan,池州职业技术学院,117.480927,30.666441,f7aedd5f45d5d09428d7abcf,贵池区
842,505,1078,池州职业技术学院,4134013060,安徽省,池州市,专科,nan,池州职业技术学院,117.485729,30.665437,d06c8cef89dd73262902e1cf,贵池区
843,505,1078,池州职业技术学院,4134013060,安徽省,池州市,专科,nan,池州职业技术学院创业学院,117.486044,30.664981,6238818b4b7d3fa8fa0cad84,贵池区
844,507,1080,安徽广播影视职业技术学院,4134013062,安徽省,合肥市,专科,nan,安徽广播影视职业技术学院,117.378587,31.935332,295784f9db763dbacafa5f7c,瑶海区
845,509,1082,安徽电气工程职业技术学院,4134013336,安徽省,合肥市,专科,nan,安徽电气工程职业技术学院(新校区),117.307128,31.819802,7bfa08fca0f4cf7f24d2bbba,包河区
846,509,1082,安徽电气工程职业技术学院,4134013336,安徽省,合肥市,专科,nan,安徽电气工程职业技术学院(黄山路),117.267767,31.848518,2527be1eacdeaab34bfc8db0,蜀山区
847,509,1082,安徽电气工程职业技术学院,4134013336,安徽省,合肥市,专科,nan,安徽电气工程职业技术学院(红枫路校区),117.201108,31.834473,f889c93055befcc816a1905e,蜀山区
848,512,1085,安徽机电职业技术学院,4134013339,安徽省,芜湖市,专科,nan,安徽机电职业技术学院,118.368311,31.289016,24907e07f3fb285c58f6bea2,弋江区
849,514,1087,安徽中澳科技职业学院,4134013341,安徽省,合肥市,专科,nan,安徽中澳科技职业学院(庐阳校区),117.257989,31.884107,db1f39d425b3ac6ff4c59cb0,庐阳区
850,518,1091,安庆职业技术学院,4134013345,安徽省,安庆市,专科,nan,安庆职业技术学院,117.136028,30.545232,68ed0e79763ff62b213bf293,迎江区
851,518,1091,安庆职业技术学院,4134013345,安徽省,安庆市,专科,nan,安庆职业技术学院(怀宁学院),116.85668,30.756497,fa1d5304085ccfd28505bf67,怀宁县
852,518,1091,安庆职业技术学院,4134013345,安徽省,安庆市,专科,nan,安庆职业技术学院-中德诺浩汽车学院,117.136095,30.542496,ccd445c5a49e8e00ad31e52d,迎江区
853,518,1091,安庆职业技术学院,4134013345,安徽省,安庆市,专科,nan,安庆职业技术学院潜山学院,116.581265,30.655499,2b8499e7b7f290df0b1cc781,潜山市
854,520,1093,马鞍山师范高等专科学校,4134013760,安徽省,马鞍山市,专科,nan,马鞍山师范高等专科学校,118.502797,31.661304,6b0ba14eea5f5013d518b7c4,雨山区
855,520,1093,马鞍山师范高等专科学校,4134013760,安徽省,马鞍山市,专科,nan,马鞍山师范高等专科学校(滨江校区),118.349228,31.727734,7847b9f7f90f676533621208,和县
856,520,1093,马鞍山师范高等专科学校,4134013760,安徽省,马鞍山市,专科,nan,马鞍山师范高等专科学校软件与互联网学院(秀山校区),118.562807,31.703277,ba130b188044d995f72310b6,花山区
857,521,1094,安徽财贸职业学院,4134013845,安徽省,合肥市,专科,nan,安徽财贸职业学院(翡翠校区),117.185894,31.75871,d5464cf8a4de8a57fda77810,肥西县
858,521,1094,安徽财贸职业学院,4134013845,安徽省,合肥市,专科,nan,安徽财贸职业学院(和平校区),117.37264,31.850126,0abf14988f15164a1f3894ff,瑶海区
859,521,1094,安徽财贸职业学院,4134013845,安徽省,合肥市,专科,nan,安徽财贸职业学院(蜀山校区),117.185642,31.834889,71a7ddd15f59e983616858cc,蜀山区
860,522,1095,安徽国际商务职业学院,4134013846,安徽省,合肥市,专科,nan,安徽国际商务职业学院(新校区),117.276349,31.990983,46e86fdd9d0e796cd13ce3ef,长丰县
861,523,1096,安徽公安职业学院,4134013847,安徽省,合肥市,专科,nan,安徽公安职业学院,117.18346,31.834892,a0505a5695de92d4adb22a0a,蜀山区
862,525,1098,安徽审计职业学院,4134013849,安徽省,合肥市,专科,nan,安徽审计职业学院,117.264486,31.729764,413473544623b3096f3e1be1,蜀山区
863,525,1098,安徽审计职业学院,4134013849,安徽省,合肥市,专科,nan,安徽审计职业学院(老校区),117.311771,31.822337,c505c2f69ffd76e44f6d461c,包河区
864,532,1105,安徽绿海商务职业学院,4134014133,安徽省教育厅,合肥市,专科,民办,安徽绿海商务职业学院,117.205381,31.755395,eb36750315a5211b00ec0110,蜀山区
865,532,1105,安徽绿海商务职业学院,4134014133,安徽省教育厅,合肥市,专科,民办,安徽绿海商务职业学院-捷成学校,117.205131,31.756646,976d8e90c363315283a00cec,蜀山区
866,533,1106,合肥共达职业技术学院,4134014135,安徽省教育厅,合肥市,专科,民办,合肥共达职业技术学院,117.321083,31.969818,f99448f58fcaec8343ab9a9d,瑶海区
867,533,1106,合肥共达职业技术学院,4134014135,安徽省教育厅,合肥市,专科,民办,合肥共达职业技术学院(分部),117.210773,31.77909,35b2f906579713dd16948e51,蜀山区
868,536,1109,徽商职业学院,4134014191,安徽省,合肥市,专科,nan,徽商职业学院,117.037952,31.75614,2cc3c8e819b4caab4d2fdf14,肥西县
869,536,1109,徽商职业学院,4134014191,安徽省,合肥市,专科,nan,徽商职业学院(槽郢路),117.268077,31.843267,038144d6fc813254d4851f57,蜀山区
870,537,1110,马鞍山职业技术学院,4134014192,安徽省,马鞍山市,专科,nan,马鞍山职业技术学院,118.567507,31.669165,764672e5106e76ae94ec8425,雨山区
871,537,1110,马鞍山职业技术学院,4134014192,安徽省,马鞍山市,专科,nan,马鞍山职业技术学院,118.563186,31.668588,64240e8b9d5bb47204026f81,雨山区
872,537,1110,马鞍山职业技术学院,4134014192,安徽省,马鞍山市,专科,nan,马鞍山职业技术学院老年大学,118.51643,31.70084,83dc1bfa78ab79e02cb908fc,花山区
873,539,1112,安徽矿业职业技术学院,4134014229,安徽省教育厅,淮北市,专科,民办,安徽矿业职业技术学院,116.793825,33.954644,c2e18af521b3beaf0869d96e,相山区
874,540,1113,合肥信息技术职业学院,4134014230,安徽省教育厅,合肥市,专科,民办,合肥信息技术职业学院,117.17978,31.764669,7478bba1161cf6237ab55c25,肥西县
875,540,1113,合肥信息技术职业学院,4134014230,安徽省教育厅,合肥市,专科,民办,合肥信息技术职业学院,117.178207,31.76548,431f96f149ce926d4f3a5936,肥西县
876,540,1113,合肥信息技术职业学院,4134014230,安徽省教育厅,合肥市,专科,民办,合肥信息技术职业学院,117.176631,31.763961,77554fae7cf65209aaf72941,肥西县
877,541,1114,桐城师范高等专科学校,4134014273,安徽省,安庆市,专科,nan,桐城师范高等专科学校,117.031149,31.046144,9f190bf237a06c5a6b49f3fe,桐城市
878,541,1114,桐城师范高等专科学校,4134014273,安徽省,安庆市,专科,nan,桐城师范高等专科学校,117.031255,31.046157,87f788a2deee4751aaf72906,桐城市
879,544,1117,安徽汽车职业技术学院,4134014298,安徽省,合肥市,专科,nan,安徽汽车职业技术学院,117.278813,31.744957,670af5835868649c8e7727f4,包河区
880,549,1122,安徽粮食工程职业学院,4134014418,安徽省,合肥市,专科,nan,安徽粮食工程职业学院,117.402623,31.922984,690bf1c2b7bc6648e812e4f0,瑶海区
881,549,1122,安徽粮食工程职业学院,4134014418,安徽省,合肥市,专科,nan,安徽粮食工程职业学院-生活区,117.399733,31.923106,83d715c01df4fa8b1229351e,瑶海区
882,549,1122,安徽粮食工程职业学院,4134014418,安徽省,合肥市,专科,nan,安徽粮食工程职业学院,117.238039,31.861135,cf1ba3c83fe8267889fc06b1,蜀山区
883,549,1122,安徽粮食工程职业学院,4134014418,安徽省,合肥市,专科,nan,安徽粮食工程职业学院(西区),117.237656,31.861065,a950766ad3e080149de32129,蜀山区
884,549,1122,安徽粮食工程职业学院,4134014418,安徽省,合肥市,专科,nan,安徽粮食工程职业学院-教学区,117.403391,31.922946,94aa3fff6acd04a76fc02cee,瑶海区
885,549,1122,安徽粮食工程职业学院,4134014418,安徽省,合肥市,专科,nan,安徽粮食工程职业学院(宿舍区),117.238203,31.860801,b16f75eacf0db7296c4760c8,蜀山区
886,551,1124,合肥科技职业学院,4134014420,安徽省教育厅,合肥市,专科,民办,合肥科技职业学院,117.037167,31.752733,a5cc6c4ebb16d1531894c6e0,肥西县
887,553,1126,阜阳幼儿师范高等专科学校,4134014536,安徽省,阜阳市,专科,nan,阜阳幼儿师范高等专科学校,115.786187,32.905117,5e0e546731cd0a575bf6beef,颍州区
888,554,1127,黄山健康职业学院,4134014704,安徽省教育厅,黄山市,专科,民办,黄山健康职业学院,118.202665,29.78077,64b6efb1a407f87102294f07,休宁县
889,554,1127,黄山健康职业学院,4134014704,安徽省教育厅,黄山市,专科,民办,黄山健康职业学院,118.201129,29.780639,e2f92d844f3dc8a1f72310bb,休宁县
890,555,1128,宿州航空职业学院,4134014747,安徽省教育厅,宿州市,专科,民办,宿州航空职业学院,117.23563,33.678243,0df1e91f3eb46d5f744ff159,埇桥区
891,555,1128,宿州航空职业学院,4134014747,安徽省教育厅,宿州市,专科,民办,宿州航空职业学院,117.235736,33.676632,f76fda10936a3dc2eb1e97eb,埇桥区
892,555,1128,宿州航空职业学院,4134014747,安徽省教育厅,宿州市,专科,民办,宿州航空职业学院,117.237393,33.675631,9e6aad4523f92ff8f90cad68,埇桥区
893,555,1128,宿州航空职业学院,4134014747,安徽省教育厅,宿州市,专科,民办,宿州航空职业学院,117.236291,33.67621,06ba45ceabcbc66a260bd0b4,埇桥区
894,556,1168,福建船政交通职业学院,4135010866,福建省,福州市,专科,nan,福建船政交通职业学院,119.318408,26.033675,750ec165936def2a4c3a597b,仓山区
895,556,1168,福建船政交通职业学院,4135010866,福建省,福州市,专科,nan,福建船政交通职业学院(长安校区),119.315774,26.037381,2a7a25ece5a91f636c3e1b4f,仓山区
896,556,1168,福建船政交通职业学院,4135010866,福建省,福州市,专科,nan,福建船政交通职业学院,119.319974,26.033106,44ae3dbb4a150719a4c756f0,仓山区
897,556,1168,福建船政交通职业学院,4135010866,福建省,福州市,专科,nan,福建船政交通职业学院,119.319833,26.034168,3b5b8d5afe99162e471a3202,仓山区
898,556,1168,福建船政交通职业学院,4135010866,福建省,福州市,专科,nan,福建船政交通职业学院,119.320072,26.032284,edeb903a8cfba5db25d2bb49,仓山区
899,556,1168,福建船政交通职业学院,4135010866,福建省,福州市,专科,nan,福建船政交通职业学院世昌驾校,119.320022,26.030343,1a8c8a5bc3d089a7770269cc,仓山区
900,556,1168,福建船政交通职业学院,4135010866,福建省,福州市,专科,nan,福建船政交通职业学院(高盖山校区),119.319989,26.024919,51f7b6e0d62deaa4abf0cdcc,仓山区
901,556,1168,福建船政交通职业学院,4135010866,福建省,福州市,专科,nan,福建船政交通职业学院,119.319902,26.033734,73c9007566a2e84587154163,仓山区
902,557,1169,漳州职业技术学院,4135011314,福建省,漳州市,专科,nan,漳州职业技术学院,117.646759,24.52821,f4ad70b55e2873eec26c14ef,芗城区
903,558,1170,闽西职业技术学院,4135011315,福建省,龙岩市,专科,nan,闽西职业技术学院(南校区),117.037921,25.068978,05dd7d5f13df587fad080fca,新罗区
904,558,1170,闽西职业技术学院,4135011315,福建省,龙岩市,专科,nan,闽西职业技术学院,117.034329,25.070485,8ef77c90155d14eca104647d,新罗区
905,558,1170,闽西职业技术学院,4135011315,福建省,龙岩市,专科,nan,闽西职业技术学院(永定校区),116.730709,24.725172,c2f01b1bb2de4337fb2d61be,永定区
906,558,1170,闽西职业技术学院,4135011315,福建省,龙岩市,专科,nan,闽西职业技术学院上杭分校,116.445927,25.057009,81ffc18103305c3f882fb575,上杭县
907,558,1170,闽西职业技术学院,4135011315,福建省,龙岩市,专科,nan,闽西职业技术学院护理系(筹),117.03211,25.105841,274e14ca7110b914f7b916be,新罗区
908,560,1172,福建华南女子职业学院,4135011499,福建省教育厅,福州市,专科,民办,福建华南女子职业学院(旗山校区),119.209437,26.030498,d6ee87246da5399da9f0cda8,闽侯县
909,560,1172,福建华南女子职业学院,4135011499,福建省教育厅,福州市,专科,民办,福建华南女子职业学院(烟台山校区),119.321122,26.05089,071de35abcad65779a00500e,仓山区
910,561,1173,福州职业技术学院,4135011502,福建省,福州市,专科,nan,福州职业技术学院,119.16418,26.080417,4a6525bb9ed0f29eafee7ac6,闽侯县
911,565,1177,福建电力职业技术学院,4135012628,福建省,泉州市,专科,nan,福建电力职业技术学院,118.593126,24.952475,75036835970637af5e0d0203,丰泽区
912,565,1177,福建电力职业技术学院,4135012628,福建省,泉州市,专科,nan,福建电力职业技术学院(洛江校区),118.642838,25.026529,96a9bcb2cb0572ce336212ee,洛江区
913,566,1178,厦门海洋职业技术学院,4135012629,福建省,厦门市,专科,nan,厦门海洋职业技术学院(翔安校区),118.262656,24.59813,968298d8aeb515b9c61e518f,翔安区
914,566,1178,厦门海洋职业技术学院,4135012629,福建省,厦门市,专科,nan,厦门海洋职业技术学院(思明校区),118.112067,24.494228,803708f192db0179008972b6,思明区
915,566,1178,厦门海洋职业技术学院,4135012629,福建省,厦门市,专科,nan,厦门海洋职业技术学院-图书馆(翔安校区),118.26183,24.598005,7a8f4bf92211a9a96f47608e,翔安区
916,568,1180,福建卫生职业技术学院,4135012633,福建省,福州市,专科,nan,福建卫生职业技术学院,119.177774,26.14849,39d43f827ce4c186a9059dae,闽侯县
917,568,1180,福建卫生职业技术学院,4135012633,福建省,福州市,专科,nan,福建卫生职业技术学院(榕西校区),119.200085,26.134739,24ac34b8c0786601d518b728,闽侯县
918,572,1184,泉州华光职业学院,4135012927,福建省教育厅,泉州市,专科,民办,泉州华光职业学院,118.707302,24.966098,ad482ee0aad39b6f95ec84ca,惠安县
919,572,1184,泉州华光职业学院,4135012927,福建省教育厅,泉州市,专科,民办,泉州华光职业学院(北区),118.709693,24.971114,e420b3d044aa5784a8f729f9,惠安县
920,572,1184,泉州华光职业学院,4135012927,福建省教育厅,泉州市,专科,民办,泉州华光职业学院商学院,118.707436,24.965578,683ead6fa15c7ec540ab9add,惠安县
921,572,1184,泉州华光职业学院,4135012927,福建省教育厅,泉州市,专科,民办,泉州华光职业学院西区,118.707611,24.971562,cfcfb554fbc851642b02e182,惠安县
922,573,1185,闽北职业技术学院,4135013764,福建省,南平市,专科,nan,闽北职业技术学院(江南校区),118.258048,26.584793,14b279c95039f064940319ad,延平区
923,573,1185,闽北职业技术学院,4135013764,福建省,南平市,专科,nan,闽北职业技术学院,118.262337,26.585694,47fe23555073e9081ce999ec,延平区
924,574,1186,福州黎明职业技术学院,4135013765,福建省教育厅,福州市,专科,民办,福州黎明职业技术学院,119.186194,25.912993,181653345a32c907fb2d61cc,闽侯县
925,574,1186,福州黎明职业技术学院,4135013765,福建省教育厅,福州市,专科,民办,福州黎明职业技术学院(福屿校区),119.284842,26.084457,b292b3aa88a0492bbe4842e2,鼓楼区
926,574,1186,福州黎明职业技术学院,4135013765,福建省教育厅,福州市,专科,民办,福州黎明职业技术学院产业研究院,119.250778,26.060326,ba21516d2657b2f43786f449,仓山区
927,575,1187,厦门演艺职业学院,4135013767,福建省教育厅,厦门市,专科,民办,厦门演艺职业学院,118.272552,24.588576,8b960c32f7bead3c40e19231,翔安区
928,576,1188,厦门华天涉外职业技术学院,4135013768,福建省教育厅,厦门市,专科,民办,厦门华天涉外职业技术学院,118.256782,24.609822,4cf8d24e24a1cbe49cf7795a,翔安区
929,576,1188,厦门华天涉外职业技术学院,4135013768,福建省教育厅,厦门市,专科,民办,厦门华天涉外职业技术学院-海外学院,118.255471,24.610914,b43bc343487ce7cabadf8f1c,翔安区
930,577,1189,福州科技职业技术学院,4135013769,福建省教育厅,福州市,专科,民办,福州科技职业技术学院,119.253429,26.085497,5211d219a286215a7dc87604,仓山区
931,577,1189,福州科技职业技术学院,4135013769,福建省教育厅,福州市,专科,民办,福州科技职业技术学院,119.193005,26.099341,453aa7a91a69b976d12dd638,闽侯县
932,577,1189,福州科技职业技术学院,4135013769,福建省教育厅,福州市,专科,民办,福州科技职业技术学院,119.192705,26.099019,d6a700dcb114ea2d48cc4aec,闽侯县
933,577,1189,福州科技职业技术学院,4135013769,福建省教育厅,福州市,专科,民办,福州科技职业技术学院,119.192855,26.09918,865c1ebb13bdf47fb320a88b,闽侯县
934,580,1192,湄洲湾职业技术学院,4135013772,福建省,莆田市,专科,nan,湄洲湾职业技术学院,118.861672,25.270463,881a28e7249a0d47f942b27a,仙游县
935,580,1192,湄洲湾职业技术学院,4135013772,福建省,莆田市,专科,nan,湄洲湾职业技术学院(梧塘校区),119.096454,25.503662,7ef85129f87436d716c9056a,涵江区
936,580,1192,湄洲湾职业技术学院,4135013772,福建省,莆田市,专科,nan,湄洲湾职业技术学院-工商管理学院,118.863489,25.271316,0cefa59218d81814e91e97e9,仙游县
937,580,1192,湄洲湾职业技术学院,4135013772,福建省,莆田市,专科,nan,湄洲湾职业技术学院-机械工程学院,118.859493,25.271434,d529eadc4cf1039609b93ac6,仙游县
938,581,1193,福建生物工程职业技术学院,4135013969,福建省,福州市,专科,nan,福建生物工程职业技术学院,119.25334,26.086639,15e1e85e216c77a25810935a,仓山区
939,581,1193,福建生物工程职业技术学院,4135013969,福建省,福州市,专科,nan,福建生物工程职业技术学院(铜盘校区),119.259763,26.110519,1dff81b60f0473e13f9a5e68,闽侯县
940,583,1195,福建幼儿师范高等专科学校,4135013972,福建省,福州市,专科,nan,福建幼儿师范高等专科学校,119.312999,26.036059,cf8463352747e37feddfca87,仓山区
941,583,1195,福建幼儿师范高等专科学校,4135013972,福建省,福州市,专科,nan,福建幼儿师范高等专科学校(白马校区),119.294011,26.087112,69fcd6df46ec432ecb2915b6,鼓楼区
942,583,1195,福建幼儿师范高等专科学校,4135013972,福建省,福州市,专科,nan,福建幼儿师范高等专科学校(金山校区),119.271086,26.033532,2b9810cd7a1f1832f33cbac4,仓山区
943,584,1196,厦门城市职业学院,4135013973,福建省,厦门市,专科,nan,厦门城市职业学院,118.172844,24.468855,691305231574820a735e80ae,思明区
944,584,1196,厦门城市职业学院,4135013973,福建省,厦门市,专科,nan,厦门城市职业学院(斗西校区),118.092488,24.471295,d6c5d991477891e930169b76,思明区
945,584,1196,厦门城市职业学院,4135013973,福建省,厦门市,专科,nan,厦门城市职业学院D3区,118.168336,24.463958,867caa60bccca40f9b68b42c,思明区
946,587,1199,宁德职业技术学院,4135013977,福建省,宁德市,专科,nan,宁德职业技术学院,119.662702,27.100689,a3f21eeea57a86442eb17ea4,福安市
947,587,1199,宁德职业技术学院,4135013977,福建省,宁德市,专科,nan,宁德职业技术学院蕉城分院,119.537933,26.656466,4b1d6293a568bff99222e0ca,蕉城区
948,587,1199,宁德职业技术学院,4135013977,福建省,宁德市,专科,nan,宁德职业技术学院北校区,119.659945,27.097967,97bf162d0aada660b320a8c1,福安市
949,588,1200,福州软件职业技术学院,4135013978,福建省教育厅,福州市,专科,民办,福州软件职业技术学院(长乐校区),119.709605,25.974794,102eecc1f6956e7135b06c45,长乐区
950,590,1202,厦门软件职业技术学院,4135014059,福建省教育厅,厦门市,专科,民办,厦门软件职业技术学院,118.081478,24.622274,783a63f07e5f1c8a9ef7795a,集美区
951,591,1203,福建体育职业技术学院,4135014060,福建省,福州市,专科,nan,福建体育职业技术学院,119.306166,26.118805,f99854c4c3a4cd04fd0eb098,鼓楼区
952,593,1205,厦门南洋职业学院,4135014111,福建省教育厅,厦门市,专科,民办,厦门南洋职业学院,118.2595,24.606617,3ccd35af7705910d13293516,翔安区
953,593,1205,厦门南洋职业学院,4135014111,福建省教育厅,厦门市,专科,民办,厦门南洋职业学院(西南2门),118.255319,24.607336,7b9cf41a18618ca8c61e5107,翔安区
954,594,1206,厦门东海职业技术学院,4135014112,福建省教育厅,厦门市,专科,民办,厦门东海职业技术学院,118.179015,24.751717,5e5d952775e77d255f0d02b5,同安区
955,595,1207,漳州科技职业学院,4135014113,福建省教育厅,漳州市,专科,民办,漳州科技职业学院,117.543091,24.082247,9ee5a929741be0e5c72ba114,漳浦县
956,598,1210,漳州卫生职业学院,4135014117,福建省,漳州市,专科,nan,漳州卫生职业学院,117.640172,24.533657,50fb64ff7962e95de9f8531d,芗城区
957,600,1212,泉州轻工职业学院,4135014232,福建省教育厅,泉州市,专科,民办,泉州轻工职业学院,118.554034,24.81646,5c56edd65f235159a1d230dc,晋江市
958,600,1212,泉州轻工职业学院,4135014232,福建省教育厅,泉州市,专科,民办,泉州轻工职业学院(东南门),118.554714,24.813585,101656229a430b575fd4fe53,晋江市
959,606,1263,上饶幼儿师范高等专科学校,3636000312,江西省,上饶市,专科,nan,上饶幼儿师范高等专科学校,117.988372,28.423997,7e363692b8b0f6598733046b,信州区
960,606,1263,上饶幼儿师范高等专科学校,3636000312,江西省,上饶市,专科,nan,上饶幼儿师范高等专科学校(万年校区),117.069523,28.712093,019955807badaafc306212a3,万年县
961,607,1264,抚州幼儿师范高等专科学校,3636000519,江西省,抚州市,专科,nan,抚州幼儿师范高等专科学校,116.418811,27.954949,4f57559939943d0d95ec84b1,临川区
962,609,1266,江西医学高等专科学校,4136010888,江西省,上饶市,专科,nan,江西医学高等专科学校,117.983285,28.424548,7bfd452371de1a9e4bcc4aeb,信州区
963,610,1267,九江职业大学,4136011505,江西省,九江市,专科,nan,九江职业大学(濂溪校区),116.008904,29.658458,588f6e173fac38641e580038,濂溪区
964,610,1267,九江职业大学,4136011505,江西省,九江市,专科,nan,九江职业大学(鹤问湖校区),115.968728,29.707419,17dbfe64cc6d36192fb908ef,浔阳区
965,610,1267,九江职业大学,4136011505,江西省,九江市,专科,nan,九江职业大学,116.006419,29.663201,8739b46edfcaa1743b221c14,濂溪区
966,610,1267,九江职业大学,4136011505,江西省,九江市,专科,nan,九江职业大学,116.00688,29.663301,10b53604649040e6d618b735,濂溪区
967,611,1268,九江职业技术学院,4136011785,江西省,九江市,专科,nan,九江职业技术学院,115.999008,29.686579,4fa7c073a62b6f0ef82d6125,濂溪区
968,611,1268,九江职业技术学院,4136011785,江西省,九江市,专科,nan,九江职业技术学院(濂溪校区),116.021312,29.676474,fc4a3a3eea951249bb17e7d5,濂溪区
969,615,1272,江西电力职业技术学院,4136012933,江西省,南昌市,专科,nan,江西电力职业技术学院,115.815475,28.723998,bd5046e8c54a2341d72ce209,新建区
970,616,1273,江西环境工程职业学院,4136012934,江西省,赣州市,专科,nan,江西环境工程职业学院(东江源校区),114.921123,25.889649,ada07f48ac1607b2c51b759c,章贡区
971,616,1273,江西环境工程职业学院,4136012934,江西省,赣州市,专科,nan,江西环境工程职业学院南康分院,114.765403,25.701612,cd341c9892601ee251e5c5f0,南康区
972,616,1273,江西环境工程职业学院,4136012934,江西省,赣州市,专科,nan,江西环境工程职业学院-林业与环境学院,114.921131,25.890976,edeb5690b76245961e58008e,章贡区
973,616,1273,江西环境工程职业学院,4136012934,江西省,赣州市,专科,nan,江西环境工程职业学院九龙驾校,114.920411,25.88599,2c0c49503bcdd27716a19081,章贡区
974,618,1275,鹰潭职业技术学院,4136012937,江西省,鹰潭市,专科,nan,鹰潭职业技术学院,117.063484,28.301142,558eb93b68f29d6081288a66,贵溪市
975,618,1275,鹰潭职业技术学院,4136012937,江西省,鹰潭市,专科,nan,鹰潭职业技术学院(江铜校区),117.19525,28.27726,743c8da52367f3fbeb12e44f,贵溪市
976,618,1275,鹰潭职业技术学院,4136012937,江西省,鹰潭市,专科,nan,鹰潭职业技术学院-鹰潭市月湖区实验学校,117.053768,28.236783,7388dffdcdd2ee96d3ff23cd,月湖区
977,618,1275,鹰潭职业技术学院,4136012937,江西省,鹰潭市,专科,nan,鹰潭职业技术学院,117.058591,28.301787,2359c4c328feaf2f2cb17e37,贵溪市
978,618,1275,鹰潭职业技术学院,4136012937,江西省,鹰潭市,专科,nan,鹰潭职业技术学院,117.058515,28.301796,7d78c756323f193082288a85,贵溪市
979,619,1276,江西信息应用职业技术学院,4136012939,江西省,南昌市,专科,nan,江西信息应用职业技术学院,115.91224,28.593585,cac5fc7642ad3ff32cb96d1b,青云谱区
980,621,1278,江西财经职业学院,4136012941,江西省,九江市,专科,nan,江西财经职业学院,116.001418,29.710789,c04f0ed001fa8093f13cba9f,浔阳区
981,621,1278,江西财经职业学院,4136012941,江西省,九江市,专科,nan,江西财经职业学院(八里湖校区),115.92126,29.641359,ea5fcd0c67c8781a636858b8,柴桑区
982,622,1279,江西应用技术职业学院,4136012942,江西省,赣州市,专科,nan,江西应用技术职业学院(黄金校区),114.900057,25.808199,17009d98c353ecee1894c6f1,章贡区
983,622,1279,江西应用技术职业学院,4136012942,江西省,赣州市,专科,nan,江西应用技术职业学院(章贡校区),114.950922,25.853707,2e00c5ddabafbb1cd7851f39,章贡区
984,622,1279,江西应用技术职业学院,4136012942,江西省,赣州市,专科,nan,江西应用技术职业学院-科技产业大楼(红旗校区),114.950595,25.854302,362b009a74ab21766c3e1b95,章贡区
985,622,1279,江西应用技术职业学院,4136012942,江西省,赣州市,专科,nan,江西应用技术职业学院-教学大楼(红旗校区),114.950595,25.854302,56b9ab166a43f48b1894c609,章贡区
986,628,1285,江西工业贸易职业技术学院,4136013423,江西省,南昌市,专科,nan,江西工业贸易职业技术学院,115.793989,28.660004,844a750ea8dd9bc462685827,红谷滩区
987,629,1286,宜春职业技术学院,4136013424,江西省,宜春市,专科,nan,宜春职业技术学院(北区),114.374715,27.803722,be49464074ef3cdef42310b1,袁州区
988,629,1286,宜春职业技术学院,4136013424,江西省,宜春市,专科,nan,宜春职业技术学院(新能源汽车学院),114.406752,27.871681,99fb9172cfd7ab476f4760b0,袁州区
989,631,1288,江西生物科技职业学院,4136013426,江西省,南昌市,专科,nan,江西生物科技职业学院,115.944008,28.568898,87248d9604dea1b32806ce62,南昌县
990,633,1290,抚州职业技术学院,4136013428,江西省,抚州市,专科,nan,抚州职业技术学院,116.401229,27.961227,bbeac9361128d6ab33169b49,临川区
991,633,1290,抚州职业技术学院,4136013428,江西省,抚州市,专科,nan,抚州职业技术学院,116.397718,27.965447,679faf52ae688116f219371f,临川区
992,633,1290,抚州职业技术学院,4136013428,江西省,抚州市,专科,nan,抚州职业技术学院,116.398052,27.965505,71aac6c05964c831f82d619f,临川区
993,633,1290,抚州职业技术学院,4136013428,江西省,抚州市,专科,nan,抚州职业技术学院-抚州职院驾校,116.400606,27.960833,917a70069bd1125272210b72,临川区
994,634,1291,江西中医药高等专科学校,4136013775,江西省,抚州市,专科,nan,江西中医药高等专科学校(新校区),116.403721,27.952499,da17f4febdf768555e0d022a,临川区
995,634,1291,江西中医药高等专科学校,4136013775,江西省,抚州市,专科,nan,江西中医药高等专科学校(老校区),116.364405,27.974593,c6453f641b030b092ad7ab40,临川区
996,635,1292,江西经济管理职业学院,4136013866,江西省,南昌市,专科,nan,江西经济管理职业学院,115.807543,28.645634,60d7bcfc13d3603e43e192f9,红谷滩区
997,637,1294,江西工程职业学院,4136013868,江西省,南昌市,专科,nan,江西工程职业学院,115.904222,28.655707,c7eca12b69d5e437e115f90f,西湖区
998,640,1297,江西航空职业技术学院,4136013871,江西省教育厅,南昌市,专科,民办,江西航空职业技术学院(新溪桥东一路),115.930386,28.646036,4fc3161ac947fea93a13fd0f,青云谱区
999,640,1297,江西航空职业技术学院,4136013871,江西省教育厅,南昌市,专科,民办,江西航空职业技术学院(昌南校区),115.939569,28.499855,ab0334a811a4ba7d4e5547ae,南昌县
1000,640,1297,江西航空职业技术学院,4136013871,江西省教育厅,南昌市,专科,民办,江西航空职业技术学院,115.955053,28.683902,e4d22f46e68389ec5cbe86e1,青山湖区
1001,640,1297,江西航空职业技术学院,4136013871,江西省教育厅,南昌市,专科,民办,江西航空职业技术学院(经开校区),115.905588,28.795449,bd905ac377756455bda240dd,新建区
1002,643,1300,江西卫生职业学院,4136013965,江西省,南昌市,专科,nan,江西卫生职业学院,115.898748,28.579699,cbe22dcb4d463958ad04578e,南昌县
1003,651,1308,景德镇陶瓷职业技术学院,4136014402,江西省教育厅,景德镇市,专科,民办,景德镇陶瓷职业技术学院,117.240006,29.366198,8bc85716b08db18c2cb96d86,浮梁县
1004,659,1316,南昌影视传播职业学院,4136014544,江西省教育厅,南昌市,专科,民办,南昌影视传播职业学院,115.960139,28.749812,f9aeac1598f6eb56cd04ef00,南昌县
1005,659,1316,南昌影视传播职业学院,4136014544,江西省教育厅,南昌市,专科,民办,南昌影视传播职业学院,115.962167,28.748279,69f97b20278fc4d62cb90879,南昌县
1006,666,1323,和君职业学院,4136014748,江西省教育厅,赣州市,专科,民办,和君职业学院,115.6126,25.844224,f68b17fa1846370581a12e6d,会昌县
1007,676,1403,山东劳动职业技术学院,4137012329,山东省,济南市,专科,nan,山东劳动职业技术学院(长清校区),116.824472,36.578294,49a02a7a76bc6a412b201a50,长清区
1008,676,1403,山东劳动职业技术学院,4137012329,山东省,济南市,专科,nan,山东劳动职业技术学院(槐荫校区),116.979222,36.652209,7d855d544e7a5aebae0457c7,槐荫区
1009,679,1406,潍坊职业学院,4137012391,山东省,潍坊市,专科,nan,潍坊职业学院,119.148671,36.722492,2ad32cc35d47f38e9d95de31,奎文区
1010,679,1406,潍坊职业学院,4137012391,山东省,潍坊市,专科,nan,潍坊职业学院(滨海校区),119.212474,37.092191,fa88646564d7a0dedeee8b5a,寒亭区
1011,679,1406,潍坊职业学院,4137012391,山东省,潍坊市,专科,nan,潍坊职业学院滨海校区,119.212924,37.094123,d5c9a2879e5a5e2443afe6be,寒亭区
1012,684,1411,山东科技职业学院,4137012819,山东省,潍坊市,专科,nan,山东科技职业学院,119.030401,36.669209,f3c2373c7afbe353d22dd634,潍城区
1013,684,1411,山东科技职业学院,4137012819,山东省,潍坊市,专科,nan,山东科技职业学院(滨海校区),119.218922,37.100762,58021c71592850ae018972a2,寒亭区
1014,684,1411,山东科技职业学院,4137012819,山东省,潍坊市,专科,nan,山东科技职业学院,119.019756,36.666212,5ce8ba4eeceb42d78d7727c4,潍城区
1015,684,1411,山东科技职业学院,4137012819,山东省,潍坊市,专科,nan,山东科技职业学院,119.020092,36.666221,741ab09f537348ae5d0d020b,潍城区
1016,690,1417,山东畜牧兽医职业学院,4137012947,山东省,潍坊市,专科,nan,山东畜牧兽医职业学院(北校区),119.177082,36.714921,f696f3c2b993f2ea1b11d531,奎文区
1017,690,1417,山东畜牧兽医职业学院,4137012947,山东省,潍坊市,专科,nan,山东畜牧兽医职业学院(南校区),119.174409,36.709816,1eeed546e2b9598fb5147f5e,奎文区
1018,696,1423,青岛酒店管理职业技术学院,4137013011,山东省,青岛市,专科,nan,青岛酒店管理职业技术学院,120.496077,36.175255,687cc92a711082031811d50e,李沧区
1019,696,1423,青岛酒店管理职业技术学院,4137013011,山东省,青岛市,专科,nan,青岛酒店管理职业技术学院-酒店工程学院,120.4961,36.176125,86ef11037148140a2ee67be6,李沧区
1020,696,1423,青岛酒店管理职业技术学院,4137013011,山东省,青岛市,专科,nan,青岛酒店管理职业技术学院-艺术学院,120.496097,36.175584,0a658edd20b398001d1d11b5,李沧区
1021,697,1424,山东信息职业技术学院,4137013012,山东省,潍坊市,专科,nan,山东信息职业技术学院,119.160842,36.71709,41c8c7761519490e1e1d1165,奎文区
1022,697,1424,山东信息职业技术学院,4137013012,山东省,潍坊市,专科,nan,山东信息职业技术学院(滨海校区),119.206584,37.088106,a5c7d23c37e90625dc1e52ff,寒亭区
1023,697,1424,山东信息职业技术学院,4137013012,山东省,潍坊市,专科,nan,山东信息职业技术学院滨海校区,119.20629,37.092287,95b000443198674579b55c56,寒亭区
1024,697,1424,山东信息职业技术学院,4137013012,山东省,潍坊市,专科,nan,山东信息职业技术学院-信锐学院,119.226065,36.749782,9cf33e206022494c5e17c3f6,寒亭区
1025,704,1431,济南职业学院,4137013323,山东省,济南市,专科,nan,济南职业学院(彩石校区),117.267088,36.639758,341c35deca5ab4bfe607386d,历城区
1026,704,1431,济南职业学院,4137013323,山东省,济南市,专科,nan,济南职业学院(南校区),117.031501,36.645702,680fb7032c74479d8ab98881,历下区
1027,704,1431,济南职业学院,4137013323,山东省,济南市,专科,nan,济南职业学院,117.271049,36.643716,fa600c6a1916fa04eb1e9768,历城区
1028,706,1433,潍坊工商职业学院,4137013388,山东省教育厅,潍坊市,专科,民办,潍坊工商职业学院,119.502634,35.963892,4ab687da5d5d35b27069d3cb,诸城市
1029,706,1433,潍坊工商职业学院,4137013388,山东省教育厅,潍坊市,专科,民办,潍坊工商职业学院,119.49978,35.96372,1df18cc1f20fcec0b320a82e,诸城市
1030,706,1433,潍坊工商职业学院,4137013388,山东省教育厅,潍坊市,专科,民办,潍坊工商职业学院,119.499751,35.963607,38143b9900768437f90cadd5,诸城市
1031,723,1450,菏泽家政职业学院,4137014118,山东省,菏泽市,专科,nan,菏泽家政职业学院,116.105329,34.766419,3083924ecb736da296f08c5f,单县
1032,724,1451,山东传媒职业学院,4137014193,山东省,济南市,专科,nan,山东传媒职业学院(章丘校区),117.487517,36.669845,447c70cb40f7107a130daa86,章丘区
1033,724,1451,山东传媒职业学院,4137014193,山东省,济南市,专科,nan,山东传媒职业学院(文东校区),117.073695,36.659366,b66eb17426d4d66a4e2fdf6f,历下区
1034,725,1452,临沂职业学院,4137014195,山东省,临沂市,专科,nan,临沂职业学院,118.292118,35.016577,b703e96bf43e61f98e1a8980,罗庄区
1035,725,1452,临沂职业学院,4137014195,山东省,临沂市,专科,nan,临沂职业学院(经济开发区校区),118.430615,34.99478,96dc37d85e87553743ab9a70,河东区
1036,725,1452,临沂职业学院,4137014195,山东省,临沂市,专科,nan,临沂职业学院,118.293047,35.014668,3b61f52bca68a4af901fc94c,罗庄区
1037,725,1452,临沂职业学院,4137014195,山东省,临沂市,专科,nan,临沂职业学院,118.292275,35.01466,d92fa2a34080ae5ef5c59c6a,罗庄区
1038,725,1452,临沂职业学院,4137014195,山东省,临沂市,专科,nan,临沂职业学院,118.291502,35.014652,f6e3bc33dc06158049fc8d37,罗庄区
1039,736,1463,菏泽职业学院,4137014477,山东省,菏泽市,专科,nan,菏泽职业学院,115.483858,35.285667,1b72c761216758e0c5f50d5b,牡丹区
1040,736,1463,菏泽职业学院,4137014477,山东省,菏泽市,专科,nan,菏泽职业学院,115.48323,35.28177,5ae810fc7c491869c4f02557,牡丹区
1041,738,1465,威海海洋职业学院,4137014507,山东省,威海市,专科,nan,威海海洋职业学院,122.445818,37.069794,3df537c8af62aa420c0e6b69,荣成市
1042,738,1465,威海海洋职业学院,4137014507,山东省,威海市,专科,nan,威海海洋职业学院-明德学院,122.445769,37.069627,25fedc8629cea3d7d03ce3f7,荣成市
1043,738,1465,威海海洋职业学院,4137014507,山东省,威海市,专科,nan,威海海洋职业学院-威海市水产学校,122.444474,37.067825,b9b7c1e288215485f6eafc97,荣成市
1044,741,1468,日照航海工程职业学院,4137014605,山东省教育厅,日照市,专科,民办,日照航海工程职业学院,119.530913,35.476258,c7ccf8922574cdf39322e0e3,东港区
1045,743,1470,青岛幼儿师范高等专科学校,4137014688,山东省,青岛市,专科,nan,青岛幼儿师范高等专科学校,120.120347,36.179864,1cdd79165a785eafd42ce2de,胶州市
1046,745,1472,烟台文化旅游职业学院,4137014707,山东省,烟台市,专科,nan,烟台文化旅游职业学院,121.491306,37.426051,be079bc28239ba4ef02d8338,莱山区
1047,745,1472,烟台文化旅游职业学院,4137014707,山东省,烟台市,专科,nan,烟台文化旅游职业学院,121.490138,37.426708,9b60d6dcbf2a1d0a4251c078,莱山区
1048,746,1473,临沂科技职业学院,4137014708,山东省,临沂市,专科,nan,临沂科技职业学院,118.510133,35.115579,746e74098779923dadcb6629,河东区
1049,751,1535,漯河职业技术学院,4141010835,河南省,漯河市,专科,nan,漯河职业技术学院,114.015637,33.575362,f6ea5ec773e433ddf7e73bd9,源汇区
1050,751,1535,漯河职业技术学院,4141010835,河南省,漯河市,专科,nan,漯河职业技术学院,114.015352,33.574012,93ddc65be75e86780ab93a0f,源汇区
1051,751,1535,漯河职业技术学院,4141010835,河南省,漯河市,专科,nan,漯河职业技术学院五年制教学部漯河市中等专业学校,114.026769,33.56065,3e89787a8b5e6a1be9e58233,源汇区
1052,751,1535,漯河职业技术学院,4141010835,河南省,漯河市,专科,nan,漯河职业技术学院(东校区),114.1311,33.583906,a68ee66fbedf38d63a13fdc9,召陵区
1053,751,1535,漯河职业技术学院,4141010835,河南省,漯河市,专科,nan,漯河职业技术学院(临颍分院),113.96208,33.836418,5ce7cd0dd22bb517b3077d56,临颍县
1054,752,1536,三门峡职业技术学院,4141010842,河南省,三门峡市,专科,nan,三门峡职业技术学院,111.168355,34.794162,5215e225c25442d5d2f49e76,湖滨区
1055,752,1536,三门峡职业技术学院,4141010842,河南省,三门峡市,专科,nan,三门峡职业技术学院-医护学院,111.168862,34.794497,fe6e2dc60890fb224f3a5912,湖滨区
1056,752,1536,三门峡职业技术学院,4141010842,河南省,三门峡市,专科,nan,三门峡职业技术学院-汽车学院,111.168229,34.794655,f897b94c81fa850fc91b9529,湖滨区
1057,752,1536,三门峡职业技术学院,4141010842,河南省,三门峡市,专科,nan,三门峡职业技术学院-电气工程学院,111.168226,34.794656,1afb9937d27af1373a13fd6c,湖滨区
1058,754,1538,开封大学,4141011069,河南省,开封市,专科,nan,开封大学(北校区),114.340939,34.832959,f7cb723c7336d67b7702697a,龙亭区
1059,754,1538,开封大学,4141011069,河南省,开封市,专科,nan,开封大学,114.338654,34.828375,ff8a5af602644f920e3ddaff,龙亭区
1060,754,1538,开封大学,4141011069,河南省,开封市,专科,nan,开封大学,114.338384,34.828282,1c710f092db70b688a2fb54f,龙亭区
1061,754,1538,开封大学,4141011069,河南省,开封市,专科,nan,开封大学,114.338924,34.828469,20243c4bcea8973eae080f69,龙亭区
1062,754,1538,开封大学,4141011069,河南省,开封市,专科,nan,开封大学新校区/开封大学,114.340525,34.83034,db6d8d5886c528055b3ac88d,龙亭区
1063,754,1538,开封大学,4141011069,河南省,开封市,专科,nan,开封大学旅游学院,114.340328,34.832139,8d9cc4d8499183a36240a98a,龙亭区
1064,754,1538,开封大学,4141011069,河南省,开封市,专科,nan,开封大学东京大道校区-化学工程学院,114.338229,34.830646,14a899fbe45bd1ba4054d703,龙亭区
1065,757,1541,郑州电力高等专科学校,4141011828,河南省,郑州市,专科,nan,郑州电力高等专科学校,113.904446,34.804218,49a02a7a5c0ab4402b201afe,中牟县
1066,758,1542,黄河水利职业技术学院,4141012058,河南省,开封市,专科,nan,黄河水利职业技术学院,114.326923,34.833466,764672e59535f9ad94ec84c2,龙亭区
1067,758,1542,黄河水利职业技术学院,4141012058,河南省,开封市,专科,nan,黄河水利职业技术学院,114.328678,34.828971,8c303bb3de5cc72d07fef5c8,龙亭区
1068,758,1542,黄河水利职业技术学院,4141012058,河南省,开封市,专科,nan,黄河水利职业技术学院,114.340812,34.811979,2734a7a9cbf1622ec056acac,龙亭区
1069,760,1544,河南工业和信息化职业学院,4141012581,河南省,焦作市,专科,nan,河南工业和信息化职业学院,113.296598,35.203232,fb6e0ad2af250ad93f9a5e37,山阳区
1070,760,1544,河南工业和信息化职业学院,4141012581,河南省,焦作市,专科,nan,河南工业和信息化职业学院,113.216005,35.25171,cc097a4dc80b05c32bb97c6e,解放区
1071,760,1544,河南工业和信息化职业学院,4141012581,河南省,焦作市,专科,nan,河南工业和信息化职业学院太行路校区(焦作地理信息产业园),113.215675,35.252783,fd6b6f71ac29c46e26d2bb9f,解放区
1072,768,1552,河南工业职业技术学院,4141012794,河南省,南阳市,专科,nan,河南工业职业技术学院(新校区),112.603574,33.043616,2d26cb915e25094c3310afd3,宛城区
1073,768,1552,河南工业职业技术学院,4141012794,河南省,南阳市,专科,nan,河南工业职业技术学院(老校区),112.551321,33.01316,c9e43972289e5a769d9d68df,宛城区
1074,768,1552,河南工业职业技术学院,4141012794,河南省,南阳市,专科,nan,河南工业职业技术学院文化路生活区,112.53454,33.008752,fa7da3e878f11b6142d63ef1,卧龙区
1075,768,1552,河南工业职业技术学院,4141012794,河南省,南阳市,专科,nan,河南工业职业技术学院-软件职业技术学院,112.606169,33.044153,93adeef6a4984c64e5e965f3,宛城区
1076,772,1556,河南质量工程职业学院,4141013564,河南省,平顶山市,专科,nan,河南质量工程职业学院,113.297889,33.71859,764672e597ffffad95ec84b8,湛河区
1077,776,1560,商丘医学高等专科学校,4141013782,河南省,商丘市,专科,nan,商丘医学高等专科学校(新校区),115.714852,34.36339,7d6e6e90cf2ca5f193114c9a,梁园区
1078,795,1579,新乡职业技术学院,4141014245,河南省,新乡市,专科,nan,新乡职业技术学院,114.048985,35.284734,5e53af1a376f5b224051c09b,红旗区
1079,795,1579,新乡职业技术学院,4141014245,河南省,新乡市,专科,nan,新乡职业技术学院(北校区),114.046723,35.397116,4f64412b1abc50b9ab0dd8b8,卫辉市
1080,795,1579,新乡职业技术学院,4141014245,河南省,新乡市,专科,nan,新乡职业技术学院,114.047097,35.28511,b263c45bafdf4557ee74f864,红旗区
1081,803,1587,河南应用技术职业学院,4141014307,河南省,郑州市,专科,nan,河南应用技术职业学院,113.545708,34.778737,79fd6ea21a99ea35d42ce259,中原区
1082,803,1587,河南应用技术职业学院,4141014307,河南省,郑州市,专科,nan,河南应用技术职业学院-家属院,113.546952,34.778938,87a7b3d835292bf1c0f1cfb9,中原区
1083,817,1601,河南医学高等专科学校,4141014466,河南省,郑州市,专科,nan,河南医学高等专科学校,113.713892,34.620649,c7fb04bdf9d2e315fa0cad70,新郑市
1084,817,1601,河南医学高等专科学校,4141014466,河南省,郑州市,专科,nan,河南医学高等专科学校(北校区),113.698252,34.77786,9ee7cc78e938a47016c905fe,金水区
1085,823,1607,濮阳医学高等专科学校,4141014597,河南省,濮阳市,专科,nan,濮阳医学高等专科学校,114.998545,35.817475,961df256ff9c330a8e77273b,华龙区
1086,832,1616,郑州亚欧交通职业学院,4141014685,河南省教育厅,郑州市,专科,中外合作办学,郑州亚欧交通职业学院,113.659273,34.746458,fb4949eef6ba1c001d1d1184,二七区
1087,834,1618,河南对外经济贸易职业学院,4141014712,河南省,开封市,专科,nan,河南对外经济贸易职业学院,114.239919,34.835146,39c5d4b8d9126940e812e406,龙亭区
1088,834,1618,河南对外经济贸易职业学院,4141014712,河南省,开封市,专科,nan,河南对外经济贸易职业学院,114.242262,34.833892,7c66b6e2507e7ec322f0171a,龙亭区
1089,834,1618,河南对外经济贸易职业学院,4141014712,河南省,开封市,专科,nan,河南对外经济贸易职业学院,114.242173,34.833344,2211c610c3f0de20725e8026,龙亭区
1090,835,1619,濮阳石油化工职业技术学院,4141014713,河南省,濮阳市,专科,nan,濮阳石油化工职业技术学院,115.110728,35.778358,0a46dc0f788c3f5e30621250,华龙区
1091,835,1619,濮阳石油化工职业技术学院,4141014713,河南省,濮阳市,专科,nan,濮阳石油化工职业技术学院,115.177514,35.782408,09181b26e7bc67aa97ec8415,华龙区
1092,835,1619,濮阳石油化工职业技术学院,4141014713,河南省,濮阳市,专科,nan,濮阳石油化工职业技术学院,115.177371,35.782374,a0bc10cd48d7e37c4351c07e,华龙区
1093,835,1619,濮阳石油化工职业技术学院,4141014713,河南省,濮阳市,专科,nan,濮阳石油化工职业技术学院,115.177675,35.78248,23b103d0d6269f2b980050a7,华龙区
1094,835,1619,濮阳石油化工职业技术学院,4141014713,河南省,濮阳市,专科,nan,濮阳石油化工职业技术学院,115.177638,35.782404,f2f7e258dd580f36ad04579b,华龙区
1095,837,1621,兰考三农职业学院,4141014715,河南省,开封市,专科,nan,兰考三农职业学院,114.804325,34.804693,85f3bf53109b5962a1046451,兰考县
1096,849,1701,武汉职业技术学院,4142010834,湖北省,武汉市,专科,nan,武汉职业技术学院,114.422856,30.490329,696ec5b04dc2a578100daa43,洪山区
1097,849,1701,武汉职业技术学院,4142010834,湖北省,武汉市,专科,nan,武汉职业技术学院-西区,114.415055,30.492277,606da68639ce6d771811d50f,洪山区
1098,849,1701,武汉职业技术学院,4142010834,湖北省,武汉市,专科,nan,武汉职业技术学院(东区),114.422827,30.490246,ae6053fc13ed3b15f03cba17,洪山区
1099,852,1704,荆州理工职业学院,4142011074,湖北省,荆州市,专科,nan,荆州理工职业学院(中校区),112.259248,30.334966,d627de791437139f5e0d02d2,沙市区
1100,852,1704,荆州理工职业学院,4142011074,湖北省,荆州市,专科,nan,荆州理工职业学院(东校区),112.300071,30.301515,d5ff0d3541fe18705bf6be3b,沙市区
1101,852,1704,荆州理工职业学院,4142011074,湖北省,荆州市,专科,nan,荆州理工职业学院,112.260171,30.332985,8877c71a19d77f662bd7ab07,沙市区
1102,852,1704,荆州理工职业学院,4142011074,湖北省,荆州市,专科,nan,荆州理工职业学院,112.260171,30.332985,0e56d1d7fcc9445e1b94c673,沙市区
1103,855,1707,武汉城市职业学院,4142011796,湖北省,武汉市,专科,nan,武汉城市职业学院,114.328791,30.482329,bf29b702f57bd3e409b93a18,洪山区
1104,855,1707,武汉城市职业学院,4142011796,湖北省,武汉市,专科,nan,武汉城市职业学院(南校区),114.320914,30.445304,32e733522d974ad5250bd06c,洪山区
1105,855,1707,武汉城市职业学院,4142011796,湖北省,武汉市,专科,nan,武汉城市职业学院南校区-机电工程学院,114.320764,30.448181,a5009bbc3943cb94cf06a40d,洪山区
1106,862,1714,武汉工程职业技术学院,4142012738,湖北省,武汉市,专科,nan,武汉工程职业技术学院(校本部),114.553483,30.718569,341c35defd9381bde6073824,新洲区
1107,862,1714,武汉工程职业技术学院,4142012738,湖北省,武汉市,专科,nan,武汉工程职业技术学院(凤凰山校区),114.428302,30.655896,ee7986a1e0ff3b11e6073892,青山区
1108,862,1714,武汉工程职业技术学院,4142012738,湖北省,武汉市,专科,nan,武汉工程职业技术学院(罗家路校区),114.372497,30.625958,4ed0c1b3f99cabc92dfaa7c0,青山区
1109,869,1721,武汉软件工程职业学院,4142012978,湖北省,武汉市,专科,nan,武汉软件工程职业学院,114.433626,30.450796,d52831f99a3b91a62ffaa780,江夏区
1110,869,1721,武汉软件工程职业学院,4142012978,湖北省,武汉市,专科,nan,武汉软件工程职业学院(武昌校区),114.359666,30.608892,1393a52212dca57e96ca07f8,武昌区
1111,869,1721,武汉软件工程职业学院,4142012978,湖北省,武汉市,专科,nan,武汉软件工程职业学院正源光子学院(创业路),114.429754,30.449724,868e1069941ae142f4b91645,江夏区
1112,874,1726,湖北城市建设职业技术学院,4142012983,湖北省,武汉市,专科,nan,湖北城市建设职业技术学院,114.443373,30.407743,ac8555710625c676a10464df,江夏区
1113,874,1726,湖北城市建设职业技术学院,4142012983,湖北省,武汉市,专科,nan,湖北城市建设职业技术学院家属区,114.35726,30.514438,e092963d96317f442db96d99,洪山区
1114,882,1734,武汉商贸职业学院,4142012991,湖北省教育厅,武汉市,专科,民办,武汉商贸职业学院,114.467834,30.442733,550fd5f999cb4579931fc9df,江夏区
1115,883,1735,湖北艺术职业学院,4142013263,湖北省,武汉市,专科,nan,湖北艺术职业学院,114.378261,30.516706,beabdbf47cec64987169d3e2,洪山区
1116,883,1735,湖北艺术职业学院,4142013263,湖北省,武汉市,专科,nan,湖北艺术职业学院(石牌岭路校区),114.349857,30.531756,7e685ff42ee50f1b465726ee,武昌区
1117,883,1735,湖北艺术职业学院,4142013263,湖北省,武汉市,专科,nan,湖北艺术职业学院(武珞路),114.353553,30.533978,15e1e85e023018a359109389,洪山区
1118,885,1737,咸宁职业技术学院,4142013265,湖北省,咸宁市,专科,nan,咸宁职业技术学院,114.321259,29.832714,7ae24097afc4fc2230169b2b,咸安区
1119,887,1739,江汉艺术职业学院,4142013793,湖北省,潜江市,专科,nan,江汉艺术职业学院,112.91504,30.428779,435d7aea5f1708355abbbc01,
1120,887,1739,江汉艺术职业学院,4142013793,湖北省,潜江市,专科,nan,江汉艺术职业学院(艺术楼东区2),112.914714,30.428543,b4442c14bd3b791bebf853dd,
1121,887,1739,江汉艺术职业学院,4142013793,湖北省,潜江市,专科,nan,江汉艺术职业学院潜江龙虾学院,112.921794,30.395566,f1630187de89c2ddeddfcaf0,
1122,887,1739,江汉艺术职业学院,4142013793,湖北省,潜江市,专科,nan,江汉艺术职业学院-北苑住宿区,112.915299,30.430754,b33c516ef9b451dcae0457eb,
1123,895,1747,湖北科技职业学院,4142014119,湖北省,武汉市,专科,nan,湖北科技职业学院(关山校区),114.410792,30.477711,d146b388bdfc83de750269e3,洪山区
1124,897,1749,湖北工程职业学院,4142014197,湖北省,黄石市,专科,nan,湖北工程职业学院(广州路校区),115.030907,30.191113,41572e0017ae44c9b45f1e68,下陆区
1125,897,1749,湖北工程职业学院,4142014197,湖北省,黄石市,专科,nan,湖北工程职业学院(新校区),115.125244,30.149288,0e11dfe13730b95a43afe694,大冶市
1126,897,1749,湖北工程职业学院,4142014197,湖北省,黄石市,专科,nan,湖北工程职业学院教育学院,115.045879,30.197155,c8ee5476ffed0fd132f71d53,下陆区
1127,900,1752,湖北体育职业学院,4142014356,湖北省,武汉市,专科,nan,湖北体育职业学院,114.457058,30.495571,11f6c0a9ecd9d74cb64f54ab,江夏区
1128,900,1752,湖北体育职业学院,4142014356,湖北省,武汉市,专科,nan,湖北体育职业学院(虎泉校区),114.376943,30.513401,c31998cbe1f06305601c676c,洪山区
1129,901,1753,襄阳汽车职业技术学院,4142014357,湖北省,襄阳市,专科,nan,襄阳汽车职业技术学院,112.096686,31.958622,784931bc8066f4c6fca778f7,襄城区
1130,901,1753,襄阳汽车职业技术学院,4142014357,湖北省,襄阳市,专科,nan,襄阳汽车职业技术学院,112.099973,31.957342,0b4b05a84546f08cebe58203,襄城区
1131,901,1753,襄阳汽车职业技术学院,4142014357,湖北省,襄阳市,专科,nan,襄阳汽车职业技术学院,112.09977,31.956795,ccf97d0eca6cccdb4bcc4a3f,襄城区
1132,901,1753,襄阳汽车职业技术学院,4142014357,湖北省,襄阳市,专科,nan,襄阳汽车职业技术学院,112.100176,31.957889,027a3b65be3d8a85c9fa5f21,襄城区
1133,901,1753,襄阳汽车职业技术学院,4142014357,湖北省,襄阳市,专科,nan,襄阳汽车职业技术学院(常青路校区),112.174147,32.02669,d6638c548942797982a12e34,襄城区
1134,935,1839,湖南邮电职业技术学院,4143012845,湖南省,长沙市,专科,nan,湖南邮电职业技术学院,112.982471,28.16644,9ee392b83ea53a41bbbd6369,天心区
1135,941,1845,湖南艺术职业学院,4143013032,湖南省,长沙市,专科,nan,湖南艺术职业学院(新校区),113.133669,28.262241,261308196d2ade9d5c17c306,长沙县
1136,941,1845,湖南艺术职业学院,4143013032,湖南省,长沙市,专科,nan,湖南艺术职业学院(北院),112.92754,28.217667,a5ef680f53790cd7b9df8f6a,岳麓区
1137,941,1845,湖南艺术职业学院,4143013032,湖南省,长沙市,专科,nan,湖南艺术职业学院(南校区),112.943256,28.173822,e47a0cde928f67eafa0cad0e,岳麓区
1138,957,1861,湖南工艺美术职业学院,4143013921,湖南省,益阳市,专科,nan,湖南工艺美术职业学院,112.341059,28.580762,8ce08904cc2a6c8b725e809b,赫山区
1139,957,1861,湖南工艺美术职业学院,4143013921,湖南省,益阳市,专科,nan,湖南工艺美术职业学院-创新创业教育学院,112.341575,28.581023,632705c12df114ebe856fa54,赫山区
1140,958,1862,湖南九嶷职业技术学院,4143013922,湖南省,永州市,专科,nan,湖南九嶷职业技术学院,111.639001,26.392626,d5baceae3bc6dcab88db73d5,冷水滩区
1141,958,1862,湖南九嶷职业技术学院,4143013922,湖南省,永州市,专科,nan,湖南九嶷职业技术学院,111.639008,26.392629,9bec9dd18b015c0cb4265587,冷水滩区
1142,965,1869,湖南铁路科技职业技术学院,4143013942,湖南省,株洲市,专科,nan,湖南铁路科技职业技术学院衡阳校区,112.605916,26.849869,94fa1e1555dd35f5901fc9bb,雁峰区
1143,966,1870,湖南安全技术职业学院,4143014025,湖南省,长沙市,专科,nan,湖南安全技术职业学院,113.0644,28.276451,9ef7b704941dd4fd16c905dc,长沙县
1144,987,1958,顺德职业技术学院,4144010831,广东省,佛山市,专科,nan,顺德职业技术学院,113.330979,22.815475,0a15c7ecf464c9ffed74f853,顺德区
1145,988,1959,广东轻工职业技术学院,4144010833,广东省,广州市,专科,nan,广东轻工职业技术学院(西北门),113.306068,23.097221,4e9c94f928c9c6dcf72310fc,海珠区
1146,988,1959,广东轻工职业技术学院,4144010833,广东省,广州市,专科,nan,广东轻工职业技术学院-继续教育学院,113.305975,23.097204,f07fab05f97957afabf0cdc8,海珠区
1147,988,1959,广东轻工职业技术学院,4144010833,广东省,广州市,专科,nan,广东轻工职业技术学院停车场(鹭江西街),113.313467,23.097915,723a7211b8fc019eb34c4909,海珠区
1148,1009,1980,广东女子职业技术学院,4144012742,广东省,广州市,专科,nan,广东女子职业技术学院,113.473458,22.963387,f3ca69dcf1fcf898c61b75a7,番禺区
1149,1009,1980,广东女子职业技术学院,4144012742,广东省,广州市,专科,nan,广东女子职业技术学院(海珠校区),113.318049,23.105485,48b809749c99584d9a005050,海珠区
1150,1014,1985,阳江职业技术学院,4144012771,广东省,阳江市,专科,nan,阳江职业技术学院,111.993557,21.848992,bb1d38e4dc23dc4d0d0a708c,江城区
1151,1014,1985,阳江职业技术学院,4144012771,广东省,阳江市,专科,nan,阳江职业技术学院-北区,111.995591,21.851823,cf9925b32b9146740c0e6b24,江城区
1152,1030,2001,茂名职业技术学院,4144013712,广东省,茂名市,专科,nan,茂名职业技术学院(北校区),110.9399,21.680405,5ce2637d2704c751af31e596,茂南区
1153,1030,2001,茂名职业技术学院,4144013712,广东省,茂名市,专科,nan,茂名职业技术学院(南校区),110.984514,21.472931,a7ac2dcc8a28331aa9175a6c,电白区
1154,1030,2001,茂名职业技术学院,4144013712,广东省,茂名市,专科,nan,茂名职业技术学院三二分段校区,110.91569,21.659935,1facc358f214a9a8af31e58a,茂南区
1155,1044,2015,广州科技贸易职业学院,4144014065,广东省,广州市,专科,nan,广州科技贸易职业学院(番禺校区),113.399145,23.006543,c4767c9c1e7aafe87f29bd3a,番禺区
1156,1051,2022,广东南方职业学院,4144014265,广东省教育厅,江门市,专科,民办,广东南方职业学院,113.146046,22.590417,8f68e7ce8e4b8e5d0e3ddafb,江海区
1157,1051,2022,广东南方职业学院,4144014265,广东省教育厅,江门市,专科,民办,广东南方职业学院国际教育学院,113.14658,22.589991,c572392c9c84fa319d9d68dd,江海区
1158,1051,2022,广东南方职业学院,4144014265,广东省教育厅,江门市,专科,民办,广东南方职业学院创新创业学院,113.143286,22.590253,015a3bd9985a8a63b6147f79,江海区
1159,1054,2025,广东环境保护工程职业学院,4144014311,广东省,佛山市,专科,nan,广东环境保护工程职业学院,112.916466,23.054338,bba87388e74c45debca8222e,南海区
1160,1066,2037,广东茂名幼儿师范专科学校,4144014587,广东省,茂名市,专科,nan,广东茂名幼儿师范专科学校(茂名校区),110.843902,21.655698,8ae97f81a11a994194ca07ae,茂南区
1161,1066,2037,广东茂名幼儿师范专科学校,4144014587,广东省,茂名市,专科,nan,广东茂名幼儿师范专科学校(高州校区),110.854197,21.933746,32c7f8ab147734fa61685818,高州市
1162,1092,2101,柳州铁道职业技术学院,4145012392,广西壮族自治区,柳州市,专科,nan,柳州铁道职业技术学院,109.540008,24.401964,e81dbc05bbf97d7b901fc998,鱼峰区
1163,1092,2101,柳州铁道职业技术学院,4145012392,广西壮族自治区,柳州市,专科,nan,柳州铁道职业技术学院运输管理学院(官塘校区),109.540231,24.403435,36961202b38642fcb426559b,鱼峰区
1164,1104,2113,广西工程职业学院,4145014127,广西壮族自治区教育厅,百色市,专科,民办,广西工程职业学院,107.611647,23.32066,f1ecf09129e91e1de01103a7,平果市
1165,1104,2113,广西工程职业学院,4145014127,广西壮族自治区教育厅,百色市,专科,民办,广西工程职业学院(宿舍区),107.613033,23.31895,be265b2c9bb70308e215f911,平果市
1166,1121,2130,广西物流职业技术学院,4145014723,广西壮族自治区,贵港市,专科,nan,广西物流职业技术学院,109.556144,23.051623,27cce4e361839e3e5cbe86e6,港北区
1167,1121,2130,广西物流职业技术学院,4145014723,广西壮族自治区,贵港市,专科,nan,广西物流职业技术学院,109.556615,23.052284,22ff3af94c611d48ae080f74,港北区
1168,1121,2130,广西物流职业技术学院,4145014723,广西壮族自治区,贵港市,专科,nan,广西物流职业技术学院-交通院,109.554259,23.050511,f904550f3b80284fe856fa72,港北区
1169,1121,2130,广西物流职业技术学院,4145014723,广西壮族自治区,贵港市,专科,nan,广西物流职业技术学院-商学院,109.553829,23.050414,99ea4b5189fb69a082a12e00,港北区
1170,1126,2135,崇左幼儿师范高等专科学校,4245051675,广西壮族自治区,崇左市,专科,nan,崇左幼儿师范高等专科学校,107.408529,22.390966,fb848efa00490aab9403193c,江州区
1171,1139,2156,海南卫生健康职业学院,4146014724,海南省,海口市,专科,nan,海南卫生健康职业学院(秀华校区),110.296149,20.014587,7699f7d15a7c3a21715e800d,秀英区
1172,1139,2156,海南卫生健康职业学院,4146014724,海南省,海口市,专科,nan,海南卫生健康职业学院(椰海校区),110.308792,19.983064,3f4e7ced7f0884199b68b4b9,龙华区
1173,1148,2191,重庆传媒职业学院,4150012756,重庆市教委,重庆市,专科,民办,重庆传媒职业学院,106.079201,29.860057,90deb8c9a8106b7e94ca07f4,铜梁区
1174,1157,2200,重庆医药高等专科学校,4150014009,重庆市,重庆市,专科,nan,重庆医药高等专科学校,106.319512,29.632984,cde9e2c79ea5a2cae81e975e,沙坪坝区
1175,1175,2218,重庆文化艺术职业学院,4150014482,重庆市,重庆市,专科,nan,重庆文化艺术职业学院,106.539468,29.353186,4a73726ab121e74b6268586c,巴南区
1176,1201,2297,四川托普信息技术职业学院,4151012963,四川省教育厅,成都市,专科,民办,四川托普信息技术职业学院,103.930511,30.788082,4edf9fbf34b2df95cd06a4a0,郫都区
1177,1201,2297,四川托普信息技术职业学院,4151012963,四川省教育厅,成都市,专科,民办,四川托普信息技术职业学院大学生创业孵化中心(基地),103.928799,30.787862,ecdcf1d1bc2c7e0dea56fa4a,郫都区
1178,1201,2297,四川托普信息技术职业学院,4151012963,四川省教育厅,成都市,专科,民办,四川托普信息技术职业学院汽车学院,103.928125,30.786818,a63d518c68338b3cc2f1cf20,郫都区
1179,1216,2312,四川铁道职业学院,4151014006,四川省,成都市,专科,nan,四川铁道职业学院-学生服务区,103.811616,30.886003,d73663a35747ef894c3a593d,郫都区
1180,1247,2343,天府新区通用航空职业学院,4151014646,四川省教育厅,眉山市,专科,民办,天府新区通用航空职业学院,104.086243,30.203592,5bbb75fa01f1c4a714b54b63,仁寿县
1181,1247,2343,天府新区通用航空职业学院,4151014646,四川省教育厅,眉山市,专科,民办,天府新区通用航空职业学院,104.078837,30.203212,dd105fc47e744e4f9e9d68cc,仁寿县
1182,1298,2423,贵州装备制造职业学院,4152014613,贵州省,贵阳市,专科,nan,贵州装备制造职业学院,106.473498,26.593218,1802bc84e5744cb4d92f28f6,清镇市
1183,1310,2467,昆明冶金高等专科学校,4153011557,云南省,昆明市,专科,nan,昆明冶金高等专科学校,102.695529,25.07139,14076dee159d3bf502294f0e,五华区
1184,1310,2467,昆明冶金高等专科学校,4153011557,云南省,昆明市,专科,nan,昆明冶金高等专科学校,102.447974,24.888503,bebc08b4ab0c84b2e115f928,安宁市
1185,1310,2467,昆明冶金高等专科学校,4153011557,云南省,昆明市,专科,nan,昆明冶金高等专科学校-冶金材料学院,102.448411,24.890144,9f71a95c9bedd05b1894c6f8,安宁市
1186,1310,2467,昆明冶金高等专科学校,4153011557,云南省,昆明市,专科,nan,昆明冶金高等专科学校(博方校区),102.665823,25.094514,e5d30fcf3e72a8a6b6f42f9a,五华区
1187,1326,2483,云南城市建设职业学院,4153013759,云南省教育厅,昆明市,专科,民办,云南城市建设职业学院,103.010667,25.240163,e83cf33145fb043a63180911,嵩明县
1188,1330,2487,保山中医药高等专科学校,4153014014,云南省,保山市,专科,nan,保山中医药高等专科学校,99.230604,25.090268,f526e530f40b6c295a3ac88e,隆阳区
1189,1330,2487,保山中医药高等专科学校,4153014014,云南省,保山市,专科,nan,保山中医药高等专科学校-2教职工宿舍区,99.162282,25.113907,a5ef680f0026fbd6b8df8fbf,隆阳区
1190,1330,2487,保山中医药高等专科学校,4153014014,云南省,保山市,专科,nan,保山中医药高等专科学校1教职工宿舍区,99.1612,25.110264,dfda99772dc790846240a92d,隆阳区
1191,1330,2487,保山中医药高等专科学校,4153014014,云南省,保山市,专科,nan,保山中医药高等专科学校(西北门),99.156228,25.111461,0a15c7ec070eb8fdec74f8bf,隆阳区
1192,1339,2496,昆明卫生职业学院,4153014372,云南省教育厅,昆明市,专科,民办,昆明卫生职业学院,102.631699,24.654939,d1384ef093c5cc759cec2b07,晋宁区
1193,1339,2496,昆明卫生职业学院,4153014372,云南省教育厅,昆明市,专科,民办,昆明卫生职业学院(昆明校区),102.641494,25.083034,291e69fc73e56bf8fadc8558,五华区
1194,1339,2496,昆明卫生职业学院,4153014372,云南省教育厅,昆明市,专科,民办,昆明卫生职业学院,102.629778,24.65702,55ae893688f8e0ef09b93ada,晋宁区
1195,1339,2496,昆明卫生职业学院,4153014372,云南省教育厅,昆明市,专科,民办,昆明卫生职业学院,102.629114,24.656722,44fe05a7c2a7e0950189729f,晋宁区
1196,1339,2496,昆明卫生职业学院,4153014372,云南省教育厅,昆明市,专科,民办,昆明卫生职业学院,102.628924,24.656637,c2a6a394eb5a36983ce23105,晋宁区
1197,1339,2496,昆明卫生职业学院,4153014372,云南省教育厅,昆明市,专科,民办,昆明卫生职业学院三校区临床学院,102.630685,24.656041,32d6f2fe157ab759f8f0cb7a,晋宁区
1198,1339,2496,昆明卫生职业学院,4153014372,云南省教育厅,昆明市,专科,民办,昆明卫生职业学院影像学院,102.6288,24.654315,177c8df34e85523707fef589,晋宁区
1199,1384,2602,咸阳职业技术学院,4161013946,陕西省,咸阳市,专科,nan,咸阳职业技术学院,108.74309,34.304881,3e4acec2f72791a9fbf0cbc1,
1200,1403,2643,陇南师范高等专科学校,4162011806,甘肃省,陇南市,专科,nan,陇南师范高等专科学校,105.748001,33.760996,680fb70315a4889c8bb988d1,成县
1201,1403,2643,陇南师范高等专科学校,4162011806,甘肃省,陇南市,专科,nan,陇南师范高等专科学校初等教育学院,105.747869,33.761068,be0f9d9ef3a72e7488db7392,成县
1202,1403,2643,陇南师范高等专科学校,4162011806,甘肃省,陇南市,专科,nan,陇南师范高等专科学校马克思主义学院,105.748159,33.760866,01da5f1696456ba7fb2213df,成县
1203,1421,2661,兰州科技职业学院,4162014518,甘肃省教育厅,兰州市,专科,民办,兰州科技职业学院,104.014802,35.958759,96df4d9b0fd7b535f22d83b4,榆中县
1204,1434,2678,青海建筑职业技术学院,4163012974,青海省,西宁市,专科,nan,青海建筑职业技术学院,101.765774,36.606991,96b672aa89138975cf04efe0,城中区
1205,1438,2690,宁夏民族职业技术学院,4164012716,宁夏回族自治区,吴忠市,专科,nan,宁夏民族职业技术学院,106.161164,37.975591,5ce2637d8889302fae31e518,利通区
1206,1438,2690,宁夏民族职业技术学院,4164012716,宁夏回族自治区,吴忠市,专科,nan,宁夏民族职业技术学院,106.219928,37.989799,15ae1356d9f1ba3b9122e00d,利通区
1207,1441,2693,宁夏工商职业技术学院,4164013087,宁夏回族自治区,银川市,专科,nan,宁夏工商职业技术学院,106.137201,38.53203,00f1c7fbf41a081fc056ac39,西夏区
1208,1456,2727,新疆轻工职业技术学院,4165012514,新疆维吾尔自治区,乌鲁木齐市,专科,nan,新疆轻工职业技术学院(北校区),87.631767,43.934329,d8e617cfa16992d5130daac9,米东区
1209,1456,2727,新疆轻工职业技术学院,4165012514,新疆维吾尔自治区,乌鲁木齐市,专科,nan,新疆轻工职业技术学院(铁路局校区),87.574759,43.879303,e559af1d2fc0d9782ce67b77,新市区
1210,1456,2727,新疆轻工职业技术学院,4165012514,新疆维吾尔自治区,乌鲁木齐市,专科,nan,新疆轻工职业技术学院,87.635374,43.927396,1a368808db6d5b4ec909f036,米东区
1211,1456,2727,新疆轻工职业技术学院,4165012514,新疆维吾尔自治区,乌鲁木齐市,专科,nan,新疆轻工职业技术学院(南校区),87.632211,43.922711,bab4628c625fd7d1f942b2ac,米东区
